{
"type": "FeatureCollection",
"name": "geo_45_1",
"crs": { "type": "name", "properties": { "name": "urn:ogc:def:crs:OGC:1.3:CRS84" } },
"features": [
{ "type": "Feature", "properties": { "ID": 4511450100140, "正式名称": "医療法人真愛会　髙宮病院", "機関区分": 1, "都道府県コード": 45, "市区町村コード": 201, "所在地": "宮崎県宮崎市吉村町大町甲１９３１番地", "緯度": 31.915334, "経度": 131.442947, "url": "https://www.iryou.teikyouseido.mhlw.go.jp/znk-web/juminkanja/S2430/initialize?prefCd=45&kikanCd=1450100140&kikanKbn=1", "url2": "http://www.takamiya.or.jp/", "内容": "医療法人真愛会　髙宮病院【1:病院】【診療科目:内科_精神科_神経科】【一般病床数:0療養病床数:0精神病床数:221感染症病床数:0合計病床数:221】宮崎県宮崎市吉村町大町甲１９３１番地" }, "geometry": { "type": "Point", "coordinates": [ 131.442947, 31.915334 ] } },
{ "type": "Feature", "properties": { "ID": 4511450100270, "正式名称": "医療法人慈光会　宮崎若久病院", "機関区分": 1, "都道府県コード": 45, "市区町村コード": 201, "所在地": "宮崎県宮崎市福島町寺山３１４７番地", "緯度": 31.908484, "経度": 131.40337, "url": "https://www.iryou.teikyouseido.mhlw.go.jp/znk-web/juminkanja/S2430/initialize?prefCd=45&kikanCd=1450100270&kikanKbn=1", "url2": "http://www.miyazaki-wakahisa.com/", "内容": "医療法人慈光会　宮崎若久病院【1:病院】【診療科目:精神科】【一般病床数:0療養病床数:0精神病床数:190感染症病床数:0合計病床数:190】宮崎県宮崎市福島町寺山３１４７番地" }, "geometry": { "type": "Point", "coordinates": [ 131.40337, 31.908484 ] } },
{ "type": "Feature", "properties": { "ID": 4511450100300, "正式名称": "医療法人清芳会　井上病院", "機関区分": 1, "都道府県コード": 45, "市区町村コード": 201, "所在地": "宮崎県宮崎市大字芳士８０番地", "緯度": 31.965946, "経度": 131.430444, "url": "https://www.iryou.teikyouseido.mhlw.go.jp/znk-web/juminkanja/S2430/initialize?prefCd=45&kikanCd=1450100300&kikanKbn=1", "url2": "http://www.inoue-hp.net", "内容": "医療法人清芳会　井上病院【1:病院】【診療科目:精神科_心療内科】【一般病床数:0療養病床数:0精神病床数:186感染症病床数:0合計病床数:186】宮崎県宮崎市大字芳士８０番地" }, "geometry": { "type": "Point", "coordinates": [ 131.430444, 31.965946 ] } },
{ "type": "Feature", "properties": { "ID": 4511450100690, "正式名称": "独立行政法人国立病院機構　宮崎東病院", "機関区分": 1, "都道府県コード": 45, "市区町村コード": 201, "所在地": "宮崎県宮崎市大字田吉４３７４番地１", "緯度": 31.869063, "経度": 131.445143, "url": "https://www.iryou.teikyouseido.mhlw.go.jp/znk-web/juminkanja/S2430/initialize?prefCd=45&kikanCd=1450100690&kikanKbn=1", "url2": "https://miyazakihigashi.hosp.go.jp/", "内容": "独立行政法人国立病院機構　宮崎東病院【1:病院】【診療科目:内科_血液・腫瘍内科_脳神経内科_呼吸器内科_循環器内科_外科_呼吸器外科_整形外科_小児科_心療内科_児童精神科_歯科_リハビリテーション科_放射線科】【一般病床数:154療養病床数:0精神病床数:30感染症病床数:0合計病床数:238】宮崎県宮崎市大字田吉４３７４番地１" }, "geometry": { "type": "Point", "coordinates": [ 131.445143, 31.869063 ] } },
{ "type": "Feature", "properties": { "ID": 4511450100720, "正式名称": "県立宮崎病院", "機関区分": 1, "都道府県コード": 45, "市区町村コード": 201, "所在地": "宮崎県宮崎市北高松町５番３０号", "緯度": 31.916378, "経度": 131.416544, "url": "https://www.iryou.teikyouseido.mhlw.go.jp/znk-web/juminkanja/S2430/initialize?prefCd=45&kikanCd=1450100720&kikanKbn=1", "url2": "http://www.pref-hp.miyazaki.miyazaki.jp/", "内容": "県立宮崎病院【1:病院】【診療科目:内科_脳神経内科_循環器内科_内視鏡内科_外科_脳神経外科_呼吸器外科_心臓血管外科_消化器外科_整形外科_小児科_小児外科_産婦人科_眼科_頭頸部・耳鼻いんこう科_皮膚科_泌尿器科_精神科_歯科_歯科口腔外科_リハビリテーション科_放射線科_病理診断科_臨床検査科_救急科_麻酔科】【一般病床数:459療養病床数:0精神病床数:35感染症病床数:8合計病床数:502】宮崎県宮崎市北高松町５番３０号" }, "geometry": { "type": "Point", "coordinates": [ 131.416544, 31.916378 ] } },
{ "type": "Feature", "properties": { "ID": 4511450100980, "正式名称": "独立行政法人地域医療機能推進機構宮崎江南病院", "機関区分": 1, "都道府県コード": 45, "市区町村コード": 201, "所在地": "宮崎県宮崎市大坪西１丁目２番１号", "緯度": 31.896313, "経度": 131.404965, "url": "https://www.iryou.teikyouseido.mhlw.go.jp/znk-web/juminkanja/S2430/initialize?prefCd=45&kikanCd=1450100980&kikanKbn=1", "url2": "http://miyazaki.jcho.go.jp", "内容": "独立行政法人地域医療機能推進機構宮崎江南病院【1:病院】【診療科目:内科_循環器内科_外科_整形外科_形成外科_リハビリテーション科_放射線科_麻酔科】【一般病床数:269療養病床数:0精神病床数:0感染症病床数:0合計病床数:269】宮崎県宮崎市大坪西１丁目２番１号" }, "geometry": { "type": "Point", "coordinates": [ 131.404965, 31.896313 ] } },
{ "type": "Feature", "properties": { "ID": 4511450101570, "正式名称": "医療法人社団仁和会　竹内病院", "機関区分": 1, "都道府県コード": 45, "市区町村コード": 201, "所在地": "宮崎県宮崎市霧島２丁目２６０番地", "緯度": 31.92941, "経度": 131.413976, "url": "https://www.iryou.teikyouseido.mhlw.go.jp/znk-web/juminkanja/S2430/initialize?prefCd=45&kikanCd=1450101570&kikanKbn=1", "url2": "http://www.zinwakai-takeuchi.com/", "内容": "医療法人社団仁和会　竹内病院【1:病院】【診療科目:内科_呼吸器内科_循環器内科_外科_呼吸器外科_消化器外科_肛門外科_リウマチ科_リハビリテーション科_放射線科】【一般病床数:36療養病床数:30精神病床数:0感染症病床数:0合計病床数:83】宮崎県宮崎市霧島２丁目２６０番地" }, "geometry": { "type": "Point", "coordinates": [ 131.413976, 31.92941 ] } },
{ "type": "Feature", "properties": { "ID": 4511450102160, "正式名称": "医療法人社団紘和会　平和台病院", "機関区分": 1, "都道府県コード": 45, "市区町村コード": 201, "所在地": "宮崎県宮崎市矢の先町１５０−１", "緯度": 31.939145, "経度": 131.41341, "url": "https://www.iryou.teikyouseido.mhlw.go.jp/znk-web/juminkanja/S2430/initialize?prefCd=45&kikanCd=1450102160&kikanKbn=1", "url2": "http://www.heiwadai.or.jp", "内容": "医療法人社団紘和会　平和台病院【1:病院】【診療科目:内科_糖尿病内科_呼吸器内科_消化器内科_放射線科】【一般病床数:50療養病床数:30精神病床数:0感染症病床数:0合計病床数:80】宮崎県宮崎市矢の先町１５０−１" }, "geometry": { "type": "Point", "coordinates": [ 131.41341, 31.939145 ] } },
{ "type": "Feature", "properties": { "ID": 4511450103910, "正式名称": "一般財団法人弘潤会　野崎病院", "機関区分": 1, "都道府県コード": 45, "市区町村コード": 201, "所在地": "宮崎県宮崎市恒久５５６７番地", "緯度": 31.887936, "経度": 131.405227, "url": "https://www.iryou.teikyouseido.mhlw.go.jp/znk-web/juminkanja/S2430/initialize?prefCd=45&kikanCd=1450103910&kikanKbn=1", "url2": "http://www.koujunkai.jp/nozaki", "内容": "一般財団法人弘潤会　野崎病院【1:病院】【診療科目:内科_呼吸器内科_循環器内科_消化器内科_精神科_神経科_心療内科_歯科_リハビリテーション科_放射線科】【一般病床数:0療養病床数:60精神病床数:400感染症病床数:0合計病床数:460】宮崎県宮崎市恒久５５６７番地" }, "geometry": { "type": "Point", "coordinates": [ 131.405227, 31.887936 ] } },
{ "type": "Feature", "properties": { "ID": 4511450104180, "正式名称": "一般財団法人弘潤会　野崎東病院", "機関区分": 1, "都道府県コード": 45, "市区町村コード": 201, "所在地": "宮崎県宮崎市村角町高尊２１０５番地", "緯度": 31.958308, "経度": 131.447704, "url": "https://www.iryou.teikyouseido.mhlw.go.jp/znk-web/juminkanja/S2430/initialize?prefCd=45&kikanCd=1450104180&kikanKbn=1", "url2": "http://www.koujunkai.jp/wp/higashi/", "内容": "一般財団法人弘潤会　野崎東病院【1:病院】【診療科目:内科_脳神経内科_循環器内科_消化器内科_整形外科_泌尿器科_リハビリテーション科_放射線科】【一般病床数:96療養病床数:0精神病床数:0感染症病床数:0合計病床数:96】宮崎県宮崎市村角町高尊２１０５番地" }, "geometry": { "type": "Point", "coordinates": [ 131.447704, 31.958308 ] } },
{ "type": "Feature", "properties": { "ID": 4511450104470, "正式名称": "医療法人財団志清会阿波岐ヶ原病院", "機関区分": 1, "都道府県コード": 45, "市区町村コード": 201, "所在地": "宮崎県宮崎市阿波岐原町前浜４２７６−７０６", "緯度": 31.939845, "経度": 131.462565, "url": "https://www.iryou.teikyouseido.mhlw.go.jp/znk-web/juminkanja/S2430/initialize?prefCd=45&kikanCd=1450104470&kikanKbn=1", "url2": null, "内容": "医療法人財団志清会阿波岐ヶ原病院【1:病院】【診療科目:内科_呼吸器内科_循環器内科_消化器内科_リハビリテーション科_放射線科】【一般病床数:0療養病床数:50精神病床数:0感染症病床数:0合計病床数:50】宮崎県宮崎市阿波岐原町前浜４２７６−７０６" }, "geometry": { "type": "Point", "coordinates": [ 131.462565, 31.939845 ] } },
{ "type": "Feature", "properties": { "ID": 4511450104630, "正式名称": "若草病院", "機関区分": 1, "都道府県コード": 45, "市区町村コード": 201, "所在地": "宮崎県宮崎市宮田町７番３７号", "緯度": 31.912293, "経度": 131.426346, "url": "https://www.iryou.teikyouseido.mhlw.go.jp/znk-web/juminkanja/S2430/initialize?prefCd=45&kikanCd=1450104630&kikanKbn=1", "url2": "https://www.miyazaki-wakakusa.or.jp", "内容": "若草病院【1:病院】【診療科目:精神科】【一般病床数:0療養病床数:0精神病床数:127感染症病床数:0合計病床数:127】宮崎県宮崎市宮田町７番３７号" }, "geometry": { "type": "Point", "coordinates": [ 131.426346, 31.912293 ] } },
{ "type": "Feature", "properties": { "ID": 4511450104760, "正式名称": "獅子目整形外科病院", "機関区分": 1, "都道府県コード": 45, "市区町村コード": 201, "所在地": "宮崎県宮崎市島之内６６５４番地", "緯度": 31.982107, "経度": 131.447865, "url": "https://www.iryou.teikyouseido.mhlw.go.jp/znk-web/juminkanja/S2430/initialize?prefCd=45&kikanCd=1450104760&kikanKbn=1", "url2": "https://www.shishimeseikei.or.jp/", "内容": "獅子目整形外科病院【1:病院】【診療科目:内科_胃腸内科_外科_整形外科_リウマチ科_リハビリテーション科】【一般病床数:16療養病床数:22精神病床数:0感染症病床数:0合計病床数:38】宮崎県宮崎市島之内６６５４番地" }, "geometry": { "type": "Point", "coordinates": [ 131.447865, 31.982107 ] } },
{ "type": "Feature", "properties": { "ID": 4511450104920, "正式名称": "医療法人陽明会　増田病院", "機関区分": 1, "都道府県コード": 45, "市区町村コード": 201, "所在地": "宮崎県宮崎市大瀬町２１７６－１", "緯度": 31.972735, "経度": 131.380266, "url": "https://www.iryou.teikyouseido.mhlw.go.jp/znk-web/juminkanja/S2430/initialize?prefCd=45&kikanCd=1450104920&kikanKbn=1", "url2": "http://www.masudahp.jp", "内容": "医療法人陽明会　増田病院【1:病院】【診療科目:内科_循環器内科_消化器内科_外科_肛門外科_整形外科_皮膚科_泌尿器科_リハビリテーション科_放射線科_臨床検査科】【一般病床数:0療養病床数:51精神病床数:0感染症病床数:0合計病床数:51】宮崎県宮崎市大瀬町２１７６－１" }, "geometry": { "type": "Point", "coordinates": [ 131.380266, 31.972735 ] } },
{ "type": "Feature", "properties": { "ID": 4511450105060, "正式名称": "医療法人社団誠和会　藤木病院", "機関区分": 1, "都道府県コード": 45, "市区町村コード": 201, "所在地": "宮崎県宮崎市大字小松２９８８番地", "緯度": 31.92822, "経度": 131.385657, "url": "https://www.iryou.teikyouseido.mhlw.go.jp/znk-web/juminkanja/S2430/initialize?prefCd=45&kikanCd=1450105060&kikanKbn=1", "url2": "http://www.fujiki-hp.com", "内容": "医療法人社団誠和会　藤木病院【1:病院】【診療科目:内科_消化器内科_外科_耳鼻いんこう科_リハビリテーション科】【一般病床数:0療養病床数:68精神病床数:0感染症病床数:0合計病床数:68】宮崎県宮崎市大字小松２９８８番地" }, "geometry": { "type": "Point", "coordinates": [ 131.385657, 31.92822 ] } },
{ "type": "Feature", "properties": { "ID": 4511450105190, "正式名称": "医療法人社団　城山病院", "機関区分": 1, "都道府県コード": 45, "市区町村コード": 201, "所在地": "宮崎県宮崎市清武町船引２３８番地", "緯度": 31.856209, "経度": 131.390508, "url": "https://www.iryou.teikyouseido.mhlw.go.jp/znk-web/juminkanja/S2430/initialize?prefCd=45&kikanCd=1450105190&kikanKbn=1", "url2": "http://shiroyama-hp.com/", "内容": "医療法人社団　城山病院【1:病院】【診療科目:内科_糖尿病内科_呼吸器内科_循環器内科_消化器内科】【一般病床数:28療養病床数:0精神病床数:0感染症病床数:0合計病床数:28】宮崎県宮崎市清武町船引２３８番地" }, "geometry": { "type": "Point", "coordinates": [ 131.390508, 31.856209 ] } },
{ "type": "Feature", "properties": { "ID": 4511450105220, "正式名称": "宮崎大学医学部附属病院", "機関区分": 1, "都道府県コード": 45, "市区町村コード": 201, "所在地": "宮崎県宮崎市清武町木原５２００", "緯度": 31.8403, "経度": 131.398407, "url": "https://www.iryou.teikyouseido.mhlw.go.jp/znk-web/juminkanja/S2430/initialize?prefCd=45&kikanCd=1450105220&kikanKbn=1", "url2": "http://www.med.miyazaki-u.ac.jp/hospital/", "内容": "宮崎大学医学部附属病院【1:病院】【診療科目:内科_感染症内科_血液内科_糖尿病内科_代謝・内分泌内科_脳神経内科_呼吸器内科_循環器内科_消化器内科_腎臓内科_腫瘍内科_外科_脳神経外科_呼吸器外科_心臓血管外科_消化器外科_乳腺外科_整形外科_形成外科_小児科_小児外科_産科_婦人科_眼科_頭頸部・耳鼻いんこう科_皮膚科_泌尿器科_精神科_歯科_矯正歯科_歯科口腔外科_リウマチ科_リハビリテーション科_放射線科_病理診断科_救急科_麻酔科】【一般病床数:568療養病床数:0精神病床数:36感染症病床数:0合計病床数:604】宮崎県宮崎市清武町木原５２００" }, "geometry": { "type": "Point", "coordinates": [ 131.398407, 31.8403 ] } },
{ "type": "Feature", "properties": { "ID": 4511450105350, "正式名称": "宮崎市立田野病院", "機関区分": 1, "都道府県コード": 45, "市区町村コード": 201, "所在地": "宮崎県宮崎市田野町南原一丁目６番地２", "緯度": 31.834969, "経度": 131.284096, "url": "https://www.iryou.teikyouseido.mhlw.go.jp/znk-web/juminkanja/S2430/initialize?prefCd=45&kikanCd=1450105350&kikanKbn=1", "url2": "http://www.med.miyazaki-u.ac.jp/home/tano/", "内容": "宮崎市立田野病院【1:病院】【診療科目:内科_外科_整形外科_耳鼻いんこう科_泌尿器科_リハビリテーション科_放射線科】【一般病床数:42療養病床数:0精神病床数:0感染症病床数:0合計病床数:42】宮崎県宮崎市田野町南原一丁目６番地２" }, "geometry": { "type": "Point", "coordinates": [ 131.284096, 31.834969 ] } },
{ "type": "Feature", "properties": { "ID": 4511450105480, "正式名称": "医療法人博愛社佐土原病院", "機関区分": 1, "都道府県コード": 45, "市区町村コード": 201, "所在地": "宮崎県宮崎市佐土原町上田島３８７３番地", "緯度": 32.050941, "経度": 131.431628, "url": "https://www.iryou.teikyouseido.mhlw.go.jp/znk-web/juminkanja/S2430/initialize?prefCd=45&kikanCd=1450105480&kikanKbn=1", "url2": "https://www.sadowara-hospital.com", "内容": "医療法人博愛社佐土原病院【1:病院】【診療科目:内科_耳鼻いんこう科_リウマチ科】【一般病床数:0療養病床数:22精神病床数:0感染症病床数:0合計病床数:22】宮崎県宮崎市佐土原町上田島３８７３番地" }, "geometry": { "type": "Point", "coordinates": [ 131.431628, 32.050941 ] } },
{ "type": "Feature", "properties": { "ID": 4511450105510, "正式名称": "医療法人りっか会　ピア・ささき病院", "機関区分": 1, "都道府県コード": 45, "市区町村コード": 201, "所在地": "宮崎県宮崎市佐土原町下田島２１２３０", "緯度": 32.024594, "経度": 131.467049, "url": "https://www.iryou.teikyouseido.mhlw.go.jp/znk-web/juminkanja/S2430/initialize?prefCd=45&kikanCd=1450105510&kikanKbn=1", "url2": "http://peer-ricka.jp", "内容": "医療法人りっか会　ピア・ささき病院【1:病院】【診療科目:内科_皮膚科_美容皮膚科_精神科_心療内科】【一般病床数:0療養病床数:0精神病床数:61感染症病床数:0合計病床数:61】宮崎県宮崎市佐土原町下田島２１２３０" }, "geometry": { "type": "Point", "coordinates": [ 131.467049, 32.024594 ] } },
{ "type": "Feature", "properties": { "ID": 4511450105640, "正式名称": "辰元病院", "機関区分": 1, "都道府県コード": 45, "市区町村コード": 201, "所在地": "宮崎県宮崎市高岡町飯田２０８９番地１", "緯度": 31.968752, "経度": 131.295783, "url": "https://www.iryou.teikyouseido.mhlw.go.jp/znk-web/juminkanja/S2430/initialize?prefCd=45&kikanCd=1450105640&kikanKbn=1", "url2": "http://tatsumoto-g.com//", "内容": "辰元病院【1:病院】【診療科目:内科_循環器内科_リハビリテーション科_放射線科】【一般病床数:0療養病床数:38精神病床数:0感染症病床数:0合計病床数:38】宮崎県宮崎市高岡町飯田２０８９番地１" }, "geometry": { "type": "Point", "coordinates": [ 131.295783, 31.968752 ] } },
{ "type": "Feature", "properties": { "ID": 4511450105930, "正式名称": "医療法人社団　順養会　海老原病院", "機関区分": 1, "都道府県コード": 45, "市区町村コード": 382, "所在地": "宮崎県東諸県郡国富町大字本庄４３６５", "緯度": 31.987372, "経度": 131.331377, "url": "https://www.iryou.teikyouseido.mhlw.go.jp/znk-web/juminkanja/S2430/initialize?prefCd=45&kikanCd=1450105930&kikanKbn=1", "url2": "http://www.junyoukai.or.jp/", "内容": "医療法人社団　順養会　海老原病院【1:病院】【診療科目:内科_代謝・内分泌内科_呼吸器内科_循環器内科_消化器内科_胃腸内科_外科_心臓血管外科_消化器外科_整形外科_皮膚科_泌尿器科_リハビリテーション科】【一般病床数:0療養病床数:84精神病床数:0感染症病床数:0合計病床数:84】宮崎県東諸県郡国富町大字本庄４３６５" }, "geometry": { "type": "Point", "coordinates": [ 131.331377, 31.987372 ] } },
{ "type": "Feature", "properties": { "ID": 4511450106230, "正式名称": "医療法人社団晴緑会　宮崎医療センター病院", "機関区分": 1, "都道府県コード": 45, "市区町村コード": 201, "所在地": "宮崎県宮崎市高松町２番１６号", "緯度": 31.913701, "経度": 131.418919, "url": "https://www.iryou.teikyouseido.mhlw.go.jp/znk-web/juminkanja/S2430/initialize?prefCd=45&kikanCd=1450106230&kikanKbn=1", "url2": "http://www.jojinkai.com/miyazaki/", "内容": "医療法人社団晴緑会　宮崎医療センター病院【1:病院】【診療科目:内科_消化器内科_緩和ケア内科_外科_消化器外科_整形外科_リハビリテーション科_麻酔科】【一般病床数:114療養病床数:178精神病床数:0感染症病床数:0合計病床数:292】宮崎県宮崎市高松町２番１６号" }, "geometry": { "type": "Point", "coordinates": [ 131.418919, 31.913701 ] } },
{ "type": "Feature", "properties": { "ID": 4511450106810, "正式名称": "宮崎県立こども療育センター", "機関区分": 1, "都道府県コード": 45, "市区町村コード": 201, "所在地": "宮崎県宮崎市清武町木原４２５７の８", "緯度": 31.835484, "経度": 131.400504, "url": "https://www.iryou.teikyouseido.mhlw.go.jp/znk-web/juminkanja/S2430/initialize?prefCd=45&kikanCd=1450106810&kikanKbn=1", "url2": "https://www.pref.miyazaki.lg.jp/kodomoryoiku-c/index.html", "内容": "宮崎県立こども療育センター【1:病院】【診療科目:整形外科_小児科_眼科_泌尿器科_歯科】【一般病床数:50療養病床数:0精神病床数:0感染症病床数:0合計病床数:50】宮崎県宮崎市清武町木原４２５７の８" }, "geometry": { "type": "Point", "coordinates": [ 131.400504, 31.835484 ] } },
{ "type": "Feature", "properties": { "ID": 4511450106940, "正式名称": "金丸脳神経外科病院", "機関区分": 1, "都道府県コード": 45, "市区町村コード": 201, "所在地": "宮崎県宮崎市池内町八幡田８０３番地", "緯度": 31.960918, "経度": 131.414518, "url": "https://www.iryou.teikyouseido.mhlw.go.jp/znk-web/juminkanja/S2430/initialize?prefCd=45&kikanCd=1450106940&kikanKbn=1", "url2": "http://www.kanemarunougeka.or.jp/", "内容": "金丸脳神経外科病院【1:病院】【診療科目:神経内科_脳神経外科_整形外科_リハビリテーション科_放射線科_麻酔科】【一般病床数:52療養病床数:48精神病床数:0感染症病床数:0合計病床数:100】宮崎県宮崎市池内町八幡田８０３番地" }, "geometry": { "type": "Point", "coordinates": [ 131.414518, 31.960918 ] } },
{ "type": "Feature", "properties": { "ID": 4511450107080, "正式名称": "迫田病院", "機関区分": 1, "都道府県コード": 45, "市区町村コード": 201, "所在地": "宮崎県宮崎市城ケ崎３丁目２番地１", "緯度": 31.898625, "経度": 131.431846, "url": "https://www.iryou.teikyouseido.mhlw.go.jp/znk-web/juminkanja/S2430/initialize?prefCd=45&kikanCd=1450107080&kikanKbn=1", "url2": "https://www.kowakai.jp/", "内容": "迫田病院【1:病院】【診療科目:内科_血液内科_糖尿病内科_代謝内科_内分泌内科_糖尿病・内分泌内科_糖尿病・代謝内科_代謝・内分泌内科_呼吸器内科_循環器内科_消化器内科_腎臓内科_神経内科_外科_血管外科_消化器外科_胃腸外科_肛門外科_内視鏡外科_小児精神科_リハビリテーション科_放射線科】【一般病床数:102療養病床数:0精神病床数:0感染症病床数:0合計病床数:102】宮崎県宮崎市城ケ崎３丁目２番地１" }, "geometry": { "type": "Point", "coordinates": [ 131.431846, 31.898625 ] } },
{ "type": "Feature", "properties": { "ID": 4511450107110, "正式名称": "南部病院", "機関区分": 1, "都道府県コード": 45, "市区町村コード": 201, "所在地": "宮崎県宮崎市大字恒久８９１番地１４", "緯度": 31.883097, "経度": 131.42689, "url": "https://www.iryou.teikyouseido.mhlw.go.jp/znk-web/juminkanja/S2430/initialize?prefCd=45&kikanCd=1450107110&kikanKbn=1", "url2": "http://www.nanbuhp.or.jp", "内容": "南部病院【1:病院】【診療科目:内科_循環器内科_外科_乳腺外科_肛門外科_皮膚科_放射線科_麻酔科】【一般病床数:72療養病床数:0精神病床数:0感染症病床数:0合計病床数:72】宮崎県宮崎市大字恒久８９１番地１４" }, "geometry": { "type": "Point", "coordinates": [ 131.42689, 31.883097 ] } },
{ "type": "Feature", "properties": { "ID": 4511450107240, "正式名称": "潤和会記念病院", "機関区分": 1, "都道府県コード": 45, "市区町村コード": 201, "所在地": "宮崎県宮崎市大字小松１１１９", "緯度": 31.934764, "経度": 131.403267, "url": "https://www.iryou.teikyouseido.mhlw.go.jp/znk-web/juminkanja/S2430/initialize?prefCd=45&kikanCd=1450107240&kikanKbn=1", "url2": "http://www.junwakai.com", "内容": "潤和会記念病院【1:病院】【診療科目:内科_糖尿病・代謝内科_脳神経内科_循環器内科_消化器内科_内視鏡内科_ペインクリニック内科_外科_脳神経外科_消化器外科_肛門外科_ペインクリニック外科_腫瘍外科_整形外科_泌尿器科_リハビリテーション科_放射線診断科_放射線治療科_病理診断科_救急科_麻酔科】【一般病床数:291療養病床数:155精神病床数:0感染症病床数:0合計病床数:446】宮崎県宮崎市大字小松１１１９" }, "geometry": { "type": "Point", "coordinates": [ 131.403267, 31.934764 ] } },
{ "type": "Feature", "properties": { "ID": 4511450107820, "正式名称": "古賀総合病院", "機関区分": 1, "都道府県コード": 45, "市区町村コード": 201, "所在地": "宮崎県宮崎市池内町数太木１７４９−１", "緯度": 31.971919, "経度": 131.411028, "url": "https://www.iryou.teikyouseido.mhlw.go.jp/znk-web/juminkanja/S2430/initialize?prefCd=45&kikanCd=1450107820&kikanKbn=1", "url2": "http://www.kgh.or.jp/", "内容": "古賀総合病院【1:病院】【診療科目:内科_感染症内科_血液内科_代謝・内分泌内科_呼吸器内科_循環器内科_消化器内科_腎臓内科_肝臓内科_神経内科_外科_呼吸器外科_気管食道外科_心臓血管外科_消化器外科_肛門外科_整形外科_産婦人科_眼科_耳鼻いんこう科_皮膚科_泌尿器科_精神科_リハビリテーション科_放射線科_病理診断科_麻酔科】【一般病床数:271療養病床数:0精神病床数:91感染症病床数:0合計病床数:362】宮崎県宮崎市池内町数太木１７４９−１" }, "geometry": { "type": "Point", "coordinates": [ 131.411028, 31.971919 ] } },
{ "type": "Feature", "properties": { "ID": 4511450108250, "正式名称": "社会医療法人慶明会　けいめい記念病院", "機関区分": 1, "都道府県コード": 45, "市区町村コード": 382, "所在地": "宮崎県東諸県郡国富町岩知野７６２", "緯度": 31.978798, "経度": 131.371609, "url": "https://www.iryou.teikyouseido.mhlw.go.jp/znk-web/juminkanja/S2430/initialize?prefCd=45&kikanCd=1450108250&kikanKbn=1", "url2": "https://www.keimei-kinen.com", "内容": "社会医療法人慶明会　けいめい記念病院【1:病院】【診療科目:内科_呼吸器内科_循環器内科_消化器内科_脳神経外科_整形外科_眼科_耳鼻いんこう科_リウマチ科_リハビリテーション科】【一般病床数:45療養病床数:0精神病床数:0感染症病床数:0合計病床数:45】宮崎県東諸県郡国富町岩知野７６２" }, "geometry": { "type": "Point", "coordinates": [ 131.371609, 31.978798 ] } },
{ "type": "Feature", "properties": { "ID": 4511450200170, "正式名称": "医療法人恵心会永田病院", "機関区分": 1, "都道府県コード": 45, "市区町村コード": 202, "所在地": "宮崎県都城市五十町５１７３番地", "緯度": 31.70565, "経度": 131.040288, "url": "https://www.iryou.teikyouseido.mhlw.go.jp/znk-web/juminkanja/S2430/initialize?prefCd=45&kikanCd=1450200170&kikanKbn=1", "url2": "https://nagatahp.or.jp", "内容": "医療法人恵心会永田病院【1:病院】【診療科目:内科_精神科_心療内科】【一般病床数:0療養病床数:0精神病床数:304感染症病床数:0合計病床数:304】宮崎県都城市五十町５１７３番地" }, "geometry": { "type": "Point", "coordinates": [ 131.040288, 31.70565 ] } },
{ "type": "Feature", "properties": { "ID": 4511450200200, "正式名称": "医療法人一誠会　都城新生病院", "機関区分": 1, "都道府県コード": 45, "市区町村コード": 202, "所在地": "宮崎県都城市志比田町３７８２番地", "緯度": 31.733019, "経度": 131.050614, "url": "https://www.iryou.teikyouseido.mhlw.go.jp/znk-web/juminkanja/S2430/initialize?prefCd=45&kikanCd=1450200200&kikanKbn=1", "url2": "http://shinsei-hp.jp", "内容": "医療法人一誠会　都城新生病院【1:病院】【診療科目:内科_精神科_心療内科_児童・思春期精神科】【一般病床数:0療養病床数:0精神病床数:390感染症病床数:0合計病床数:390】宮崎県都城市志比田町３７８２番地" }, "geometry": { "type": "Point", "coordinates": [ 131.050614, 31.733019 ] } },
{ "type": "Feature", "properties": { "ID": 4511450200330, "正式名称": "独立行政法人国立病院機構都城医療センター", "機関区分": 1, "都道府県コード": 45, "市区町村コード": 202, "所在地": "宮崎県都城市祝吉町５０３３番地１", "緯度": 31.73955, "経度": 131.085428, "url": "https://www.iryou.teikyouseido.mhlw.go.jp/znk-web/juminkanja/S2430/initialize?prefCd=45&kikanCd=1450200330&kikanKbn=1", "url2": "https://miyakonojo.hosp.go.jp/", "内容": "独立行政法人国立病院機構都城医療センター【1:病院】【診療科目:内科_呼吸器内科_循環器内科_消化器内科_神経内科_外科_脳神経外科_呼吸器外科_消化器外科_整形外科_小児科_産婦人科_眼科_耳鼻いんこう科_皮膚科_泌尿器科_歯科口腔外科_リウマチ科_リハビリテーション科_放射線科_病理診断科_麻酔科】【一般病床数:305療養病床数:0精神病床数:0感染症病床数:0合計病床数:305】宮崎県都城市祝吉町５０３３番地１" }, "geometry": { "type": "Point", "coordinates": [ 131.085428, 31.73955 ] } },
{ "type": "Feature", "properties": { "ID": 4511450200590, "正式名称": "藤元総合病院", "機関区分": 1, "都道府県コード": 45, "市区町村コード": 202, "所在地": "宮崎県都城市早鈴町１７街区１号", "緯度": 31.718004, "経度": 131.06631, "url": "https://www.iryou.teikyouseido.mhlw.go.jp/znk-web/juminkanja/S2430/initialize?prefCd=45&kikanCd=1450200590&kikanKbn=1", "url2": "http://www.fujimoto.or.jp/", "内容": "藤元総合病院【1:病院】【診療科目:内科_血液内科_呼吸器内科_循環器内科_消化器内科_腎臓内科_神経内科_外科_脳神経外科_循環器外科_消化器外科_乳腺外科_内視鏡外科_整形外科_眼科_耳鼻いんこう科_皮膚科_泌尿器科_歯科_矯正歯科_歯科口腔外科_リハビリテーション科_放射線科_麻酔科】【一般病床数:282療養病床数:50精神病床数:0感染症病床数:0合計病床数:332】宮崎県都城市早鈴町１７街区１号" }, "geometry": { "type": "Point", "coordinates": [ 131.06631, 31.718004 ] } },
{ "type": "Feature", "properties": { "ID": 4511450201180, "正式名称": "宗正病院", "機関区分": 1, "都道府県コード": 45, "市区町村コード": 202, "所在地": "宮崎県都城市八幡町１５街区３号", "緯度": 31.719726, "経度": 131.056587, "url": "https://www.iryou.teikyouseido.mhlw.go.jp/znk-web/juminkanja/S2430/initialize?prefCd=45&kikanCd=1450201180&kikanKbn=1", "url2": "http://www.munemasa-hp.com/", "内容": "宗正病院【1:病院】【診療科目:内科_胃腸内科_外科_乳腺外科_形成外科_甲状腺外科_泌尿器科】【一般病床数:27療養病床数:32精神病床数:0感染症病床数:0合計病床数:59】宮崎県都城市八幡町１５街区３号" }, "geometry": { "type": "Point", "coordinates": [ 131.056587, 31.719726 ] } },
{ "type": "Feature", "properties": { "ID": 4511450201760, "正式名称": "医療法人　魁成会　宮永病院", "機関区分": 1, "都道府県コード": 45, "市区町村コード": 202, "所在地": "宮崎県都城市松元町１５街区１０号", "緯度": 31.724837, "経度": 131.059138, "url": "https://www.iryou.teikyouseido.mhlw.go.jp/znk-web/juminkanja/S2430/initialize?prefCd=45&kikanCd=1450201760&kikanKbn=1", "url2": "https://www.miyanaga.or.jp", "内容": "医療法人　魁成会　宮永病院【1:病院】【診療科目:内科_糖尿病・代謝内科_呼吸器内科_循環器内科_消化器内科_外科_消化器外科_肛門外科_皮膚科_リウマチ科_リハビリテーション科】【一般病床数:88療養病床数:0精神病床数:0感染症病床数:0合計病床数:88】宮崎県都城市松元町１５街区１０号" }, "geometry": { "type": "Point", "coordinates": [ 131.059138, 31.724837 ] } },
{ "type": "Feature", "properties": { "ID": 4511450201920, "正式名称": "吉松病院", "機関区分": 1, "都道府県コード": 45, "市区町村コード": 202, "所在地": "宮崎県都城市蔵原町５街区２９号", "緯度": 31.722087, "経度": 131.064541, "url": "https://www.iryou.teikyouseido.mhlw.go.jp/znk-web/juminkanja/S2430/initialize?prefCd=45&kikanCd=1450201920&kikanKbn=1", "url2": null, "内容": "吉松病院【1:病院】【診療科目:内科_消化器内科_外科_消化器外科_肛門外科_整形外科_リハビリテーション科_麻酔科】【一般病床数:48療養病床数:0精神病床数:0感染症病床数:0合計病床数:48】宮崎県都城市蔵原町５街区２９号" }, "geometry": { "type": "Point", "coordinates": [ 131.064541, 31.722087 ] } },
{ "type": "Feature", "properties": { "ID": 4511450202220, "正式名称": "医療法人与州会　柳田病院", "機関区分": 1, "都道府県コード": 45, "市区町村コード": 202, "所在地": "宮崎県都城市東町１０街区１７号", "緯度": 31.72259, "経度": 131.071551, "url": "https://www.iryou.teikyouseido.mhlw.go.jp/znk-web/juminkanja/S2430/initialize?prefCd=45&kikanCd=1450202220&kikanKbn=1", "url2": "https://yosyukai.wixsite.com/home", "内容": "医療法人与州会　柳田病院【1:病院】【診療科目:内科_外科_脳神経外科_小児科_リハビリテーション科_放射線科】【一般病床数:45療養病床数:0精神病床数:0感染症病床数:0合計病床数:45】宮崎県都城市東町１０街区１７号" }, "geometry": { "type": "Point", "coordinates": [ 131.071551, 31.72259 ] } },
{ "type": "Feature", "properties": { "ID": 4511450202480, "正式名称": "医療法人社団　豊德会　丸田病院", "機関区分": 1, "都道府県コード": 45, "市区町村コード": 202, "所在地": "宮崎県都城市八幡町４－２", "緯度": 31.721501, "経度": 131.05828, "url": "https://www.iryou.teikyouseido.mhlw.go.jp/znk-web/juminkanja/S2430/initialize?prefCd=45&kikanCd=1450202480&kikanKbn=1", "url2": "http://www.maruta-hp.com/", "内容": "医療法人社団　豊德会　丸田病院【1:病院】【診療科目:産科_婦人科_産婦人科（生殖医療）】【一般病床数:22療養病床数:0精神病床数:0感染症病床数:0合計病床数:22】宮崎県都城市八幡町４－２" }, "geometry": { "type": "Point", "coordinates": [ 131.05828, 31.721501 ] } },
{ "type": "Feature", "properties": { "ID": 4511450202640, "正式名称": "藤元病院", "機関区分": 1, "都道府県コード": 45, "市区町村コード": 202, "所在地": "宮崎県都城市早鈴町１７街区４号", "緯度": 31.717825, "経度": 131.066378, "url": "https://www.iryou.teikyouseido.mhlw.go.jp/znk-web/juminkanja/S2430/initialize?prefCd=45&kikanCd=1450202640&kikanKbn=1", "url2": "https//fujimoto.com", "内容": "藤元病院【1:病院】【診療科目:内科_精神科_心療内科】【一般病床数:0療養病床数:0精神病床数:401感染症病床数:0合計病床数:414】宮崎県都城市早鈴町１７街区４号" }, "geometry": { "type": "Point", "coordinates": [ 131.066378, 31.717825 ] } },
{ "type": "Feature", "properties": { "ID": 4511450202800, "正式名称": "医療法人明和会宮田眼科病院", "機関区分": 1, "都道府県コード": 45, "市区町村コード": 202, "所在地": "宮崎県都城市蔵原町６街区３号", "緯度": 31.722832, "経度": 131.06556, "url": "https://www.iryou.teikyouseido.mhlw.go.jp/znk-web/juminkanja/S2430/initialize?prefCd=45&kikanCd=1450202800&kikanKbn=1", "url2": "http://www.miyata-med.ne.jp", "内容": "医療法人明和会宮田眼科病院【1:病院】【診療科目:眼科】【一般病床数:71療養病床数:0精神病床数:0感染症病床数:0合計病床数:71】宮崎県都城市蔵原町６街区３号" }, "geometry": { "type": "Point", "coordinates": [ 131.06556, 31.722832 ] } },
{ "type": "Feature", "properties": { "ID": 4511450203070, "正式名称": "医療法人社団明生会　都城明生病院", "機関区分": 1, "都道府県コード": 45, "市区町村コード": 202, "所在地": "宮崎県都城市金田町２２６３番地", "緯度": 31.770372, "経度": 131.082499, "url": "https://www.iryou.teikyouseido.mhlw.go.jp/znk-web/juminkanja/S2430/initialize?prefCd=45&kikanCd=1450203070&kikanKbn=1", "url2": "https://mmshp.com/", "内容": "医療法人社団明生会　都城明生病院【1:病院】【診療科目:内科_泌尿器科_心療内科_リハビリテーション科】【一般病床数:34療養病床数:0精神病床数:0感染症病床数:0合計病床数:34】宮崎県都城市金田町２２６３番地" }, "geometry": { "type": "Point", "coordinates": [ 131.082499, 31.770372 ] } },
{ "type": "Feature", "properties": { "ID": 4511450203100, "正式名称": "橘病院", "機関区分": 1, "都道府県コード": 45, "市区町村コード": 202, "所在地": "宮崎県都城市中町１５街区２４号", "緯度": 31.725836, "経度": 131.065851, "url": "https://www.iryou.teikyouseido.mhlw.go.jp/znk-web/juminkanja/S2430/initialize?prefCd=45&kikanCd=1450203100&kikanKbn=1", "url2": "http://www.tachibana-hospital.jp", "内容": "橘病院【1:病院】【診療科目:内科_外科_整形外科_リハビリテーション科_麻酔科】【一般病床数:50療養病床数:42精神病床数:0感染症病床数:0合計病床数:92】宮崎県都城市中町１５街区２４号" }, "geometry": { "type": "Point", "coordinates": [ 131.065851, 31.725836 ] } },
{ "type": "Feature", "properties": { "ID": 4511450203230, "正式名称": "医療法人仁愛会　横山病院", "機関区分": 1, "都道府県コード": 45, "市区町村コード": 202, "所在地": "宮崎県都城市都島町５０６番地", "緯度": 31.718012, "経度": 131.048437, "url": "https://www.iryou.teikyouseido.mhlw.go.jp/znk-web/juminkanja/S2430/initialize?prefCd=45&kikanCd=1450203230&kikanKbn=1", "url2": "https://yokoyamahospital.com", "内容": "医療法人仁愛会　横山病院【1:病院】【診療科目:消化器内科_大腸外科_内視鏡外科_泌尿器科】【一般病床数:40療養病床数:0精神病床数:0感染症病床数:0合計病床数:40】宮崎県都城市都島町５０６番地" }, "geometry": { "type": "Point", "coordinates": [ 131.048437, 31.718012 ] } },
{ "type": "Feature", "properties": { "ID": 4511450203490, "正式名称": "西浦病院", "機関区分": 1, "都道府県コード": 45, "市区町村コード": 202, "所在地": "宮崎県都城市広原町６号１２番地", "緯度": 31.726754, "経度": 131.090192, "url": "https://www.iryou.teikyouseido.mhlw.go.jp/znk-web/juminkanja/S2430/initialize?prefCd=45&kikanCd=1450203490&kikanKbn=1", "url2": null, "内容": "西浦病院【1:病院】【診療科目:内科_糖尿病内科_循環器内科_腎臓内科】【一般病床数:43療養病床数:0精神病床数:0感染症病床数:0合計病床数:43】宮崎県都城市広原町６号１２番地" }, "geometry": { "type": "Point", "coordinates": [ 131.090192, 31.726754 ] } },
{ "type": "Feature", "properties": { "ID": 4511450203650, "正式名称": "一般社団法人藤元メデイカルシステム　大悟病院", "機関区分": 1, "都道府県コード": 45, "市区町村コード": 341, "所在地": "宮崎県北諸県郡三股町大字長田１２７０", "緯度": 31.743368, "経度": 131.133317, "url": "https://www.iryou.teikyouseido.mhlw.go.jp/znk-web/juminkanja/S2430/initialize?prefCd=45&kikanCd=1450203650&kikanKbn=1", "url2": "http://www.fujimoto.or.jp", "内容": "一般社団法人藤元メデイカルシステム　大悟病院【1:病院】【診療科目:内科_精神科_神経科】【一般病床数:0療養病床数:0精神病床数:301感染症病床数:0合計病床数:301】宮崎県北諸県郡三股町大字長田１２７０" }, "geometry": { "type": "Point", "coordinates": [ 131.133317, 31.743368 ] } },
{ "type": "Feature", "properties": { "ID": 4511450203810, "正式名称": "医療法人　清陵会　隅病院", "機関区分": 1, "都道府県コード": 45, "市区町村コード": 202, "所在地": "宮崎県都城市高崎町大牟田１２０４", "緯度": 31.875793, "経度": 131.064802, "url": "https://www.iryou.teikyouseido.mhlw.go.jp/znk-web/juminkanja/S2430/initialize?prefCd=45&kikanCd=1450203810&kikanKbn=1", "url2": "https://www.sumihosp.com/home", "内容": "医療法人　清陵会　隅病院【1:病院】【診療科目:内科_糖尿病内科_循環器内科_胃腸内科】【一般病床数:41療養病床数:0精神病床数:0感染症病床数:0合計病床数:41】宮崎県都城市高崎町大牟田１２０４" }, "geometry": { "type": "Point", "coordinates": [ 131.064802, 31.875793 ] } },
{ "type": "Feature", "properties": { "ID": 4511450204080, "正式名称": "小牧病院", "機関区分": 1, "都道府県コード": 45, "市区町村コード": 202, "所在地": "宮崎県都城市立野町５−５−１", "緯度": 31.731232, "経度": 131.093177, "url": "https://www.iryou.teikyouseido.mhlw.go.jp/znk-web/juminkanja/S2430/initialize?prefCd=45&kikanCd=1450204080&kikanKbn=1", "url2": "http://www.makikai.com/", "内容": "小牧病院【1:病院】【診療科目:内科_整形外科_リハビリテーション科】【一般病床数:52療養病床数:0精神病床数:0感染症病床数:0合計病床数:52】宮崎県都城市立野町５−５−１" }, "geometry": { "type": "Point", "coordinates": [ 131.093177, 31.731232 ] } },
{ "type": "Feature", "properties": { "ID": 4511450204240, "正式名称": "医療法人　倫生会　三州病院", "機関区分": 1, "都道府県コード": 45, "市区町村コード": 202, "所在地": "宮崎県都城市花繰町３街区１４号", "緯度": 31.725629, "経度": 131.080979, "url": "https://www.iryou.teikyouseido.mhlw.go.jp/znk-web/juminkanja/S2430/initialize?prefCd=45&kikanCd=1450204240&kikanKbn=1", "url2": "http://www.sanshu.org", "内容": "医療法人　倫生会　三州病院【1:病院】【診療科目:内科_糖尿病内科_呼吸器内科_消化器内科_外科_消化器外科_乳腺外科_肛門外科_放射線科_麻酔科】【一般病床数:67療養病床数:0精神病床数:0感染症病床数:0合計病床数:67】宮崎県都城市花繰町３街区１４号" }, "geometry": { "type": "Point", "coordinates": [ 131.080979, 31.725629 ] } },
{ "type": "Feature", "properties": { "ID": 4511450204370, "正式名称": "ベテスダクリニック", "機関区分": 1, "都道府県コード": 45, "市区町村コード": 202, "所在地": "宮崎県都城市年見町２３ー１２", "緯度": 31.732515, "経度": 131.087267, "url": "https://www.iryou.teikyouseido.mhlw.go.jp/znk-web/juminkanja/S2430/initialize?prefCd=45&kikanCd=1450204370&kikanKbn=1", "url2": "http://bethesda.or.jp", "内容": "ベテスダクリニック【1:病院】【診療科目:内科_脳神経内科_リハビリテーション科】【一般病床数:64療養病床数:0精神病床数:0感染症病床数:0合計病床数:64】宮崎県都城市年見町２３ー１２" }, "geometry": { "type": "Point", "coordinates": [ 131.087267, 31.732515 ] } },
{ "type": "Feature", "properties": { "ID": 4511450204530, "正式名称": "医療法人三省会倉内整形外科病院", "機関区分": 1, "都道府県コード": 45, "市区町村コード": 202, "所在地": "宮崎県都城市上町１６−６", "緯度": 31.721546, "経度": 131.063438, "url": "https://www.iryou.teikyouseido.mhlw.go.jp/znk-web/juminkanja/S2430/initialize?prefCd=45&kikanCd=1450204530&kikanKbn=1", "url2": null, "内容": "医療法人三省会倉内整形外科病院【1:病院】【診療科目:整形外科_リウマチ科_リハビリテーション科_麻酔科】【一般病床数:60療養病床数:0精神病床数:0感染症病床数:0合計病床数:60】宮崎県都城市上町１６−６" }, "geometry": { "type": "Point", "coordinates": [ 131.063438, 31.721546 ] } },
{ "type": "Feature", "properties": { "ID": 4511450204790, "正式名称": "医療法人宏仁会　メディカルシティ東部病院", "機関区分": 1, "都道府県コード": 45, "市区町村コード": 202, "所在地": "宮崎県都城市立野町３６３３番地１", "緯度": 31.730527, "経度": 131.103813, "url": "https://www.iryou.teikyouseido.mhlw.go.jp/znk-web/juminkanja/S2430/initialize?prefCd=45&kikanCd=1450204790&kikanKbn=1", "url2": "http://www.medicalcity.jp/", "内容": "医療法人宏仁会　メディカルシティ東部病院【1:病院】【診療科目:内科_糖尿病内科_内分泌内科_脳神経内科_呼吸器内科_循環器内科_消化器内科_腎臓内科_人工透析内科_神経内科_アレルギー疾患内科_外科_脳神経外科_消化器外科_肝臓外科_リハビリテーション科_放射線科_麻酔科】【一般病床数:111療養病床数:32精神病床数:0感染症病床数:0合計病床数:143】宮崎県都城市立野町３６３３番地１" }, "geometry": { "type": "Point", "coordinates": [ 131.103813, 31.730527 ] } },
{ "type": "Feature", "properties": { "ID": 4511450204820, "正式名称": "藤元上町病院", "機関区分": 1, "都道府県コード": 45, "市区町村コード": 202, "所在地": "宮崎県都城市上町１０街区２４号", "緯度": 31.724415, "経度": 131.064524, "url": "https://www.iryou.teikyouseido.mhlw.go.jp/znk-web/juminkanja/S2430/initialize?prefCd=45&kikanCd=1450204820&kikanKbn=1", "url2": "https://www.shizuokai.or.jp", "内容": "藤元上町病院【1:病院】【診療科目:内科_内分泌内科_糖尿病・代謝内科_呼吸器内科_リハビリテーション科_放射線科】【一般病床数:0療養病床数:84精神病床数:0感染症病床数:0合計病床数:84】宮崎県都城市上町１０街区２４号" }, "geometry": { "type": "Point", "coordinates": [ 131.064524, 31.724415 ] } },
{ "type": "Feature", "properties": { "ID": 4511450204950, "正式名称": "飯田病院", "機関区分": 1, "都道府県コード": 45, "市区町村コード": 202, "所在地": "宮崎県都城市上町９ー１０", "緯度": 31.724229, "経度": 131.063791, "url": "https://www.iryou.teikyouseido.mhlw.go.jp/znk-web/juminkanja/S2430/initialize?prefCd=45&kikanCd=1450204950&kikanKbn=1", "url2": "http://www.iida-clinic.com/index.html", "内容": "飯田病院【1:病院】【診療科目:整形外科_リハビリテーション科_麻酔科】【一般病床数:30療養病床数:0精神病床数:0感染症病床数:0合計病床数:30】宮崎県都城市上町９ー１０" }, "geometry": { "type": "Point", "coordinates": [ 131.063791, 31.724229 ] } },
{ "type": "Feature", "properties": { "ID": 4511450205120, "正式名称": "都城市郡医師会病院", "機関区分": 1, "都道府県コード": 45, "市区町村コード": 202, "所在地": "宮崎県都城市太郎坊町１３６４番地１", "緯度": 31.780441, "経度": 131.08709, "url": "https://www.iryou.teikyouseido.mhlw.go.jp/znk-web/juminkanja/S2430/initialize?prefCd=45&kikanCd=1450205120&kikanKbn=1", "url2": "https://mmah.or.jp/wp/", "内容": "都城市郡医師会病院【1:病院】【診療科目:内科_呼吸器内科_循環器内科_腎臓内科_外科_脳神経外科_消化器外科_整形外科_形成外科_小児科_小児外科_リハビリテーション科_放射線科_救急科_麻酔科】【一般病床数:220療養病床数:0精神病床数:0感染症病床数:4合計病床数:224】宮崎県都城市太郎坊町１３６４番地１" }, "geometry": { "type": "Point", "coordinates": [ 131.08709, 31.780441 ] } },
{ "type": "Feature", "properties": { "ID": 4511450205380, "正式名称": "吉見病院", "機関区分": 1, "都道府県コード": 45, "市区町村コード": 202, "所在地": "宮崎県都城市高城町穂満坊４６３番地１", "緯度": 31.808431, "経度": 131.127553, "url": "https://www.iryou.teikyouseido.mhlw.go.jp/znk-web/juminkanja/S2430/initialize?prefCd=45&kikanCd=1450205380&kikanKbn=1", "url2": "https://t-yoshimi.sakura.ne.jp/yoshimihp/", "内容": "吉見病院【1:病院】【診療科目:内科_胃腸科、循環器科、呼吸器科_外科_整形外科_リハビリテーション科_麻酔科】【一般病床数:40療養病床数:40精神病床数:0感染症病床数:0合計病床数:80】宮崎県都城市高城町穂満坊４６３番地１" }, "geometry": { "type": "Point", "coordinates": [ 131.127553, 31.808431 ] } },
{ "type": "Feature", "properties": { "ID": 4511450300100, "正式名称": "宮崎県立延岡病院", "機関区分": 1, "都道府県コード": 45, "市区町村コード": 203, "所在地": "宮崎県延岡市新小路２丁目１番地１０", "緯度": 32.570193, "経度": 131.666432, "url": "https://www.iryou.teikyouseido.mhlw.go.jp/znk-web/juminkanja/S2430/initialize?prefCd=45&kikanCd=1450300100&kikanKbn=1", "url2": "https://nobeoka-kenbyo.jp", "内容": "宮崎県立延岡病院【1:病院】【診療科目:内科_血液内科_呼吸器内科_循環器内科_消化器内科_腎臓内科_神経内科_外科_脳神経外科_呼吸器外科_心臓血管外科_整形外科_小児科_産婦人科_眼科_耳鼻いんこう科_皮膚科_泌尿器科_精神科_心療内科_歯科口腔外科_リハビリテーション科_放射線科_病理診断科_臨床検査科_救急科_麻酔科】【一般病床数:406療養病床数:0精神病床数:0感染症病床数:4合計病床数:410】宮崎県延岡市新小路２丁目１番地１０" }, "geometry": { "type": "Point", "coordinates": [ 131.666432, 32.570193 ] } },
{ "type": "Feature", "properties": { "ID": 4511450300520, "正式名称": "医療法人昭和会　黒瀬病院", "機関区分": 1, "都道府県コード": 45, "市区町村コード": 203, "所在地": "宮崎県延岡市構口町２丁目１２５番地１", "緯度": 32.557505, "経度": 131.674529, "url": "https://www.iryou.teikyouseido.mhlw.go.jp/znk-web/juminkanja/S2430/initialize?prefCd=45&kikanCd=1450300520&kikanKbn=1", "url2": "http://kurose-hp.jp/", "内容": "医療法人昭和会　黒瀬病院【1:病院】【診療科目:内科_消化器内科_外科】【一般病床数:0療養病床数:42精神病床数:0感染症病床数:0合計病床数:42】宮崎県延岡市構口町２丁目１２５番地１" }, "geometry": { "type": "Point", "coordinates": [ 131.674529, 32.557505 ] } },
{ "type": "Feature", "properties": { "ID": 4511450301080, "正式名称": "田原病院", "機関区分": 1, "都道府県コード": 45, "市区町村コード": 203, "所在地": "宮崎県延岡市伊達町２丁目６２番地", "緯度": 32.561782, "経度": 131.675637, "url": "https://www.iryou.teikyouseido.mhlw.go.jp/znk-web/juminkanja/S2430/initialize?prefCd=45&kikanCd=1450301080&kikanKbn=1", "url2": null, "内容": "田原病院【1:病院】【診療科目:内科_循環器内科_消化器内科】【一般病床数:16療養病床数:24精神病床数:0感染症病床数:0合計病床数:40】宮崎県延岡市伊達町２丁目６２番地" }, "geometry": { "type": "Point", "coordinates": [ 131.675637, 32.561782 ] } },
{ "type": "Feature", "properties": { "ID": 4511450301370, "正式名称": "吉田病院", "機関区分": 1, "都道府県コード": 45, "市区町村コード": 203, "所在地": "宮崎県延岡市松原町４丁目８８５０番地", "緯度": 32.520556, "経度": 131.682269, "url": "https://www.iryou.teikyouseido.mhlw.go.jp/znk-web/juminkanja/S2430/initialize?prefCd=45&kikanCd=1450301370&kikanKbn=1", "url2": "http://www.yoshidahospital.or.jp", "内容": "吉田病院【1:病院】【診療科目:耳鼻いんこう科_皮膚科_精神科_心療内科_アレルギー科】【一般病床数:0療養病床数:0精神病床数:307感染症病床数:0合計病床数:307】宮崎県延岡市松原町４丁目８８５０番地" }, "geometry": { "type": "Point", "coordinates": [ 131.682269, 32.520556 ] } },
{ "type": "Feature", "properties": { "ID": 4511450301400, "正式名称": "医療法人康仁会　谷村病院", "機関区分": 1, "都道府県コード": 45, "市区町村コード": 203, "所在地": "宮崎県延岡市北小路１０番地２", "緯度": 32.585408, "経度": 131.665667, "url": "https://www.iryou.teikyouseido.mhlw.go.jp/znk-web/juminkanja/S2430/initialize?prefCd=45&kikanCd=1450301400&kikanKbn=1", "url2": null, "内容": "医療法人康仁会　谷村病院【1:病院】【診療科目:内科_整形外科_リウマチ科_リハビリテーション科】【一般病床数:54療養病床数:0精神病床数:0感染症病床数:0合計病床数:54】宮崎県延岡市北小路１０番地２" }, "geometry": { "type": "Point", "coordinates": [ 131.665667, 32.585408 ] } },
{ "type": "Feature", "properties": { "ID": 4511450301950, "正式名称": "延岡保養園", "機関区分": 1, "都道府県コード": 45, "市区町村コード": 203, "所在地": "宮崎県延岡市緑ケ丘５丁目１４番３０号", "緯度": 32.546451, "経度": 131.681327, "url": "https://www.iryou.teikyouseido.mhlw.go.jp/znk-web/juminkanja/S2430/initialize?prefCd=45&kikanCd=1450301950&kikanKbn=1", "url2": "https://www.ryuseikai.jp", "内容": "延岡保養園【1:病院】【診療科目:内科_精神科_老年精神科】【一般病床数:0療養病床数:0精神病床数:381感染症病床数:0合計病床数:381】宮崎県延岡市緑ケ丘５丁目１４番３０号" }, "geometry": { "type": "Point", "coordinates": [ 131.681327, 32.546451 ] } },
{ "type": "Feature", "properties": { "ID": 4511450302120, "正式名称": "杉本病院", "機関区分": 1, "都道府県コード": 45, "市区町村コード": 203, "所在地": "宮崎県延岡市三ツ瀬町１丁目１１番地５", "緯度": 32.575303, "経度": 131.665832, "url": "https://www.iryou.teikyouseido.mhlw.go.jp/znk-web/juminkanja/S2430/initialize?prefCd=45&kikanCd=1450302120&kikanKbn=1", "url2": "https://sugimoto-hp.jp", "内容": "杉本病院【1:病院】【診療科目:内科_循環器内科_リハビリテーション科】【一般病床数:26療養病床数:0精神病床数:0感染症病床数:0合計病床数:26】宮崎県延岡市三ツ瀬町１丁目１１番地５" }, "geometry": { "type": "Point", "coordinates": [ 131.665832, 32.575303 ] } },
{ "type": "Feature", "properties": { "ID": 4511450302250, "正式名称": "医療法人社団　嘉祥会　岡村病院", "機関区分": 1, "都道府県コード": 45, "市区町村コード": 203, "所在地": "宮崎県延岡市平原町１丁目１３８９番地１", "緯度": 32.554336, "経度": 131.675185, "url": "https://www.iryou.teikyouseido.mhlw.go.jp/znk-web/juminkanja/S2430/initialize?prefCd=45&kikanCd=1450302250&kikanKbn=1", "url2": "http://www.okamura-hp.jp", "内容": "医療法人社団　嘉祥会　岡村病院【1:病院】【診療科目:内科_整形外科_皮膚科_リハビリテーション科】【一般病床数:57療養病床数:0精神病床数:0感染症病床数:0合計病床数:57】宮崎県延岡市平原町１丁目１３８９番地１" }, "geometry": { "type": "Point", "coordinates": [ 131.675185, 32.554336 ] } },
{ "type": "Feature", "properties": { "ID": 4511450302380, "正式名称": "医療法人中心会　野村病院", "機関区分": 1, "都道府県コード": 45, "市区町村コード": 203, "所在地": "宮崎県延岡市出北５丁目４番２６号", "緯度": 32.574921, "経度": 131.685434, "url": "https://www.iryou.teikyouseido.mhlw.go.jp/znk-web/juminkanja/S2430/initialize?prefCd=45&kikanCd=1450302380&kikanKbn=1", "url2": "http://nomura-h.wix.com/chuushinkai", "内容": "医療法人中心会　野村病院【1:病院】【診療科目:内科_呼吸器内科_循環器内科_消化器内科_リハビリテーション科】【一般病床数:0療養病床数:58精神病床数:0感染症病床数:0合計病床数:58】宮崎県延岡市出北５丁目４番２６号" }, "geometry": { "type": "Point", "coordinates": [ 131.685434, 32.574921 ] } },
{ "type": "Feature", "properties": { "ID": 4511450302540, "正式名称": "早田病院", "機関区分": 1, "都道府県コード": 45, "市区町村コード": 203, "所在地": "宮崎県延岡市高千穂通３７４８−１", "緯度": 32.586286, "経度": 131.665018, "url": "https://www.iryou.teikyouseido.mhlw.go.jp/znk-web/juminkanja/S2430/initialize?prefCd=45&kikanCd=1450302540&kikanKbn=1", "url2": "https://www.souda-hp.com/", "内容": "早田病院【1:病院】【診療科目:内科_循環器内科_消化器内科_リハビリテーション科】【一般病床数:34療養病床数:17精神病床数:0感染症病床数:0合計病床数:51】宮崎県延岡市高千穂通３７４８−１" }, "geometry": { "type": "Point", "coordinates": [ 131.665018, 32.586286 ] } },
{ "type": "Feature", "properties": { "ID": 4511450302670, "正式名称": "医療法人社団育生会井上病院", "機関区分": 1, "都道府県コード": 45, "市区町村コード": 203, "所在地": "宮崎県延岡市平原町１丁目９９０番地１", "緯度": 32.555389, "経度": 131.675188, "url": "https://www.iryou.teikyouseido.mhlw.go.jp/znk-web/juminkanja/S2430/initialize?prefCd=45&kikanCd=1450302670&kikanKbn=1", "url2": "http://www.inoue-hp.jp/", "内容": "医療法人社団育生会井上病院【1:病院】【診療科目:小児科_産科_婦人科】【一般病床数:22療養病床数:0精神病床数:0感染症病床数:0合計病床数:22】宮崎県延岡市平原町１丁目９９０番地１" }, "geometry": { "type": "Point", "coordinates": [ 131.675188, 32.555389 ] } },
{ "type": "Feature", "properties": { "ID": 4511450302700, "正式名称": "一般財団法人潤和リハビリテーション振興財団　延岡リハビリテーション病院", "機関区分": 1, "都道府県コード": 45, "市区町村コード": 203, "所在地": "宮崎県延岡市長浜町１丁目１７７７番地", "緯度": 32.575524, "経度": 131.691083, "url": "https://www.iryou.teikyouseido.mhlw.go.jp/znk-web/juminkanja/S2430/initialize?prefCd=45&kikanCd=1450302700&kikanKbn=1", "url2": "http://www.junwakai.com/nobereha/", "内容": "一般財団法人潤和リハビリテーション振興財団　延岡リハビリテーション病院【1:病院】【診療科目:内科_腎臓内科_神経内科_整形外科_リハビリテーション科】【一般病床数:0療養病床数:80精神病床数:0感染症病床数:0合計病床数:80】宮崎県延岡市長浜町１丁目１７７７番地" }, "geometry": { "type": "Point", "coordinates": [ 131.691083, 32.575524 ] } },
{ "type": "Feature", "properties": { "ID": 4511450302830, "正式名称": "黒木病院", "機関区分": 1, "都道府県コード": 45, "市区町村コード": 203, "所在地": "宮崎県延岡市北小路１４−１", "緯度": 32.584736, "経度": 131.663407, "url": "https://www.iryou.teikyouseido.mhlw.go.jp/znk-web/juminkanja/S2430/initialize?prefCd=45&kikanCd=1450302830&kikanKbn=1", "url2": "http://www.kuroki-h.or.jp/", "内容": "黒木病院【1:病院】【診療科目:内科_消化器内科_外科_消化器外科_肛門外科_リハビリテーション科_放射線科】【一般病床数:63療養病床数:0精神病床数:0感染症病床数:0合計病床数:63】宮崎県延岡市北小路１４−１" }, "geometry": { "type": "Point", "coordinates": [ 131.663407, 32.584736 ] } },
{ "type": "Feature", "properties": { "ID": 4511450303000, "正式名称": "医療法人久康会　平田東九州病院", "機関区分": 1, "都道府県コード": 45, "市区町村コード": 203, "所在地": "宮崎県延岡市伊形町４７９１番地", "緯度": 32.532193, "経度": 131.670225, "url": "https://www.iryou.teikyouseido.mhlw.go.jp/znk-web/juminkanja/S2430/initialize?prefCd=45&kikanCd=1450303000&kikanKbn=1", "url2": "http://www.q-totoro.org/", "内容": "医療法人久康会　平田東九州病院【1:病院】【診療科目:内科_循環器内科_整形外科_リハビリテーション科_麻酔科】【一般病床数:65療養病床数:60精神病床数:0感染症病床数:0合計病床数:125】宮崎県延岡市伊形町４７９１番地" }, "geometry": { "type": "Point", "coordinates": [ 131.670225, 32.532193 ] } },
{ "type": "Feature", "properties": { "ID": 4511450303260, "正式名称": "医療法人伸和会　延岡共立病院", "機関区分": 1, "都道府県コード": 45, "市区町村コード": 203, "所在地": "宮崎県延岡市山月町５丁目５６７９番地１", "緯度": 32.600333, "経度": 131.666355, "url": "https://www.iryou.teikyouseido.mhlw.go.jp/znk-web/juminkanja/S2430/initialize?prefCd=45&kikanCd=1450303260&kikanKbn=1", "url2": "http://www.nobeoka-kyoritu.or.jp", "内容": "医療法人伸和会　延岡共立病院【1:病院】【診療科目:内科_糖尿病内科_糖尿病・代謝内科_循環器内科_消化器内科_肝臓内科_神経内科_外科_血管外科_消化器外科_乳腺外科_肛門外科_整形外科_小児科_皮膚科_心療内科_リハビリテーション科_放射線科】【一般病床数:145療養病床数:50精神病床数:0感染症病床数:0合計病床数:195】宮崎県延岡市山月町５丁目５６７９番地１" }, "geometry": { "type": "Point", "coordinates": [ 131.666355, 32.600333 ] } },
{ "type": "Feature", "properties": { "ID": 4511450400130, "正式名称": "医療法人同仁会　谷口病院", "機関区分": 1, "都道府県コード": 45, "市区町村コード": 204, "所在地": "宮崎県日南市大字風田３８６１番地", "緯度": 31.612946, "経度": 131.422814, "url": "https://www.iryou.teikyouseido.mhlw.go.jp/znk-web/juminkanja/S2430/initialize?prefCd=45&kikanCd=1450400130&kikanKbn=1", "url2": null, "内容": "医療法人同仁会　谷口病院【1:病院】【診療科目:耳鼻いんこう科_精神科_心療内科】【一般病床数:0療養病床数:0精神病床数:310感染症病床数:0合計病床数:310】宮崎県日南市大字風田３８６１番地" }, "geometry": { "type": "Point", "coordinates": [ 131.422814, 31.612946 ] } },
{ "type": "Feature", "properties": { "ID": 4511450400420, "正式名称": "日南市立中部病院", "機関区分": 1, "都道府県コード": 45, "市区町村コード": 204, "所在地": "宮崎県日南市大堂津五丁目１０番１号", "緯度": 31.548752, "経度": 131.379533, "url": "https://www.iryou.teikyouseido.mhlw.go.jp/znk-web/juminkanja/S2430/initialize?prefCd=45&kikanCd=1450400420&kikanKbn=1", "url2": "https://chubu.city.nichinan.lg.jp/", "内容": "日南市立中部病院【1:病院】【診療科目:内科_消化器内科_外科_消化器外科_整形外科_眼科_耳鼻いんこう科_皮膚科_精神科_リハビリテーション科_放射線科】【一般病床数:88療養病床数:0精神病床数:0感染症病床数:0合計病床数:88】宮崎県日南市大堂津五丁目１０番１号" }, "geometry": { "type": "Point", "coordinates": [ 131.379533, 31.548752 ] } },
{ "type": "Feature", "properties": { "ID": 4511450400840, "正式名称": "なんごう病院", "機関区分": 1, "都道府県コード": 45, "市区町村コード": 204, "所在地": "宮崎県日南市南郷町中村乙２１０１", "緯度": 31.53934, "経度": 131.378784, "url": "https://www.iryou.teikyouseido.mhlw.go.jp/znk-web/juminkanja/S2430/initialize?prefCd=45&kikanCd=1450400840&kikanKbn=1", "url2": "http://nango-h.com", "内容": "なんごう病院【1:病院】【診療科目:内科_循環器内科_胃腸内科_腎臓内科_外科_呼吸器外科_乳腺外科_整形外科_皮膚科_泌尿器科_リウマチ科_リハビリテーション科】【一般病床数:52療養病床数:28精神病床数:0感染症病床数:0合計病床数:80】宮崎県日南市南郷町中村乙２１０１" }, "geometry": { "type": "Point", "coordinates": [ 131.378784, 31.53934 ] } },
{ "type": "Feature", "properties": { "ID": 4511450401430, "正式名称": "県立日南病院", "機関区分": 1, "都道府県コード": 45, "市区町村コード": 204, "所在地": "宮崎県日南市木山１丁目９番５号", "緯度": 31.591016, "経度": 131.394969, "url": "https://www.iryou.teikyouseido.mhlw.go.jp/znk-web/juminkanja/S2430/initialize?prefCd=45&kikanCd=1450401430&kikanKbn=1", "url2": "http://nichinan-kenbyo.jp", "内容": "県立日南病院【1:病院】【診療科目:内科_脳神経内科_循環器内科_外科_脳神経外科_整形外科_小児科_産婦人科_眼科_耳鼻いんこう科_皮膚科_泌尿器科_精神科_心療内科_歯科口腔外科_リハビリテーション科_放射線科_病理診断科_臨床検査科_麻酔科】【一般病床数:225療養病床数:0精神病床数:0感染症病床数:4合計病床数:229】宮崎県日南市木山１丁目９番５号" }, "geometry": { "type": "Point", "coordinates": [ 131.394969, 31.591016 ] } },
{ "type": "Feature", "properties": { "ID": 4511450401560, "正式名称": "愛泉会日南病院", "機関区分": 1, "都道府県コード": 45, "市区町村コード": 204, "所在地": "宮崎県日南市大字風田３６４９番２", "緯度": 31.610132, "経度": 131.420364, "url": "https://www.iryou.teikyouseido.mhlw.go.jp/znk-web/juminkanja/S2430/initialize?prefCd=45&kikanCd=1450401560&kikanKbn=1", "url2": "http://www.aisenkai-nichinan.jp", "内容": "愛泉会日南病院【1:病院】【診療科目:内科_整形外科_小児科】【一般病床数:180療養病床数:0精神病床数:0感染症病床数:0合計病床数:180】宮崎県日南市大字風田３６４９番２" }, "geometry": { "type": "Point", "coordinates": [ 131.420364, 31.610132 ] } },
{ "type": "Feature", "properties": { "ID": 4511450401690, "正式名称": "串間市民病院", "機関区分": 1, "都道府県コード": 45, "市区町村コード": 207, "所在地": "宮崎県串間市大字西方７９１７番地", "緯度": 31.47913, "経度": 131.210518, "url": "https://www.iryou.teikyouseido.mhlw.go.jp/znk-web/juminkanja/S2430/initialize?prefCd=45&kikanCd=1450401690&kikanKbn=1", "url2": "http://kushima-municipal-hospital.com/", "内容": "串間市民病院【1:病院】【診療科目:内科_外科_整形外科_産婦人科_耳鼻いんこう科_皮膚科_泌尿器科_リハビリテーション科_放射線科_麻酔科】【一般病床数:99療養病床数:0精神病床数:0感染症病床数:0合計病床数:99】宮崎県串間市大字西方７９１７番地" }, "geometry": { "type": "Point", "coordinates": [ 131.210518, 31.47913 ] } },
{ "type": "Feature", "properties": { "ID": 4511450401720, "正式名称": "社会医療法人　慶明会　おび中央病院", "機関区分": 1, "都道府県コード": 45, "市区町村コード": 204, "所在地": "宮崎県日南市飫肥６丁目２番２８号", "緯度": 31.623983, "経度": 131.355387, "url": "https://www.iryou.teikyouseido.mhlw.go.jp/znk-web/juminkanja/S2430/initialize?prefCd=45&kikanCd=1450401720&kikanKbn=1", "url2": "http://www.keimei.or.jp/obichuo/", "内容": "社会医療法人　慶明会　おび中央病院【1:病院】【診療科目:内科_消化器内科_リハビリテーション科】【一般病床数:0療養病床数:72精神病床数:0感染症病床数:0合計病床数:72】宮崎県日南市飫肥６丁目２番２８号" }, "geometry": { "type": "Point", "coordinates": [ 131.355387, 31.623983 ] } },
{ "type": "Feature", "properties": { "ID": 4511450401850, "正式名称": "春光会記念病院", "機関区分": 1, "都道府県コード": 45, "市区町村コード": 204, "所在地": "宮崎県日南市大字星倉４６００番１", "緯度": 31.614541, "経度": 131.368461, "url": "https://www.iryou.teikyouseido.mhlw.go.jp/znk-web/juminkanja/S2430/initialize?prefCd=45&kikanCd=1450401850&kikanKbn=1", "url2": "https://www.syunkoukai.com/facility/s-kinen/", "内容": "春光会記念病院【1:病院】【診療科目:内科_消化器内科_胃腸内科_人工透析内科_外科_消化器外科_肛門外科_リハビリテーション科】【一般病床数:52療養病床数:55精神病床数:0感染症病床数:0合計病床数:107】宮崎県日南市大字星倉４６００番１" }, "geometry": { "type": "Point", "coordinates": [ 131.368461, 31.614541 ] } },
{ "type": "Feature", "properties": { "ID": 4511450500160, "正式名称": "医療法人浩然会内村病院", "機関区分": 1, "都道府県コード": 45, "市区町村コード": 205, "所在地": "宮崎県小林市水流迫８５２番地１", "緯度": 31.993732, "経度": 130.993608, "url": "https://www.iryou.teikyouseido.mhlw.go.jp/znk-web/juminkanja/S2430/initialize?prefCd=45&kikanCd=1450500160&kikanKbn=1", "url2": "http://www.uchimura-hospital.jp/", "内容": "医療法人浩然会内村病院【1:病院】【診療科目:精神科_心療内科】【一般病床数:0療養病床数:0精神病床数:261感染症病床数:0合計病床数:261】宮崎県小林市水流迫８５２番地１" }, "geometry": { "type": "Point", "coordinates": [ 130.993608, 31.993732 ] } },
{ "type": "Feature", "properties": { "ID": 4511450500290, "正式名称": "医療法人相愛会桑原記念病院", "機関区分": 1, "都道府県コード": 45, "市区町村コード": 205, "所在地": "宮崎県小林市細野１６７", "緯度": 31.99489, "経度": 130.97862, "url": "https://www.iryou.teikyouseido.mhlw.go.jp/znk-web/juminkanja/S2430/initialize?prefCd=45&kikanCd=1450500290&kikanKbn=1", "url2": "http://www.all-souai.or.jp", "内容": "医療法人相愛会桑原記念病院【1:病院】【診療科目:内科_呼吸器内科_循環器内科_心臓血管内科_消化器内科_胃腸内科_内視鏡内科_外科_肛門外科_大腸・肛門外科_整形外科_アレルギー科_リハビリテーション科】【一般病床数:38療養病床数:0精神病床数:0感染症病床数:0合計病床数:38】宮崎県小林市細野１６７" }, "geometry": { "type": "Point", "coordinates": [ 130.97862, 31.99489 ] } },
{ "type": "Feature", "properties": { "ID": 4511450500320, "正式名称": "小林保養院", "機関区分": 1, "都道府県コード": 45, "市区町村コード": 205, "所在地": "宮崎県小林市堤２９３９番地", "緯度": 31.985744, "経度": 130.989431, "url": "https://www.iryou.teikyouseido.mhlw.go.jp/znk-web/juminkanja/S2430/initialize?prefCd=45&kikanCd=1450500320&kikanKbn=1", "url2": "http://kobayashihoyoin.or.jp", "内容": "小林保養院【1:病院】【診療科目:内科_精神科_神経科】【一般病床数:0療養病床数:0精神病床数:120感染症病床数:0合計病床数:120】宮崎県小林市堤２９３９番地" }, "geometry": { "type": "Point", "coordinates": [ 130.989431, 31.985744 ] } },
{ "type": "Feature", "properties": { "ID": 4511450500580, "正式名称": "小林市立病院", "機関区分": 1, "都道府県コード": 45, "市区町村コード": 205, "所在地": "宮崎県小林市細野２２３５番地３", "緯度": 31.989827, "経度": 130.985978, "url": "https://www.iryou.teikyouseido.mhlw.go.jp/znk-web/juminkanja/S2430/initialize?prefCd=45&kikanCd=1450500580&kikanKbn=1", "url2": "https://kobayashi-city-hp.jp/", "内容": "小林市立病院【1:病院】【診療科目:内科_糖尿病・内分泌内科_循環器内科_神経内科_呼吸器外科_心臓血管外科_消化器外科_腫瘍外科_整形外科_小児科_産婦人科_泌尿器科_リハビリテーション科_放射線科_病理診断科_救急科_麻酔科】【一般病床数:143療養病床数:0精神病床数:0感染症病床数:4合計病床数:147】宮崎県小林市細野２２３５番地３" }, "geometry": { "type": "Point", "coordinates": [ 130.985978, 31.989827 ] } },
{ "type": "Feature", "properties": { "ID": 4511450500610, "正式名称": "医療法人養気会池井病院", "機関区分": 1, "都道府県コード": 45, "市区町村コード": 205, "所在地": "宮崎県小林市真方８７番地", "緯度": 31.996826, "経度": 130.97814, "url": "https://www.iryou.teikyouseido.mhlw.go.jp/znk-web/juminkanja/S2430/initialize?prefCd=45&kikanCd=1450500610&kikanKbn=1", "url2": "http://www.yokikai.or.jp", "内容": "医療法人養気会池井病院【1:病院】【診療科目:内科_血液内科_糖尿病内科_消化器内科_外科_整形外科_泌尿器科_リハビリテーション科_放射線科_麻酔科】【一般病床数:50療養病床数:26精神病床数:0感染症病床数:0合計病床数:76】宮崎県小林市真方８７番地" }, "geometry": { "type": "Point", "coordinates": [ 130.97814, 31.996826 ] } },
{ "type": "Feature", "properties": { "ID": 4511450500740, "正式名称": "医療法人三和会池田病院", "機関区分": 1, "都道府県コード": 45, "市区町村コード": 205, "所在地": "宮崎県小林市真方２７番地１", "緯度": 31.99592, "経度": 130.981492, "url": "https://www.iryou.teikyouseido.mhlw.go.jp/znk-web/juminkanja/S2430/initialize?prefCd=45&kikanCd=1450500740&kikanKbn=1", "url2": "http://ikedahp.net/#news-items", "内容": "医療法人三和会池田病院【1:病院】【診療科目:内科_消化器内科_外科_脳神経外科_脊椎脊髄外科_リハビリテーション科_麻酔科】【一般病床数:40療養病床数:72精神病床数:0感染症病床数:0合計病床数:112】宮崎県小林市真方２７番地１" }, "geometry": { "type": "Point", "coordinates": [ 130.981492, 31.99592 ] } },
{ "type": "Feature", "properties": { "ID": 4511450500870, "正式名称": "医療法人東陽会整形外科前原病院", "機関区分": 1, "都道府県コード": 45, "市区町村コード": 205, "所在地": "宮崎県小林市細野２０３３番地", "緯度": 31.989538, "経度": 130.979959, "url": "https://www.iryou.teikyouseido.mhlw.go.jp/znk-web/juminkanja/S2430/initialize?prefCd=45&kikanCd=1450500870&kikanKbn=1", "url2": "http://www.maeharahospital.jp/", "内容": "医療法人東陽会整形外科前原病院【1:病院】【診療科目:内科_胃腸内科_整形外科_リウマチ科_リハビリテーション科_放射線科】【一般病床数:51療養病床数:37精神病床数:0感染症病床数:0合計病床数:88】宮崎県小林市細野２０３３番地" }, "geometry": { "type": "Point", "coordinates": [ 130.979959, 31.989538 ] } },
{ "type": "Feature", "properties": { "ID": 4511450500900, "正式名称": "えびの市立病院", "機関区分": 1, "都道府県コード": 45, "市区町村コード": 209, "所在地": "宮崎県えびの市大字原田３２２３番地", "緯度": 32.043893, "経度": 130.864675, "url": "https://www.iryou.teikyouseido.mhlw.go.jp/znk-web/juminkanja/S2430/initialize?prefCd=45&kikanCd=1450500900&kikanKbn=1", "url2": "https://www.city.ebino.lg.jp/soshiki/shiritsubyoin/1/1/670.html", "内容": "えびの市立病院【1:病院】【診療科目:内科_外科_整形外科_精神科_リハビリテーション科_放射線科】【一般病床数:50療養病床数:0精神病床数:0感染症病床数:0合計病床数:50】宮崎県えびの市大字原田３２２３番地" }, "geometry": { "type": "Point", "coordinates": [ 130.864675, 32.043893 ] } },
{ "type": "Feature", "properties": { "ID": 4511450501200, "正式名称": "医療法人黎明会えびの共立病院", "機関区分": 1, "都道府県コード": 45, "市区町村コード": 209, "所在地": "宮崎県えびの市大字向江５０６番地", "緯度": 32.047101, "経度": 130.770036, "url": "https://www.iryou.teikyouseido.mhlw.go.jp/znk-web/juminkanja/S2430/initialize?prefCd=45&kikanCd=1450501200&kikanKbn=1", "url2": "http://www.ebino-wh.or.jp", "内容": "医療法人黎明会えびの共立病院【1:病院】【診療科目:産科_婦人科_放射線科_麻酔科】【一般病床数:34療養病床数:0精神病床数:0感染症病床数:0合計病床数:34】宮崎県えびの市大字向江５０６番地" }, "geometry": { "type": "Point", "coordinates": [ 130.770036, 32.047101 ] } },
{ "type": "Feature", "properties": { "ID": 4511450501590, "正式名称": "国民健康保険高原病院", "機関区分": 1, "都道府県コード": 45, "市区町村コード": 361, "所在地": "宮崎県西諸県郡高原町大字西麓８７１番地", "緯度": 31.928902, "経度": 131.007248, "url": "https://www.iryou.teikyouseido.mhlw.go.jp/znk-web/juminkanja/S2430/initialize?prefCd=45&kikanCd=1450501590&kikanKbn=1", "url2": "https://takaharu-hp.com", "内容": "国民健康保険高原病院【1:病院】【診療科目:内科_外科_リハビリテーション科】【一般病床数:56療養病床数:0精神病床数:0感染症病床数:0合計病床数:56】宮崎県西諸県郡高原町大字西麓８７１番地" }, "geometry": { "type": "Point", "coordinates": [ 131.007248, 31.928902 ] } },
{ "type": "Feature", "properties": { "ID": 4511450501620, "正式名称": "医療法人友愛会野尻中央病院", "機関区分": 1, "都道府県コード": 45, "市区町村コード": 205, "所在地": "宮崎県小林市野尻町大字東麓１１７６", "緯度": 31.960518, "経度": 131.09929, "url": "https://www.iryou.teikyouseido.mhlw.go.jp/znk-web/juminkanja/S2430/initialize?prefCd=45&kikanCd=1450501620&kikanKbn=1", "url2": "http://nojiri-ch.com", "内容": "医療法人友愛会野尻中央病院【1:病院】【診療科目:内科_循環器内科_消化器内科_腎臓内科_外科_整形外科_眼科_リウマチ科_リハビリテーション科_放射線科】【一般病床数:0療養病床数:80精神病床数:0感染症病床数:0合計病床数:80】宮崎県小林市野尻町大字東麓１１７６" }, "geometry": { "type": "Point", "coordinates": [ 131.09929, 31.960518 ] } },
{ "type": "Feature", "properties": { "ID": 4511450501750, "正式名称": "医療法人友光会整形外科押領司病院", "機関区分": 1, "都道府県コード": 45, "市区町村コード": 205, "所在地": "宮崎県小林市細野１６２番地１", "緯度": 31.994334, "経度": 130.979354, "url": "https://www.iryou.teikyouseido.mhlw.go.jp/znk-web/juminkanja/S2430/initialize?prefCd=45&kikanCd=1450501750&kikanKbn=1", "url2": "http://www.oryoji.or.jp/", "内容": "医療法人友光会整形外科押領司病院【1:病院】【診療科目:内科_整形外科_リウマチ科_リハビリテーション科_麻酔科】【一般病床数:57療養病床数:0精神病床数:0感染症病床数:0合計病床数:57】宮崎県小林市細野１６２番地１" }, "geometry": { "type": "Point", "coordinates": [ 130.979354, 31.994334 ] } },
{ "type": "Feature", "properties": { "ID": 4511450501880, "正式名称": "医療法人けんゆう会園田病院", "機関区分": 1, "都道府県コード": 45, "市区町村コード": 205, "所在地": "宮崎県小林市堤３００５番地１", "緯度": 31.9829, "経度": 130.997333, "url": "https://www.iryou.teikyouseido.mhlw.go.jp/znk-web/juminkanja/S2430/initialize?prefCd=45&kikanCd=1450501880&kikanKbn=1", "url2": "http://www.sonoda-hospital.jp", "内容": "医療法人けんゆう会園田病院【1:病院】【診療科目:内科_呼吸器内科_循環器内科_消化器内科_外科_脳神経外科_歯科_リハビリテーション科_放射線科】【一般病床数:55療養病床数:0精神病床数:0感染症病床数:0合計病床数:55】宮崎県小林市堤３００５番地１" }, "geometry": { "type": "Point", "coordinates": [ 130.997333, 31.9829 ] } },
{ "type": "Feature", "properties": { "ID": 4511450501910, "正式名称": "医療法人興生会　押川病院", "機関区分": 1, "都道府県コード": 45, "市区町村コード": 205, "所在地": "宮崎県小林市野尻町東麓１０８２番地１", "緯度": 31.96146, "経度": 131.095235, "url": "https://www.iryou.teikyouseido.mhlw.go.jp/znk-web/juminkanja/S2430/initialize?prefCd=45&kikanCd=1450501910&kikanKbn=1", "url2": "https://oshikawahp.com/", "内容": "医療法人興生会　押川病院【1:病院】【診療科目:内科_循環器内科_消化器内科_整形外科_小児科_リハビリテーション科_放射線科】【一般病床数:0療養病床数:40精神病床数:0感染症病床数:0合計病床数:40】宮崎県小林市野尻町東麓１０８２番地１" }, "geometry": { "type": "Point", "coordinates": [ 131.095235, 31.96146 ] } },
{ "type": "Feature", "properties": { "ID": 4511450600350, "正式名称": "医療法人愛生堂　坂田病院", "機関区分": 1, "都道府県コード": 45, "市区町村コード": 401, "所在地": "宮崎県児湯郡高鍋町大字上江８１０８", "緯度": 32.13189, "経度": 131.505414, "url": "https://www.iryou.teikyouseido.mhlw.go.jp/znk-web/juminkanja/S2430/initialize?prefCd=45&kikanCd=1450600350&kikanKbn=1", "url2": "http://www.sakata-hospital.or.jp/", "内容": "医療法人愛生堂　坂田病院【1:病院】【診療科目:内科_呼吸器内科_循環器内科_外科_軽度の一般外傷_婦人科_アレルギー科_リウマチ科】【一般病床数:31療養病床数:0精神病床数:0感染症病床数:0合計病床数:31】宮崎県児湯郡高鍋町大字上江８１０８" }, "geometry": { "type": "Point", "coordinates": [ 131.505414, 32.13189 ] } },
{ "type": "Feature", "properties": { "ID": 4511450600510, "正式名称": "独立行政法人国立病院機構宮崎病院", "機関区分": 1, "都道府県コード": 45, "市区町村コード": 405, "所在地": "宮崎県児湯郡川南町大字川南１９４０３番地４", "緯度": 32.202302, "経度": 131.529071, "url": "https://www.iryou.teikyouseido.mhlw.go.jp/znk-web/juminkanja/S2430/initialize?prefCd=45&kikanCd=1450600510&kikanKbn=1", "url2": "https://miyazaki.hosp.go.jp/", "内容": "独立行政法人国立病院機構宮崎病院【1:病院】【診療科目:内科_糖尿病・代謝内科_脳神経内科_呼吸器内科_循環器内科_消化器内科_整形外科_小児科_歯科_リハビリテーション科_放射線科_麻酔科】【一般病床数:199療養病床数:0精神病床数:0感染症病床数:0合計病床数:199】宮崎県児湯郡川南町大字川南１９４０３番地４" }, "geometry": { "type": "Point", "coordinates": [ 131.529071, 32.202302 ] } },
{ "type": "Feature", "properties": { "ID": 4511450600640, "正式名称": "医療法人社団　聖山会　川南病院", "機関区分": 1, "都道府県コード": 45, "市区町村コード": 405, "所在地": "宮崎県児湯郡川南町大字川南１８１５０番地４７", "緯度": 32.21554, "経度": 131.517318, "url": "https://www.iryou.teikyouseido.mhlw.go.jp/znk-web/juminkanja/S2430/initialize?prefCd=45&kikanCd=1450600640&kikanKbn=1", "url2": "http://www.kawaminami.or.jp", "内容": "医療法人社団　聖山会　川南病院【1:病院】【診療科目:内科_循環器内科_消化器内科_腎臓内科_外科_脳神経外科_循環器外科_消化器外科_整形外科_皮膚科_泌尿器科_リハビリテーション科_放射線科_麻酔科】【一般病床数:112療養病床数:60精神病床数:0感染症病床数:0合計病床数:172】宮崎県児湯郡川南町大字川南１８１５０番地４７" }, "geometry": { "type": "Point", "coordinates": [ 131.517318, 32.21554 ] } },
{ "type": "Feature", "properties": { "ID": 4511450600770, "正式名称": "都農町国民健康保険病院", "機関区分": 1, "都道府県コード": 45, "市区町村コード": 406, "所在地": "宮崎県児湯郡都農町川北５２０２番地", "緯度": 32.260091, "経度": 131.553743, "url": "https://www.iryou.teikyouseido.mhlw.go.jp/znk-web/juminkanja/S2430/initialize?prefCd=45&kikanCd=1450600770&kikanKbn=1", "url2": "http://www.tsuno-hsp.jp/", "内容": "都農町国民健康保険病院【1:病院】【診療科目:内科_消化器内科_外科_消化器外科_整形外科_小児科_眼科_アレルギー科_リハビリテーション科_放射線科】【一般病床数:61療養病床数:0精神病床数:0感染症病床数:4合計病床数:65】宮崎県児湯郡都農町川北５２０２番地" }, "geometry": { "type": "Point", "coordinates": [ 131.553743, 32.260091 ] } },
{ "type": "Feature", "properties": { "ID": 4511450601070, "正式名称": "医療法人宏仁会海老原総合病院", "機関区分": 1, "都道府県コード": 45, "市区町村コード": 401, "所在地": "宮崎県児湯郡高鍋町大字上江２０７番地", "緯度": 32.147502, "経度": 131.503779, "url": "https://www.iryou.teikyouseido.mhlw.go.jp/znk-web/juminkanja/S2430/initialize?prefCd=45&kikanCd=1450601070&kikanKbn=1", "url2": "http://ebihara-ghp.or.jp", "内容": "医療法人宏仁会海老原総合病院【1:病院】【診療科目:内科_脳神経内科_循環器内科_腎臓内科_人工透析内科_神経内科_ペインクリニック内科_外科_脳神経外科_整形外科_眼科_耳鼻いんこう科_皮膚科_アレルギー科_リハビリテーション科_放射線科】【一般病床数:86療養病床数:113精神病床数:0感染症病床数:0合計病床数:199】宮崎県児湯郡高鍋町大字上江２０７番地" }, "geometry": { "type": "Point", "coordinates": [ 131.503779, 32.147502 ] } },
{ "type": "Feature", "properties": { "ID": 4511450601230, "正式名称": "大塚病院", "機関区分": 1, "都道府県コード": 45, "市区町村コード": 208, "所在地": "宮崎県西都市御舟町２丁目４５番地", "緯度": 32.107954, "経度": 131.404858, "url": "https://www.iryou.teikyouseido.mhlw.go.jp/znk-web/juminkanja/S2430/initialize?prefCd=45&kikanCd=1450601230&kikanKbn=1", "url2": "http://www.otsuka.or.jp/", "内容": "大塚病院【1:病院】【診療科目:内科_循環器内科_胃腸内科_外科_整形外科_形成外科_美容外科_皮膚科_放射線科_乳腺内科】【一般病床数:35療養病床数:33精神病床数:0感染症病床数:0合計病床数:68】宮崎県西都市御舟町２丁目４５番地" }, "geometry": { "type": "Point", "coordinates": [ 131.404858, 32.107954 ] } },
{ "type": "Feature", "properties": { "ID": 4511450700120, "正式名称": "国見ケ丘病院", "機関区分": 1, "都道府県コード": 45, "市区町村コード": 441, "所在地": "宮崎県西臼杵郡高千穂町押方１１３０番地", "緯度": 32.71189, "経度": 131.297052, "url": "https://www.iryou.teikyouseido.mhlw.go.jp/znk-web/juminkanja/S2430/initialize?prefCd=45&kikanCd=1450700120&kikanKbn=1", "url2": "http://www.kunimigaoka.or.jp/", "内容": "国見ケ丘病院【1:病院】【診療科目:精神科_神経科】【一般病床数:0療養病床数:0精神病床数:256感染症病床数:0合計病床数:256】宮崎県西臼杵郡高千穂町押方１１３０番地" }, "geometry": { "type": "Point", "coordinates": [ 131.297052, 32.71189 ] } },
{ "type": "Feature", "properties": { "ID": 4511450700410, "正式名称": "五ヶ瀬町国民健康保険病院", "機関区分": 1, "都道府県コード": 45, "市区町村コード": 443, "所在地": "宮崎県西臼杵郡五ヶ瀬町大字三ヶ所２１０９番地１", "緯度": 32.684608, "経度": 131.19779, "url": "https://www.iryou.teikyouseido.mhlw.go.jp/znk-web/juminkanja/S2430/initialize?prefCd=45&kikanCd=1450700410&kikanKbn=1", "url2": "https://www.nishiusuki-hp.jp/", "内容": "五ヶ瀬町国民健康保険病院【1:病院】【診療科目:内科_外科_消化器外科_整形外科_耳鼻いんこう科_リハビリテーション科_放射線科】【一般病床数:32療養病床数:0精神病床数:0感染症病床数:0合計病床数:32】宮崎県西臼杵郡五ヶ瀬町大字三ヶ所２１０９番地１" }, "geometry": { "type": "Point", "coordinates": [ 131.19779, 32.684608 ] } },
{ "type": "Feature", "properties": { "ID": 4511450800280, "正式名称": "医療法人　十善会　県南病院", "機関区分": 1, "都道府県コード": 45, "市区町村コード": 207, "所在地": "宮崎県串間市大字西方３７２８", "緯度": 31.474168, "経度": 131.233525, "url": "https://www.iryou.teikyouseido.mhlw.go.jp/znk-web/juminkanja/S2430/initialize?prefCd=45&kikanCd=1450800280&kikanKbn=1", "url2": "https://www.kennan-hospital.or.jp", "内容": "医療法人　十善会　県南病院【1:病院】【診療科目:内科_呼吸器内科_循環器内科_消化器内科_神経内科_整形外科_泌尿器科_精神科_心療内科_歯科_リハビリテーション科_放射線科】【一般病床数:22療養病床数:48精神病床数:364感染症病床数:0合計病床数:434】宮崎県串間市大字西方３７２８" }, "geometry": { "type": "Point", "coordinates": [ 131.233525, 31.474168 ] } },
{ "type": "Feature", "properties": { "ID": 4511450900180, "正式名称": "協和病院", "機関区分": 1, "都道府県コード": 45, "市区町村コード": 206, "所在地": "宮崎県日向市大字財光寺１１９４番地３", "緯度": 32.408928, "経度": 131.636496, "url": "https://www.iryou.teikyouseido.mhlw.go.jp/znk-web/juminkanja/S2430/initialize?prefCd=45&kikanCd=1450900180&kikanKbn=1", "url2": "http://www.kyowahospital.jp", "内容": "協和病院【1:病院】【診療科目:内科_精神科】【一般病床数:0療養病床数:0精神病床数:307感染症病床数:0合計病床数:307】宮崎県日向市大字財光寺１１９４番地３" }, "geometry": { "type": "Point", "coordinates": [ 131.636496, 32.408928 ] } },
{ "type": "Feature", "properties": { "ID": 4511450900210, "正式名称": "鮫島病院", "機関区分": 1, "都道府県コード": 45, "市区町村コード": 206, "所在地": "宮崎県日向市大字塩見１４１６８", "緯度": 32.408, "経度": 131.604387, "url": "https://www.iryou.teikyouseido.mhlw.go.jp/znk-web/juminkanja/S2430/initialize?prefCd=45&kikanCd=1450900210&kikanKbn=1", "url2": "http://www.sameshima-hp.jp", "内容": "鮫島病院【1:病院】【診療科目:内科_整形外科_精神科_心療内科_放射線科】【一般病床数:0療養病床数:0精神病床数:240感染症病床数:0合計病床数:240】宮崎県日向市大字塩見１４１６８" }, "geometry": { "type": "Point", "coordinates": [ 131.604387, 32.408 ] } },
{ "type": "Feature", "properties": { "ID": 4511450900760, "正式名称": "社会福祉法人恩賜財団済生会支部宮崎県済生会日向病院", "機関区分": 1, "都道府県コード": 45, "市区町村コード": 421, "所在地": "宮崎県東臼杵郡門川町南町４丁目１２８番地", "緯度": 32.457694, "経度": 131.647406, "url": "https://www.iryou.teikyouseido.mhlw.go.jp/znk-web/juminkanja/S2430/initialize?prefCd=45&kikanCd=1450900760&kikanKbn=1", "url2": "http://www.hyuga.saiseikai.or.jp", "内容": "社会福祉法人恩賜財団済生会支部宮崎県済生会日向病院【1:病院】【診療科目:内科_糖尿病内科_脳神経内科_外科_整形外科_形成外科_小児科_眼科_耳鼻いんこう科_泌尿器科_リハビリテーション科_放射線科_麻酔科】【一般病床数:103療養病床数:72精神病床数:0感染症病床数:4合計病床数:179】宮崎県東臼杵郡門川町南町４丁目１２８番地" }, "geometry": { "type": "Point", "coordinates": [ 131.647406, 32.457694 ] } },
{ "type": "Feature", "properties": { "ID": 4511450901060, "正式名称": "白石病院", "機関区分": 1, "都道府県コード": 45, "市区町村コード": 421, "所在地": "宮崎県東臼杵郡門川町大字門川尾末８６００番地１００", "緯度": 32.473464, "経度": 131.652541, "url": "https://www.iryou.teikyouseido.mhlw.go.jp/znk-web/juminkanja/S2430/initialize?prefCd=45&kikanCd=1450901060&kikanKbn=1", "url2": null, "内容": "白石病院【1:病院】【診療科目:内科_糖尿病内科_呼吸器内科_リハビリテーション科】【一般病床数:0療養病床数:20精神病床数:0感染症病床数:0合計病床数:20】宮崎県東臼杵郡門川町大字門川尾末８６００番地１００" }, "geometry": { "type": "Point", "coordinates": [ 131.652541, 32.473464 ] } },
{ "type": "Feature", "properties": { "ID": 4511450901770, "正式名称": "医療法人誠和会　和田病院", "機関区分": 1, "都道府県コード": 45, "市区町村コード": 206, "所在地": "宮崎県日向市向江町１丁目１９６番地１", "緯度": 32.42881, "経度": 131.62899, "url": "https://www.iryou.teikyouseido.mhlw.go.jp/znk-web/juminkanja/S2430/initialize?prefCd=45&kikanCd=1450901770&kikanKbn=1", "url2": "http://www.fc.wada-hosp.or.jp", "内容": "医療法人誠和会　和田病院【1:病院】【診療科目:内科_消化器内科_人工透析内科_外科_脳神経外科_泌尿器科_リハビリテーション科_放射線科】【一般病床数:81療養病床数:82精神病床数:0感染症病床数:0合計病床数:163】宮崎県日向市向江町１丁目１９６番地１" }, "geometry": { "type": "Point", "coordinates": [ 131.62899, 32.42881 ] } },
{ "type": "Feature", "properties": { "ID": 4511450901800, "正式名称": "椎葉村国民健康保険病院", "機関区分": 1, "都道府県コード": 45, "市区町村コード": 430, "所在地": "宮崎県東臼杵郡椎葉村大字下福良１７４７番地５", "緯度": 32.465423, "経度": 131.155929, "url": "https://www.iryou.teikyouseido.mhlw.go.jp/znk-web/juminkanja/S2430/initialize?prefCd=45&kikanCd=1450901800&kikanKbn=1", "url2": "https://www.vill.shiiba.miyazaki.jp/hospital/", "内容": "椎葉村国民健康保険病院【1:病院】【診療科目:内科_外科_整形外科】【一般病床数:30療養病床数:0精神病床数:0感染症病床数:0合計病床数:30】宮崎県東臼杵郡椎葉村大字下福良１７４７番地５" }, "geometry": { "type": "Point", "coordinates": [ 131.155929, 32.465423 ] } },
{ "type": "Feature", "properties": { "ID": 4511450902070, "正式名称": "美郷町国民健康保険西郷病院", "機関区分": 1, "都道府県コード": 45, "市区町村コード": 431, "所在地": "宮崎県東臼杵郡美郷町西郷田代２９番地", "緯度": 32.440214, "経度": 131.422115, "url": "https://www.iryou.teikyouseido.mhlw.go.jp/znk-web/juminkanja/S2430/initialize?prefCd=45&kikanCd=1450902070&kikanKbn=1", "url2": "http://www.town.miyazaki-misato.lg.jp/", "内容": "美郷町国民健康保険西郷病院【1:病院】【診療科目:内科_整形外科_リハビリテーション科_放射線科】【一般病床数:29療養病床数:0精神病床数:0感染症病床数:0合計病床数:29】宮崎県東臼杵郡美郷町西郷田代２９番地" }, "geometry": { "type": "Point", "coordinates": [ 131.422115, 32.440214 ] } },
{ "type": "Feature", "properties": { "ID": 4511450902360, "正式名称": "社会医療法人泉和会　千代田病院", "機関区分": 1, "都道府県コード": 45, "市区町村コード": 206, "所在地": "宮崎県日向市大字日知屋字古田町８８番地", "緯度": 32.424644, "経度": 131.65026, "url": "https://www.iryou.teikyouseido.mhlw.go.jp/znk-web/juminkanja/S2430/initialize?prefCd=45&kikanCd=1450902360&kikanKbn=1", "url2": "http://www.chiyoda-hp.jp/", "内容": "社会医療法人泉和会　千代田病院【1:病院】【診療科目:内科_糖尿病・内分泌内科_脳神経内科_呼吸器内科_循環器内科_消化器内科_腎臓内科_外科_呼吸器外科_心臓血管外科_消化器外科_乳腺・内分泌外科_大腸・肛門外科_整形外科_耳鼻いんこう科_皮膚科_泌尿器科_リウマチ科_リハビリテーション科_放射線科_救急科_麻酔科】【一般病床数:151療養病床数:45精神病床数:0感染症病床数:0合計病床数:196】宮崎県日向市大字日知屋字古田町８８番地" }, "geometry": { "type": "Point", "coordinates": [ 131.65026, 32.424644 ] } },
{ "type": "Feature", "properties": { "ID": 4511451000380, "正式名称": "医療法人恵喜会　西都病院", "機関区分": 1, "都道府県コード": 45, "市区町村コード": 208, "所在地": "宮崎県西都市大字調殿１０１０番地", "緯度": 32.113656, "経度": 131.410907, "url": "https://www.iryou.teikyouseido.mhlw.go.jp/znk-web/juminkanja/S2430/initialize?prefCd=45&kikanCd=1451000380&kikanKbn=1", "url2": "https://saito-hospital.com/", "内容": "医療法人恵喜会　西都病院【1:病院】【診療科目:内科_神経内科_精神科_心療内科】【一般病床数:0療養病床数:20精神病床数:155感染症病床数:0合計病床数:175】宮崎県西都市大字調殿１０１０番地" }, "geometry": { "type": "Point", "coordinates": [ 131.410907, 32.113656 ] } },
{ "type": "Feature", "properties": { "ID": 4511451000830, "正式名称": "地方独立行政法人西都児湯医療センター", "機関区分": 1, "都道府県コード": 45, "市区町村コード": 208, "所在地": "宮崎県西都市大字妻１５５０番地", "緯度": 32.107518, "経度": 131.398855, "url": "https://www.iryou.teikyouseido.mhlw.go.jp/znk-web/juminkanja/S2430/initialize?prefCd=45&kikanCd=1451000830&kikanKbn=1", "url2": "http://www.skmc.jp/", "内容": "地方独立行政法人西都児湯医療センター【1:病院】【診療科目:内科_脳神経内科_呼吸器内科_循環器内科_消化器内科_外科_脳神経外科_整形外科_泌尿器科_リウマチ科_リハビリテーション科_放射線科_麻酔科】【一般病床数:91療養病床数:0精神病床数:0感染症病床数:0合計病床数:91】宮崎県西都市大字妻１５５０番地" }, "geometry": { "type": "Point", "coordinates": [ 131.398855, 32.107518 ] } },
{ "type": "Feature", "properties": { "ID": 4511451001130, "正式名称": "社会医療法人隆徳会　鶴田病院", "機関区分": 1, "都道府県コード": 45, "市区町村コード": 208, "所在地": "宮崎県西都市御舟町１丁目７８番地", "緯度": 32.110576, "経度": 131.40378, "url": "https://www.iryou.teikyouseido.mhlw.go.jp/znk-web/juminkanja/S2430/initialize?prefCd=45&kikanCd=1451001130&kikanKbn=1", "url2": "http://www.ryutoku.or.jp/", "内容": "社会医療法人隆徳会　鶴田病院【1:病院】【診療科目:内科_糖尿病内科_消化器内科_神経内科_外科_消化器外科_肛門外科_整形外科_皮膚科_泌尿器科_リウマチ科_リハビリテーション科_放射線科】【一般病床数:60療養病床数:93精神病床数:0感染症病床数:0合計病床数:153】宮崎県西都市御舟町１丁目７８番地" }, "geometry": { "type": "Point", "coordinates": [ 131.40378, 32.110576 ] } },
{ "type": "Feature", "properties": { "ID": 4511453108280, "正式名称": "大江整形外科病院", "機関区分": 1, "都道府県コード": 45, "市区町村コード": 201, "所在地": "宮崎県宮崎市大橋１丁目９４番地１", "緯度": 31.920183, "経度": 131.415591, "url": "https://www.iryou.teikyouseido.mhlw.go.jp/znk-web/juminkanja/S2430/initialize?prefCd=45&kikanCd=1453108280&kikanKbn=1", "url2": "https://oeseikei-hp.com/", "内容": "大江整形外科病院【1:病院】【診療科目:整形外科_小児科_リハビリテーション科】【一般病床数:60療養病床数:0精神病床数:0感染症病床数:0合計病床数:60】宮崎県宮崎市大橋１丁目９４番地１" }, "geometry": { "type": "Point", "coordinates": [ 131.415591, 31.920183 ] } },
{ "type": "Feature", "properties": { "ID": 4511453108310, "正式名称": "医療法人社団尚成会　近間病院", "機関区分": 1, "都道府県コード": 45, "市区町村コード": 201, "所在地": "宮崎県宮崎市山崎町９６５番地６", "緯度": 31.946823, "経度": 131.45826, "url": "https://www.iryou.teikyouseido.mhlw.go.jp/znk-web/juminkanja/S2430/initialize?prefCd=45&kikanCd=1453108310&kikanKbn=1", "url2": "http://www.chikama-hp.jp/", "内容": "医療法人社団尚成会　近間病院【1:病院】【診療科目:内科_代謝・内分泌内科_消化器内科_消化器外科_整形外科_リハビリテーション科_放射線科】【一般病床数:0療養病床数:50精神病床数:0感染症病床数:0合計病床数:50】宮崎県宮崎市山崎町９６５番地６" }, "geometry": { "type": "Point", "coordinates": [ 131.45826, 31.946823 ] } },
{ "type": "Feature", "properties": { "ID": 4511453108440, "正式名称": "宮崎生協病院", "機関区分": 1, "都道府県コード": 45, "市区町村コード": 201, "所在地": "宮崎県宮崎市大島町天神前１１７１番地", "緯度": 31.938067, "経度": 131.438822, "url": "https://www.iryou.teikyouseido.mhlw.go.jp/znk-web/juminkanja/S2430/initialize?prefCd=45&kikanCd=1453108440&kikanKbn=1", "url2": "https://m-seikyouhp.com/", "内容": "宮崎生協病院【1:病院】【診療科目:内科_糖尿病内科_呼吸器内科_循環器内科_消化器内科_外科_肛門外科_小児科_アレルギー科_リハビリテーション科】【一般病床数:124療養病床数:0精神病床数:0感染症病床数:0合計病床数:124】宮崎県宮崎市大島町天神前１１７１番地" }, "geometry": { "type": "Point", "coordinates": [ 131.438822, 31.938067 ] } },
{ "type": "Feature", "properties": { "ID": 4511453108570, "正式名称": "社会医療法人善仁会　宮崎善仁会病院", "機関区分": 1, "都道府県コード": 45, "市区町村コード": 201, "所在地": "宮崎県宮崎市新別府町江口９５０−１", "緯度": 31.921907, "経度": 131.453208, "url": "https://www.iryou.teikyouseido.mhlw.go.jp/znk-web/juminkanja/S2430/initialize?prefCd=45&kikanCd=1453108570&kikanKbn=1", "url2": "http://www.m-zenjin.or.jp/", "内容": "社会医療法人善仁会　宮崎善仁会病院【1:病院】【診療科目:内科_糖尿病・代謝内科_脳神経内科_呼吸器内科_循環器内科_消化器内科_腫瘍内科_外科_脳神経外科_呼吸器外科_消化器外科_肛門外科_整形外科_婦人科_眼科_耳鼻いんこう科_皮膚科_泌尿器科_歯科口腔外科_リウマチ科_リハビリテーション科_放射線科_病理診断科_臨床検査科_救急科_麻酔科】【一般病床数:199療養病床数:0精神病床数:0感染症病床数:0合計病床数:199】宮崎県宮崎市新別府町江口９５０−１" }, "geometry": { "type": "Point", "coordinates": [ 131.453208, 31.921907 ] } },
{ "type": "Feature", "properties": { "ID": 4511453108600, "正式名称": "社会医療法人慶明会　宮崎中央眼科病院", "機関区分": 1, "都道府県コード": 45, "市区町村コード": 201, "所在地": "宮崎県宮崎市清水三丁目６番２１号", "緯度": 31.919625, "経度": 131.416447, "url": "https://www.iryou.teikyouseido.mhlw.go.jp/znk-web/juminkanja/S2430/initialize?prefCd=45&kikanCd=1453108600&kikanKbn=1", "url2": "http://www.keimei.or.jp/", "内容": "社会医療法人慶明会　宮崎中央眼科病院【1:病院】【診療科目:眼科】【一般病床数:26療養病床数:0精神病床数:0感染症病床数:0合計病床数:26】宮崎県宮崎市清水三丁目６番２１号" }, "geometry": { "type": "Point", "coordinates": [ 131.416447, 31.919625 ] } },
{ "type": "Feature", "properties": { "ID": 4511453108730, "正式名称": "宮崎市郡医師会病院", "機関区分": 1, "都道府県コード": 45, "市区町村コード": 201, "所在地": "宮崎県宮崎市大字有田１１７３番地", "緯度": 31.940436, "経度": 131.368074, "url": "https://www.iryou.teikyouseido.mhlw.go.jp/znk-web/juminkanja/S2430/initialize?prefCd=45&kikanCd=1453108730&kikanKbn=1", "url2": "https://www.cure.or.jp/", "内容": "宮崎市郡医師会病院【1:病院】【診療科目:内科_呼吸器内科_循環器内科_消化器内科_緩和ケア内科_外科_心臓血管外科_消化器外科_整形外科_小児科_産婦人科_リハビリテーション科_放射線科_病理診断科_救急科_麻酔科】【一般病床数:267療養病床数:0精神病床数:0感染症病床数:0合計病床数:267】宮崎県宮崎市大字有田１１７３番地" }, "geometry": { "type": "Point", "coordinates": [ 131.368074, 31.940436 ] } },
{ "type": "Feature", "properties": { "ID": 4511453108860, "正式名称": "さがら病院宮崎", "機関区分": 1, "都道府県コード": 45, "市区町村コード": 201, "所在地": "宮崎県宮崎市下原町２４７番１９", "緯度": 31.921733, "経度": 131.432398, "url": "https://www.iryou.teikyouseido.mhlw.go.jp/znk-web/juminkanja/S2430/initialize?prefCd=45&kikanCd=1453108860&kikanKbn=1", "url2": "https://www.m-sagara.or.jp/", "内容": "さがら病院宮崎【1:病院】【診療科目:腫瘍内科_乳腺外科_形成外科_婦人科_歯科口腔外科_放射線科_病理診断科】【一般病床数:36療養病床数:0精神病床数:0感染症病床数:0合計病床数:36】宮崎県宮崎市下原町２４７番１９" }, "geometry": { "type": "Point", "coordinates": [ 131.432398, 31.921733 ] } },
{ "type": "Feature", "properties": { "ID": 4513450212920, "正式名称": "ハーミィ小児矯正歯科", "機関区分": 1, "都道府県コード": 45, "市区町村コード": 202, "所在地": "宮崎県都城市花繰町１２－１２", "緯度": 31.725205, "経度": 131.083222, "url": "https://www.iryou.teikyouseido.mhlw.go.jp/znk-web/juminkanja/S2430/initialize?prefCd=45&kikanCd=3450212920&kikanKbn=1", "url2": "harmi.net", "内容": "ハーミィ小児矯正歯科【1:病院】【診療科目:歯科_矯正歯科_歯科口腔外科_小児歯科_小児矯正歯科】【一般病床数:0療養病床数:0精神病床数:0感染症病床数:0合計病床数:0】宮崎県都城市花繰町１２－１２" }, "geometry": { "type": "Point", "coordinates": [ 131.083222, 31.725205 ] } }
]
}
