{
"type": "FeatureCollection",
"name": "geo_45_福祉用具貸与",
"crs": { "type": "name", "properties": { "name": "urn:ogc:def:crs:OGC:1.3:CRS84" } },
"features": [
{ "type": "Feature", "properties": { "内容": "株式会社ウエルライフ宮崎支店【福祉用具貸与】宮崎県宮崎市新別府町麓５２２－１", "url": "https://www.kaigokensaku.mhlw.go.jp/45/index.php?action_kouhyou_detail_004_kani=true&JigyosyoCd=4570100794-00&ServiceCd=170&Type=search", "url2": null }, "geometry": { "type": "Point", "coordinates": [ 131.449655240614334, 31.921199506609721 ] } },
{ "type": "Feature", "properties": { "内容": "合同会社まんてん【福祉用具貸与】宮崎県宮崎市大字新名爪80番地1コーポヤスモト101号", "url": "https://www.kaigokensaku.mhlw.go.jp/45/index.php?action_kouhyou_detail_004_kani=true&JigyosyoCd=4570109902-00&ServiceCd=170&Type=search", "url2": null }, "geometry": { "type": "Point", "coordinates": [ 131.4392372, 31.9713111 ] } },
{ "type": "Feature", "properties": { "内容": "セントケア宮崎福祉用具センター【福祉用具貸与】宮崎市祇園2丁目23-2", "url": "https://www.kaigokensaku.mhlw.go.jp/45/index.php?action_kouhyou_detail_004_kani=true&JigyosyoCd=4570106056-00&ServiceCd=170&Type=search", "url2": null }, "geometry": { "type": "Point", "coordinates": [ 131.409367357780411, 31.92865930633473 ] } },
{ "type": "Feature", "properties": { "内容": "株式会社　ケイメイ　ユーフレックス事業部【福祉用具貸与】宮崎県宮崎市清水3丁目7番12号アイビル2階", "url": "https://www.kaigokensaku.mhlw.go.jp/45/index.php?action_kouhyou_detail_004_kani=true&JigyosyoCd=4570109092-00&ServiceCd=170&Type=search", "url2": null }, "geometry": { "type": "Point", "coordinates": [ 131.416674569311454, 31.920083160749002 ] } },
{ "type": "Feature", "properties": { "内容": "株式会社ビブレアール宮崎【福祉用具貸与】宮崎県宮崎市大字恒久字上代1544番地1", "url": "https://www.kaigokensaku.mhlw.go.jp/45/index.php?action_kouhyou_detail_004_kani=true&JigyosyoCd=4570101206-00&ServiceCd=170&Type=search", "url2": "http://www.mottokitto.co.jp/shop/index.html" }, "geometry": { "type": "Point", "coordinates": [ 131.423633, 31.887359 ] } },
{ "type": "Feature", "properties": { "内容": "ニチイケアセンター南宮崎【福祉用具貸与】宮崎県宮崎市花山手西1－5－1", "url": "https://www.kaigokensaku.mhlw.go.jp/45/index.php?action_kouhyou_detail_004_kani=true&JigyosyoCd=4570102477-00&ServiceCd=170&Type=search", "url2": "http:/www.nichiigakkan.co.jp" }, "geometry": { "type": "Point", "coordinates": [ 131.40081239999995, 31.9041312 ] } },
{ "type": "Feature", "properties": { "内容": "ポラリス合同会社【福祉用具貸与】宮崎県宮崎市田野町乙7506番地1C棟", "url": "https://www.kaigokensaku.mhlw.go.jp/45/index.php?action_kouhyou_detail_004_kani=true&JigyosyoCd=4570110447-00&ServiceCd=170&Type=search", "url2": null }, "geometry": { "type": "Point", "coordinates": [ 131.293336399999987, 31.8353919 ] } },
{ "type": "Feature", "properties": { "内容": "株式会社オンリーワンケア【福祉用具貸与】宮崎県宮崎市霧島2丁目128番地霧島ビル105号", "url": "https://www.kaigokensaku.mhlw.go.jp/45/index.php?action_kouhyou_detail_004_kani=true&JigyosyoCd=4570109217-00&ServiceCd=170&Type=search", "url2": null }, "geometry": { "type": "Point", "coordinates": [ 131.41610270000001, 31.929541 ] } },
{ "type": "Feature", "properties": { "内容": "山﨑株式会社　介護事業部【福祉用具貸与】宮崎市橘通西5丁目6番57号山﨑ビル6階", "url": "https://www.kaigokensaku.mhlw.go.jp/45/index.php?action_kouhyou_detail_004_kani=true&JigyosyoCd=4570106387-00&ServiceCd=170&Type=search", "url2": "http://www.yamasaki.jp/" }, "geometry": { "type": "Point", "coordinates": [ 131.424718, 31.9236024 ] } },
{ "type": "Feature", "properties": { "内容": "ユニファ【福祉用具貸与】宮崎県宮崎市清武町あさひ1丁目1-2", "url": "https://www.kaigokensaku.mhlw.go.jp/45/index.php?action_kouhyou_detail_004_kani=true&JigyosyoCd=4570108870-00&ServiceCd=170&Type=search", "url2": null }, "geometry": { "type": "Point", "coordinates": [ 131.407402041409114, 31.879301168747141 ] } },
{ "type": "Feature", "properties": { "内容": "株式会社ミライト【福祉用具貸与】宮崎県宮崎市恒久2丁目１８番地１１長友コーポ１０２号室", "url": "https://www.kaigokensaku.mhlw.go.jp/45/index.php?action_kouhyou_detail_004_kani=true&JigyosyoCd=4570110561-00&ServiceCd=170&Type=search", "url2": null }, "geometry": { "type": "Point", "coordinates": [ 131.426815800000014, 31.8932856 ] } },
{ "type": "Feature", "properties": { "内容": "リ･バース株式会社　宮崎営業所【福祉用具貸与】宮崎県宮崎市大字新名爪１４０７－２", "url": "https://www.kaigokensaku.mhlw.go.jp/45/index.php?action_kouhyou_detail_004_kani=true&JigyosyoCd=4570107468-00&ServiceCd=170&Type=search", "url2": null }, "geometry": { "type": "Point", "coordinates": [ 131.445498311830875, 31.97727929567213 ] } },
{ "type": "Feature", "properties": { "内容": "株式会社リードマスター【福祉用具貸与】宮崎県宮崎市田野町乙9904番地1", "url": "https://www.kaigokensaku.mhlw.go.jp/45/index.php?action_kouhyou_detail_004_kani=true&JigyosyoCd=4570107237-00&ServiceCd=170&Type=search", "url2": "https://www.mizunotane.com/" }, "geometry": { "type": "Point", "coordinates": [ 131.327119, 31.8566365 ] } },
{ "type": "Feature", "properties": { "内容": "株式会社九州ケアナビ【福祉用具貸与】宮崎県宮崎市瓜生野115番地九ケアフォーラム101号", "url": "https://www.kaigokensaku.mhlw.go.jp/45/index.php?action_kouhyou_detail_004_kani=true&JigyosyoCd=4570106882-00&ServiceCd=170&Type=search", "url2": "http://hp.kaipoke.biz/tk4/info.html" }, "geometry": { "type": "Point", "coordinates": [ 131.399732699999959, 31.9570566 ] } },
{ "type": "Feature", "properties": { "内容": "株式会社カクイックスウィング宮崎営業所【福祉用具貸与】宮崎県宮崎市吉村町久保田甲906-1", "url": "https://www.kaigokensaku.mhlw.go.jp/45/index.php?action_kouhyou_detail_004_kani=true&JigyosyoCd=4570100828-00&ServiceCd=170&Type=search", "url2": "http://www.kakuix-wing.com" }, "geometry": { "type": "Point", "coordinates": [ 131.445658875563026, 31.920851701700901 ] } },
{ "type": "Feature", "properties": { "内容": "株式会社　ケアサポートフェニックス【福祉用具貸与】清武町新町1丁目1番地11", "url": "https://www.kaigokensaku.mhlw.go.jp/45/index.php?action_kouhyou_detail_004_kani=true&JigyosyoCd=4570106171-00&ServiceCd=170&Type=search", "url2": "http://caresupport-p.com" }, "geometry": { "type": "Point", "coordinates": [ 131.3949054, 31.8573339 ] } },
{ "type": "Feature", "properties": { "内容": "株式会社フロンティア　宮崎営業所【福祉用具貸与】大字芳士今出2049番地1", "url": "https://www.kaigokensaku.mhlw.go.jp/45/index.php?action_kouhyou_detail_004_kani=true&JigyosyoCd=4570109829-00&ServiceCd=170&Type=search", "url2": "https://www.frontier-ph.com/" }, "geometry": { "type": "Point", "coordinates": [ 131.4385552, 31.9626751 ] } },
{ "type": "Feature", "properties": { "内容": "あおしま福祉用具【福祉用具貸与】宮崎県宮崎市大字加江田4910", "url": "https://www.kaigokensaku.mhlw.go.jp/45/index.php?action_kouhyou_detail_004_kani=true&JigyosyoCd=4570107112-00&ServiceCd=170&Type=search", "url2": "www.a-yuakan.com" }, "geometry": { "type": "Point", "coordinates": [ 131.454482800000051, 31.8127876 ] } },
{ "type": "Feature", "properties": { "内容": "セントケアりまいん宮崎【福祉用具貸与】祇園２丁目２３－２", "url": "https://www.kaigokensaku.mhlw.go.jp/45/index.php?action_kouhyou_detail_004_kani=true&JigyosyoCd=4570110066-00&ServiceCd=170&Type=search", "url2": null }, "geometry": { "type": "Point", "coordinates": [ 131.409349056612626, 31.92869341949465 ] } },
{ "type": "Feature", "properties": { "内容": "介護のアシスト【福祉用具貸与】宮崎県宮崎市清武町岡1丁目28番地11高野ⅢHAYATE　1F", "url": "https://www.kaigokensaku.mhlw.go.jp/45/index.php?action_kouhyou_detail_004_kani=true&JigyosyoCd=4570109134-00&ServiceCd=170&Type=search", "url2": "https://mom-miyazaki.com/" }, "geometry": { "type": "Point", "coordinates": [ 131.3894913, 31.8488072 ] } },
{ "type": "Feature", "properties": { "内容": "有限会社グッドライフ【福祉用具貸与】宮崎県宮崎市大字島之内6683番地4", "url": "https://www.kaigokensaku.mhlw.go.jp/45/index.php?action_kouhyou_detail_004_kani=true&JigyosyoCd=4570101255-00&ServiceCd=170&Type=search", "url2": null }, "geometry": { "type": "Point", "coordinates": [ 131.447489499999961, 31.9829751 ] } },
{ "type": "Feature", "properties": { "内容": "株式会社トーフク【福祉用具貸与】宮崎県宮崎市佐土原町東上那珂17588-8", "url": "https://www.kaigokensaku.mhlw.go.jp/45/index.php?action_kouhyou_detail_004_kani=true&JigyosyoCd=4571500448-00&ServiceCd=170&Type=search", "url2": "http://tofuku-g.jp/" }, "geometry": { "type": "Point", "coordinates": [ 131.424332, 32.0400943 ] } },
{ "type": "Feature", "properties": { "内容": "株式会社エイド宮崎【福祉用具貸与】宮崎県宮崎市佐土原町下田島12286-1", "url": "https://www.kaigokensaku.mhlw.go.jp/45/index.php?action_kouhyou_detail_004_kani=true&JigyosyoCd=4571500323-00&ServiceCd=170&Type=search", "url2": "http://www.eido.co.jp" }, "geometry": { "type": "Point", "coordinates": [ 131.469693, 32.0351271 ] } },
{ "type": "Feature", "properties": { "内容": "有限会社みずほヘルス・ケア【福祉用具貸与】宮崎県宮崎市大塚町横立1403番地65", "url": "https://www.kaigokensaku.mhlw.go.jp/45/index.php?action_kouhyou_detail_004_kani=true&JigyosyoCd=4570100802-00&ServiceCd=170&Type=search", "url2": null }, "geometry": { "type": "Point", "coordinates": [ 131.390210942010185, 31.922898342844359 ] } },
{ "type": "Feature", "properties": { "内容": "ひむかライフサポート【福祉用具貸与】宮崎県宮崎市福島町２丁目４２番地1", "url": "https://www.kaigokensaku.mhlw.go.jp/45/index.php?action_kouhyou_detail_004_kani=true&JigyosyoCd=4570109464-00&ServiceCd=170&Type=search", "url2": "https//:himuka-life.com" }, "geometry": { "type": "Point", "coordinates": [ 131.408207845368963, 31.906440662754317 ] } },
{ "type": "Feature", "properties": { "内容": "株式会社宮崎ヒューマンサービス宮崎営業所【福祉用具貸与】宮崎県宮崎市清武町加納甲1927-1", "url": "https://www.kaigokensaku.mhlw.go.jp/45/index.php?action_kouhyou_detail_004_kani=true&JigyosyoCd=4570109159-00&ServiceCd=170&Type=search", "url2": "http://www.miyazaki-human.co.jp" }, "geometry": { "type": "Point", "coordinates": [ 131.40490030460316, 31.874746447822904 ] } },
{ "type": "Feature", "properties": { "内容": "株式会社池部医療器【福祉用具貸与】宮崎県宮崎市祇園3丁目26番地", "url": "https://www.kaigokensaku.mhlw.go.jp/45/index.php?action_kouhyou_detail_004_kani=true&JigyosyoCd=4570100810-00&ServiceCd=170&Type=search", "url2": "http://www.ikebeiryoki.co.jp" }, "geometry": { "type": "Point", "coordinates": [ 131.410069, 31.9336174 ] } },
{ "type": "Feature", "properties": { "内容": "ライジングケア株式会社【福祉用具貸与】宮崎県宮崎市松橋丁目7番7号コーポスイートピーⅡ　101号", "url": "https://www.kaigokensaku.mhlw.go.jp/45/index.php?action_kouhyou_detail_004_kani=true&JigyosyoCd=4570106593-00&ServiceCd=170&Type=search", "url2": null }, "geometry": { "type": "Point", "coordinates": [ 131.416830200000049, 31.9108814 ] } },
{ "type": "Feature", "properties": { "内容": "テラスケアサポート【福祉用具貸与】宮崎市恒久南１丁目8-6", "url": "https://www.kaigokensaku.mhlw.go.jp/45/index.php?action_kouhyou_detail_004_kani=true&JigyosyoCd=4570109670-00&ServiceCd=170&Type=search", "url2": null }, "geometry": { "type": "Point", "coordinates": [ 131.422461700000014, 31.8926902 ] } },
{ "type": "Feature", "properties": { "内容": "株式会社エミング【福祉用具貸与】宮崎県宮崎市小松1052", "url": "https://www.kaigokensaku.mhlw.go.jp/45/index.php?action_kouhyou_detail_004_kani=true&JigyosyoCd=4570101123-00&ServiceCd=170&Type=search", "url2": "http://ming-miyazaki.com/" }, "geometry": { "type": "Point", "coordinates": [ 131.403549172002556, 31.937299370496252 ] } },
{ "type": "Feature", "properties": { "内容": "株式会社　ミ　ナ　ヨ　シ【福祉用具貸与】宮崎県都城市上水流町1663－５", "url": "https://www.kaigokensaku.mhlw.go.jp/45/index.php?action_kouhyou_detail_004_kani=true&JigyosyoCd=4570200404-00&ServiceCd=170&Type=search", "url2": "http://care-net.biz/45/kazenomori/" }, "geometry": { "type": "Point", "coordinates": [ 131.097483199999942, 31.8097916 ] } },
{ "type": "Feature", "properties": { "内容": "福祉用具事業所　TOMONI【福祉用具貸与】宮崎県都城市上水流町1663番地の5", "url": "https://www.kaigokensaku.mhlw.go.jp/45/index.php?action_kouhyou_detail_004_kani=true&JigyosyoCd=4570204950-00&ServiceCd=170&Type=search", "url2": null }, "geometry": { "type": "Point", "coordinates": [ 131.0974539, 31.8097773 ] } },
{ "type": "Feature", "properties": { "内容": "エスティー・ケアサービス【福祉用具貸与】宮崎県都城市一万城町75-1-1", "url": "https://www.kaigokensaku.mhlw.go.jp/45/index.php?action_kouhyou_detail_004_kani=true&JigyosyoCd=4570200651-00&ServiceCd=170&Type=search", "url2": null }, "geometry": { "type": "Point", "coordinates": [ 131.095735900000022, 31.723602 ] } },
{ "type": "Feature", "properties": { "内容": "株式会社カクイックスウィング都城営業所【福祉用具貸与】宮崎県都城市上川東3-3-18", "url": "https://www.kaigokensaku.mhlw.go.jp/45/index.php?action_kouhyou_detail_004_kani=true&JigyosyoCd=4570200735-00&ServiceCd=170&Type=search", "url2": "http://www.kakuix-wing.com" }, "geometry": { "type": "Point", "coordinates": [ 131.074622800000043, 31.7429413 ] } },
{ "type": "Feature", "properties": { "内容": "株式会社トータル・ケアサービス【福祉用具貸与】宮崎県都城市山之口町富吉２９０７番地", "url": "https://www.kaigokensaku.mhlw.go.jp/45/index.php?action_kouhyou_detail_004_kani=true&JigyosyoCd=4570200966-00&ServiceCd=170&Type=search", "url2": "http://www.totalcareservice.info/" }, "geometry": { "type": "Point", "coordinates": [ 131.141341260188256, 31.777531748944664 ] } },
{ "type": "Feature", "properties": { "内容": "マキタ福祉用具レンタル事業所【福祉用具貸与】宮崎県都城市鷹尾1丁目27街区11-2号", "url": "https://www.kaigokensaku.mhlw.go.jp/45/index.php?action_kouhyou_detail_004_kani=true&JigyosyoCd=4570200511-00&ServiceCd=170&Type=search", "url2": "http://makitagishi.com/" }, "geometry": { "type": "Point", "coordinates": [ 131.038893, 31.7255503 ] } },
{ "type": "Feature", "properties": { "内容": "福祉用具　りん【福祉用具貸与】宮崎県都城市鷹尾2丁目9-1", "url": "https://www.kaigokensaku.mhlw.go.jp/45/index.php?action_kouhyou_detail_004_kani=true&JigyosyoCd=4570204687-00&ServiceCd=170&Type=search", "url2": "https://sites.google.com/view/treehouse-rin" }, "geometry": { "type": "Point", "coordinates": [ 131.043912, 31.7211771 ] } },
{ "type": "Feature", "properties": { "内容": "ライフケアサービス【福祉用具貸与】宮崎県都城市安久町5662番地3", "url": "https://www.kaigokensaku.mhlw.go.jp/45/index.php?action_kouhyou_detail_004_kani=true&JigyosyoCd=4570204885-00&ServiceCd=170&Type=search", "url2": null }, "geometry": { "type": "Point", "coordinates": [ 131.076937990213054, 31.695475865635981 ] } },
{ "type": "Feature", "properties": { "内容": "豊の里補助器具センター福祉用具貸与事業所【福祉用具貸与】宮崎県都城市鷹尾5丁目4318番地1", "url": "https://www.kaigokensaku.mhlw.go.jp/45/index.php?action_kouhyou_detail_004_kani=true&JigyosyoCd=4570201089-00&ServiceCd=170&Type=search", "url2": null }, "geometry": { "type": "Point", "coordinates": [ 131.037926500000026, 31.7254503 ] } },
{ "type": "Feature", "properties": { "内容": "ウエルライフたか尾福祉用具貸与事業所【福祉用具貸与】宮崎県都城市南鷹尾町11街区4号", "url": "https://www.kaigokensaku.mhlw.go.jp/45/index.php?action_kouhyou_detail_004_kani=true&JigyosyoCd=4570201162-00&ServiceCd=170&Type=search", "url2": "http://www.mwg.or.jp" }, "geometry": { "type": "Point", "coordinates": [ 131.043981407720054, 31.719407346887863 ] } },
{ "type": "Feature", "properties": { "内容": "有限会社ハートライフ　ノア【福祉用具貸与】宮崎県都城市八幡町10街区11号", "url": "https://www.kaigokensaku.mhlw.go.jp/45/index.php?action_kouhyou_detail_004_kani=true&JigyosyoCd=4570203507-00&ServiceCd=170&Type=search", "url2": null }, "geometry": { "type": "Point", "coordinates": [ 131.058413913252707, 31.720076958391459 ] } },
{ "type": "Feature", "properties": { "内容": "株式会社ウエルライフ本店【福祉用具貸与】宮崎県都城市花繰町11街区5号", "url": "https://www.kaigokensaku.mhlw.go.jp/45/index.php?action_kouhyou_detail_004_kani=true&JigyosyoCd=4570200396-00&ServiceCd=170&Type=search", "url2": null }, "geometry": { "type": "Point", "coordinates": [ 131.0835227, 31.7260876 ] } },
{ "type": "Feature", "properties": { "内容": "福祉用具貸与事業所　向日葵【福祉用具貸与】宮崎県都城市南鷹尾町15街区15号", "url": "https://www.kaigokensaku.mhlw.go.jp/45/index.php?action_kouhyou_detail_004_kani=true&JigyosyoCd=4571700592-00&ServiceCd=170&Type=search", "url2": "https://yu-himawari.net/" }, "geometry": { "type": "Point", "coordinates": [ 131.036974099999952, 31.7181122 ] } },
{ "type": "Feature", "properties": { "内容": "株式会社宮崎ヒューマンサービス本社【福祉用具貸与】宮崎県都城市平江町４３号６番地１", "url": "https://www.kaigokensaku.mhlw.go.jp/45/index.php?action_kouhyou_detail_004_kani=true&JigyosyoCd=4570204422-00&ServiceCd=170&Type=search", "url2": "http://www.miyazaki-human.co.jp" }, "geometry": { "type": "Point", "coordinates": [ 131.06497909999996, 31.7359032 ] } },
{ "type": "Feature", "properties": { "内容": "e-すまいる【福祉用具貸与】宮崎県都城市南鷹尾町22街区7号", "url": "https://www.kaigokensaku.mhlw.go.jp/45/index.php?action_kouhyou_detail_004_kani=true&JigyosyoCd=4570203432-00&ServiceCd=170&Type=search", "url2": null }, "geometry": { "type": "Point", "coordinates": [ 131.039489181475801, 31.718732312383761 ] } },
{ "type": "Feature", "properties": { "内容": "ダスキンヘルスレント都城ステーション【福祉用具貸与】宮崎県都城市上東町19-3", "url": "https://www.kaigokensaku.mhlw.go.jp/45/index.php?action_kouhyou_detail_004_kani=true&JigyosyoCd=4570201501-00&ServiceCd=170&Type=search", "url2": "https://healthrent.duskin.jp/" }, "geometry": { "type": "Point", "coordinates": [ 131.078527386508199, 31.72413955503734 ] } },
{ "type": "Feature", "properties": { "内容": "株式会社ライフサポート宮崎【福祉用具貸与】宮崎県都城市早鈴町9街区6号", "url": "https://www.kaigokensaku.mhlw.go.jp/45/index.php?action_kouhyou_detail_004_kani=true&JigyosyoCd=4570202723-00&ServiceCd=170&Type=search", "url2": null }, "geometry": { "type": "Point", "coordinates": [ 131.0708098, 31.7160909 ] } },
{ "type": "Feature", "properties": { "内容": "アンドー【福祉用具貸与】宮崎県延岡市卸本町１２番１号", "url": "https://www.kaigokensaku.mhlw.go.jp/45/index.php?action_kouhyou_detail_004_kani=true&JigyosyoCd=4570301657-00&ServiceCd=170&Type=search", "url2": null }, "geometry": { "type": "Point", "coordinates": [ 131.683980799999972, 32.5766792 ] } },
{ "type": "Feature", "properties": { "内容": "株式会社カクイックスウィング延岡営業所【福祉用具貸与】宮崎県延岡市大貫町2-2986-1", "url": "https://www.kaigokensaku.mhlw.go.jp/45/index.php?action_kouhyou_detail_004_kani=true&JigyosyoCd=4570300287-00&ServiceCd=170&Type=search", "url2": "http://www.kakuix-wing.com" }, "geometry": { "type": "Point", "coordinates": [ 131.654179800000065, 32.578222 ] } },
{ "type": "Feature", "properties": { "内容": "九州　Teco【福祉用具貸与】宮崎県延岡市安賀多町２丁目６番４号宮永ビル１階", "url": "https://www.kaigokensaku.mhlw.go.jp/45/index.php?action_kouhyou_detail_004_kani=true&JigyosyoCd=4570302853-00&ServiceCd=170&Type=search", "url2": null }, "geometry": { "type": "Point", "coordinates": [ 131.66902086997527, 32.575404094940303 ] } },
{ "type": "Feature", "properties": { "内容": "有限会社サンシャインコマース「サンヘルプ」【福祉用具貸与】宮崎県延岡市南一ヶ岡9丁目5番9号", "url": "https://www.kaigokensaku.mhlw.go.jp/45/index.php?action_kouhyou_detail_004_kani=true&JigyosyoCd=4570300899-00&ServiceCd=170&Type=search", "url2": null }, "geometry": { "type": "Point", "coordinates": [ 131.679284711079845, 32.516433160438254 ] } },
{ "type": "Feature", "properties": { "内容": "株式会社トーフク延岡【福祉用具貸与】宮崎県延岡市大貫町2-1298", "url": "https://www.kaigokensaku.mhlw.go.jp/45/index.php?action_kouhyou_detail_004_kani=true&JigyosyoCd=4570300857-00&ServiceCd=170&Type=search", "url2": null }, "geometry": { "type": "Point", "coordinates": [ 131.656724100000019, 32.5774805 ] } },
{ "type": "Feature", "properties": { "内容": "株式会社宮崎ヒューマンサービス延岡営業所【福祉用具貸与】宮崎県延岡市緑ヶ丘2丁目14-33", "url": "https://www.kaigokensaku.mhlw.go.jp/45/index.php?action_kouhyou_detail_004_kani=true&JigyosyoCd=4570302747-00&ServiceCd=170&Type=search", "url2": "http://www.miyazaki-human.co.jp" }, "geometry": { "type": "Point", "coordinates": [ 131.6835959, 32.555224 ] } },
{ "type": "Feature", "properties": { "内容": "株式会社サンスマイル　延岡事業所【福祉用具貸与】宮崎県延岡市浜町408番地２", "url": "https://www.kaigokensaku.mhlw.go.jp/45/index.php?action_kouhyou_detail_004_kani=true&JigyosyoCd=4570300832-00&ServiceCd=170&Type=search", "url2": null }, "geometry": { "type": "Point", "coordinates": [ 131.679604299999937, 32.5546449 ] } },
{ "type": "Feature", "properties": { "内容": "心の家介護サービス【福祉用具貸与】岩崎1丁目7-11", "url": "https://www.kaigokensaku.mhlw.go.jp/45/index.php?action_kouhyou_detail_004_kani=true&JigyosyoCd=4570401002-00&ServiceCd=170&Type=search", "url2": null }, "geometry": { "type": "Point", "coordinates": [ 131.396570957672111, 31.588232991975673 ] } },
{ "type": "Feature", "properties": { "内容": "株式会社宮崎ヒューマンサービス日南営業所【福祉用具貸与】宮崎県日南市木山1丁目1番15号", "url": "https://www.kaigokensaku.mhlw.go.jp/45/index.php?action_kouhyou_detail_004_kani=true&JigyosyoCd=4570401465-00&ServiceCd=170&Type=search", "url2": "http://www.miyazaki-human.co.jp" }, "geometry": { "type": "Point", "coordinates": [ 131.3950522, 31.5900531 ] } },
{ "type": "Feature", "properties": { "内容": "株式会社　カクイックスウィング　小林サテライト【福祉用具貸与】宮崎県小林市細野北八反423-1", "url": "https://www.kaigokensaku.mhlw.go.jp/45/index.php?action_kouhyou_detail_004_kani=true&JigyosyoCd=4570500597-00&ServiceCd=170&Type=search", "url2": "http://www.kakuix-wing.com" }, "geometry": { "type": "Point", "coordinates": [ 130.968796599832103, 31.996139744937604 ] } },
{ "type": "Feature", "properties": { "内容": "株式会社宮崎ヒューマンサービス小林営業所【福祉用具貸与】宮崎県小林市真方273-6", "url": "https://www.kaigokensaku.mhlw.go.jp/45/index.php?action_kouhyou_detail_004_kani=true&JigyosyoCd=4570501074-00&ServiceCd=170&Type=search", "url2": "http://www.miyazaki-human.co.jp" }, "geometry": { "type": "Point", "coordinates": [ 130.978544, 31.998658 ] } },
{ "type": "Feature", "properties": { "内容": "株式会社カクイックスウィング　日向オフィス【福祉用具貸与】宮崎県日向市財光寺沖町62-1", "url": "https://www.kaigokensaku.mhlw.go.jp/45/index.php?action_kouhyou_detail_004_kani=true&JigyosyoCd=4570600926-00&ServiceCd=170&Type=search", "url2": "www.kakuix-wing.com" }, "geometry": { "type": "Point", "coordinates": [ 131.625769107934474, 32.408637564922593 ] } },
{ "type": "Feature", "properties": { "内容": "株式会社スマイルケア日向営業所【福祉用具貸与】宮崎県日向市大字財光寺1444番地", "url": "https://www.kaigokensaku.mhlw.go.jp/45/index.php?action_kouhyou_detail_004_kani=true&JigyosyoCd=4570600231-00&ServiceCd=170&Type=search", "url2": null }, "geometry": { "type": "Point", "coordinates": [ 131.6335957, 32.404485 ] } },
{ "type": "Feature", "properties": { "内容": "株式会社宮崎ヒューマンサービス日向営業所【福祉用具貸与】大字日知屋字玉田16546番の1", "url": "https://www.kaigokensaku.mhlw.go.jp/45/index.php?action_kouhyou_detail_004_kani=true&JigyosyoCd=4570601411-00&ServiceCd=170&Type=search", "url2": "http://www.miyazaki-human.co.jp/" }, "geometry": { "type": "Point", "coordinates": [ 131.644583965152634, 32.42715787165541 ] } },
{ "type": "Feature", "properties": { "内容": "合同会社ココリース【福祉用具貸与】宮崎県西都市大字下三財7454番地", "url": "https://www.kaigokensaku.mhlw.go.jp/45/index.php?action_kouhyou_detail_004_kani=true&JigyosyoCd=4570800799-00&ServiceCd=170&Type=search", "url2": "https://cocco-lease.com/" }, "geometry": { "type": "Point", "coordinates": [ 131.343611590213015, 32.063618670706539 ] } },
{ "type": "Feature", "properties": { "内容": "ユタカホームプランニング【福祉用具貸与】宮崎県えびの市大字永山１１７６－１", "url": "https://www.kaigokensaku.mhlw.go.jp/45/index.php?action_kouhyou_detail_004_kani=true&JigyosyoCd=4570900482-00&ServiceCd=170&Type=search", "url2": null }, "geometry": { "type": "Point", "coordinates": [ 130.811058068088187, 32.046982030642901 ] } },
{ "type": "Feature", "properties": { "内容": "株式会社ライフサポート【福祉用具貸与】宮崎県えびの市大河平4633-43", "url": "https://www.kaigokensaku.mhlw.go.jp/45/index.php?action_kouhyou_detail_004_kani=true&JigyosyoCd=4570900128-00&ServiceCd=170&Type=search", "url2": "https://www.e-lifesupport.com" }, "geometry": { "type": "Point", "coordinates": [ 130.911921200000052, 32.040653 ] } },
{ "type": "Feature", "properties": { "内容": "有限会社ハートライフノア　三股営業所【福祉用具貸与】宮崎県北諸県郡三股町大字長田2880番地", "url": "https://www.kaigokensaku.mhlw.go.jp/45/index.php?action_kouhyou_detail_004_kani=true&JigyosyoCd=4571701087-00&ServiceCd=170&Type=search", "url2": null }, "geometry": { "type": "Point", "coordinates": [ 131.145830661376976, 31.736945593746832 ] } },
{ "type": "Feature", "properties": { "内容": "特定非営利活動法人　霧島敬愛【福祉用具貸与】宮崎県北諸県郡三股町大字樺山3475番地8", "url": "https://www.kaigokensaku.mhlw.go.jp/45/index.php?action_kouhyou_detail_004_kani=true&JigyosyoCd=4571700824-00&ServiceCd=170&Type=search", "url2": null }, "geometry": { "type": "Point", "coordinates": [ 131.12622403058856, 31.73260375214592 ] } },
{ "type": "Feature", "properties": { "内容": "合同会社あんしん介護サービス【福祉用具貸与】宮崎県北諸県郡三股町大字樺山4959番地2", "url": "https://www.kaigokensaku.mhlw.go.jp/45/index.php?action_kouhyou_detail_004_kani=true&JigyosyoCd=4571701186-00&ServiceCd=170&Type=search", "url2": "http://anshinkaigo-servics.com/" }, "geometry": { "type": "Point", "coordinates": [ 131.106243722090142, 31.739018652252089 ] } },
{ "type": "Feature", "properties": { "内容": "株式会社スマイラックス【福祉用具貸与】宮崎県東諸県郡国富町木脇1027-15", "url": "https://www.kaigokensaku.mhlw.go.jp/45/index.php?action_kouhyou_detail_004_kani=true&JigyosyoCd=4571901075-00&ServiceCd=170&Type=search", "url2": null }, "geometry": { "type": "Point", "coordinates": [ 131.358429699999988, 31.9877621 ] } },
{ "type": "Feature", "properties": { "内容": "ダスキンヘルスレント宮崎あやステーション【福祉用具貸与】宮崎県東諸県郡綾町大字南俣440-1", "url": "https://www.kaigokensaku.mhlw.go.jp/45/index.php?action_kouhyou_detail_004_kani=true&JigyosyoCd=4571900598-00&ServiceCd=170&Type=search", "url2": null }, "geometry": { "type": "Point", "coordinates": [ 131.255567700000029, 31.9993271 ] } },
{ "type": "Feature", "properties": { "内容": "有限会社ハーティーやの【福祉用具貸与】宮崎県児湯郡都農町大字川北４７６４番地３", "url": "https://www.kaigokensaku.mhlw.go.jp/45/index.php?action_kouhyou_detail_004_kani=true&JigyosyoCd=4572000463-00&ServiceCd=170&Type=search", "url2": null }, "geometry": { "type": "Point", "coordinates": [ 131.557487700000024, 32.2557318 ] } },
{ "type": "Feature", "properties": { "内容": "株式会社　アリスライフ【福祉用具貸与】東臼杵郡門川町須賀崎5丁目42番地", "url": "https://www.kaigokensaku.mhlw.go.jp/45/index.php?action_kouhyou_detail_004_kani=true&JigyosyoCd=4572101048-00&ServiceCd=170&Type=search", "url2": "http://www.haradagr-dp.co.jp/" }, "geometry": { "type": "Point", "coordinates": [ 131.671720976721218, 32.491188272867142 ] } }
]
}
