{
"type": "FeatureCollection",
"name": "geo_45_特定福祉用具販売",
"crs": { "type": "name", "properties": { "name": "urn:ogc:def:crs:OGC:1.3:CRS84" } },
"features": [
{ "type": "Feature", "properties": { "内容": "合同会社まんてん【特定福祉用具販売】宮崎県宮崎市大字新名爪80番地1コーポヤスモト101号", "url": "https://www.kaigokensaku.mhlw.go.jp/45/index.php?action_kouhyou_detail_004_kani=true&JigyosyoCd=4570109902-00&ServiceCd=410&Type=search", "url2": null }, "geometry": { "type": "Point", "coordinates": [ 131.4392372, 31.9713111 ] } },
{ "type": "Feature", "properties": { "内容": "株式会社オンリーワンケア【特定福祉用具販売】宮崎県宮崎市霧島２丁目128番地霧島ビル105号", "url": "https://www.kaigokensaku.mhlw.go.jp/45/index.php?action_kouhyou_detail_004_kani=true&JigyosyoCd=4570109217-00&ServiceCd=410&Type=search", "url2": null }, "geometry": { "type": "Point", "coordinates": [ 131.41610270000001, 31.929541 ] } },
{ "type": "Feature", "properties": { "内容": "セントケアりまいん宮崎【特定福祉用具販売】祇園2丁目23-2", "url": "https://www.kaigokensaku.mhlw.go.jp/45/index.php?action_kouhyou_detail_004_kani=true&JigyosyoCd=4570110066-00&ServiceCd=410&Type=search", "url2": "http://www.saint-care.com/" }, "geometry": { "type": "Point", "coordinates": [ 132.4663966, 34.4423724 ] } },
{ "type": "Feature", "properties": { "内容": "ライジングケア株式会社【特定福祉用具販売】宮崎市松橋1丁目7番7号コーポスイートピーⅡ　101号", "url": "https://www.kaigokensaku.mhlw.go.jp/45/index.php?action_kouhyou_detail_004_kani=true&JigyosyoCd=4570106601-00&ServiceCd=410&Type=search", "url2": null }, "geometry": { "type": "Point", "coordinates": [ 131.4185023, 31.909215 ] } },
{ "type": "Feature", "properties": { "内容": "ポラリス合同会社【特定福祉用具販売】宮崎県宮崎市田野町乙7506番地1C棟", "url": "https://www.kaigokensaku.mhlw.go.jp/45/index.php?action_kouhyou_detail_004_kani=true&JigyosyoCd=4570110447-00&ServiceCd=410&Type=search", "url2": null }, "geometry": { "type": "Point", "coordinates": [ 131.293336399999987, 31.8353919 ] } },
{ "type": "Feature", "properties": { "内容": "かぶしきがいしゃみらいと【特定福祉用具販売】宮崎県宮崎市恒久2丁目18番地11長友コーポ102号室", "url": "https://www.kaigokensaku.mhlw.go.jp/45/index.php?action_kouhyou_detail_004_kani=true&JigyosyoCd=4570110561-00&ServiceCd=410&Type=search", "url2": null }, "geometry": { "type": "Point", "coordinates": [ 131.426815800000014, 31.8932856 ] } },
{ "type": "Feature", "properties": { "内容": "株式会社カクイックスウィング宮崎営業所【特定福祉用具販売】宮崎県宮崎市吉村町久保田甲906-1", "url": "https://www.kaigokensaku.mhlw.go.jp/45/index.php?action_kouhyou_detail_004_kani=true&JigyosyoCd=4570100828-00&ServiceCd=410&Type=search", "url2": "http://www.kakuix-wing.com" }, "geometry": { "type": "Point", "coordinates": [ 131.441147399999977, 31.9229416 ] } },
{ "type": "Feature", "properties": { "内容": "株式会社ケアサポートフェニックス【特定福祉用具販売】清武町新町1丁目1番地11", "url": "https://www.kaigokensaku.mhlw.go.jp/45/index.php?action_kouhyou_detail_004_kani=true&JigyosyoCd=4570106171-00&ServiceCd=410&Type=search", "url2": "http://caresupport-p.com" }, "geometry": { "type": "Point", "coordinates": [ 131.3949054, 31.8573339 ] } },
{ "type": "Feature", "properties": { "内容": "株式会社フロンティア【特定福祉用具販売】大字芳士今出２０４９番地１", "url": "https://www.kaigokensaku.mhlw.go.jp/45/index.php?action_kouhyou_detail_004_kani=true&JigyosyoCd=4570109829-00&ServiceCd=410&Type=search", "url2": "https://www.frontier-ph.com/" }, "geometry": { "type": "Point", "coordinates": [ 131.4385552, 31.9626751 ] } },
{ "type": "Feature", "properties": { "内容": "有限会社グッドライフ【特定福祉用具販売】宮崎県宮崎市大字島之内6683番地4", "url": "https://www.kaigokensaku.mhlw.go.jp/45/index.php?action_kouhyou_detail_004_kani=true&JigyosyoCd=4570101255-00&ServiceCd=410&Type=search", "url2": null }, "geometry": { "type": "Point", "coordinates": [ 131.447489499999961, 31.9829751 ] } },
{ "type": "Feature", "properties": { "内容": "株式会社エイド宮崎【特定福祉用具販売】佐土原町下田島12286-1", "url": "https://www.kaigokensaku.mhlw.go.jp/45/index.php?action_kouhyou_detail_004_kani=true&JigyosyoCd=4571500323-00&ServiceCd=410&Type=search", "url2": "http://www.eido.co.jp" }, "geometry": { "type": "Point", "coordinates": [ 131.4696437, 32.0352035 ] } },
{ "type": "Feature", "properties": { "内容": "株式会社宮崎ヒューマンサービス宮崎営業所【特定福祉用具販売】宮崎県宮崎市清武町加納甲1927-1", "url": "https://www.kaigokensaku.mhlw.go.jp/45/index.php?action_kouhyou_detail_004_kani=true&JigyosyoCd=4570109159-00&ServiceCd=410&Type=search", "url2": "http://www.miyazaki-human.co.jp" }, "geometry": { "type": "Point", "coordinates": [ 131.404888631308552, 31.874883499792329 ] } },
{ "type": "Feature", "properties": { "内容": "株式会社池部医療器【特定福祉用具販売】宮崎県宮崎市祇園3丁目26番地", "url": "https://www.kaigokensaku.mhlw.go.jp/45/index.php?action_kouhyou_detail_004_kani=true&JigyosyoCd=4570100810-00&ServiceCd=410&Type=search", "url2": "http://www.ikebeiryoki.co.jp" }, "geometry": { "type": "Point", "coordinates": [ 131.410069, 31.9336174 ] } },
{ "type": "Feature", "properties": { "内容": "株式会社エミング【特定福祉用具販売】宮崎県宮崎市小松1052", "url": "https://www.kaigokensaku.mhlw.go.jp/45/index.php?action_kouhyou_detail_004_kani=true&JigyosyoCd=4570101123-00&ServiceCd=410&Type=search", "url2": "http://ming-miyazaki.com/" }, "geometry": { "type": "Point", "coordinates": [ 131.403577334041103, 31.937321448026303 ] } },
{ "type": "Feature", "properties": { "内容": "マキタ福祉用具レンタル事業所【特定福祉用具販売】宮崎県都城市鷹尾1丁目27街区11-2号", "url": "https://www.kaigokensaku.mhlw.go.jp/45/index.php?action_kouhyou_detail_004_kani=true&JigyosyoCd=4570200511-00&ServiceCd=410&Type=search", "url2": null }, "geometry": { "type": "Point", "coordinates": [ 131.038893, 31.7255503 ] } },
{ "type": "Feature", "properties": { "内容": "エスティー・ケアサービス【特定福祉用具販売】宮崎県都城市一万城町75-1-1", "url": "https://www.kaigokensaku.mhlw.go.jp/45/index.php?action_kouhyou_detail_004_kani=true&JigyosyoCd=4570200651-00&ServiceCd=410&Type=search", "url2": null }, "geometry": { "type": "Point", "coordinates": [ 131.095735900000022, 31.723602 ] } },
{ "type": "Feature", "properties": { "内容": "株式会社カクイックスウィング都城営業所【特定福祉用具販売】宮崎県都城市上川東3-3-18", "url": "https://www.kaigokensaku.mhlw.go.jp/45/index.php?action_kouhyou_detail_004_kani=true&JigyosyoCd=4570200735-00&ServiceCd=410&Type=search", "url2": "http://www.kakui-wingx.com" }, "geometry": { "type": "Point", "coordinates": [ 131.074622800000043, 31.7429413 ] } },
{ "type": "Feature", "properties": { "内容": "福祉用具　りん【特定福祉用具販売】宮崎県都城市鷹尾2丁目9-1", "url": "https://www.kaigokensaku.mhlw.go.jp/45/index.php?action_kouhyou_detail_004_kani=true&JigyosyoCd=4570204687-00&ServiceCd=410&Type=search", "url2": "http://hp.kaipoke.biz/n90/" }, "geometry": { "type": "Point", "coordinates": [ 131.0438986, 31.7211362 ] } },
{ "type": "Feature", "properties": { "内容": "株式会社ウエルライフ本店【特定福祉用具販売】宮崎県都城市花繰町11街区5号", "url": "https://www.kaigokensaku.mhlw.go.jp/45/index.php?action_kouhyou_detail_004_kani=true&JigyosyoCd=4570200396-00&ServiceCd=410&Type=search", "url2": null }, "geometry": { "type": "Point", "coordinates": [ 131.0835227, 31.7260876 ] } },
{ "type": "Feature", "properties": { "内容": "福祉用具貸与事業所向日葵【特定福祉用具販売】宮崎県都城市南鷹尾町15街区15号", "url": "https://www.kaigokensaku.mhlw.go.jp/45/index.php?action_kouhyou_detail_004_kani=true&JigyosyoCd=4571700592-00&ServiceCd=410&Type=search", "url2": "https://yu-himawari.net/" }, "geometry": { "type": "Point", "coordinates": [ 131.036974099999952, 31.7181122 ] } },
{ "type": "Feature", "properties": { "内容": "株式会社宮崎ヒューマンサービス本社【特定福祉用具販売】宮崎県都城市平江町４３号６番地１", "url": "https://www.kaigokensaku.mhlw.go.jp/45/index.php?action_kouhyou_detail_004_kani=true&JigyosyoCd=4570204422-00&ServiceCd=410&Type=search", "url2": "http://www.miyazaki-human.co.jp" }, "geometry": { "type": "Point", "coordinates": [ 131.06497909999996, 31.7359032 ] } },
{ "type": "Feature", "properties": { "内容": "e-すまいる【特定福祉用具販売】宮崎県都城市南鷹尾町22街区7号", "url": "https://www.kaigokensaku.mhlw.go.jp/45/index.php?action_kouhyou_detail_004_kani=true&JigyosyoCd=4570203432-00&ServiceCd=410&Type=search", "url2": null }, "geometry": { "type": "Point", "coordinates": [ 131.039499910311861, 31.718734593976393 ] } },
{ "type": "Feature", "properties": { "内容": "ダスキンヘルスレント都城ステーション【特定福祉用具販売】宮崎県都城市上東町19-3", "url": "https://www.kaigokensaku.mhlw.go.jp/45/index.php?action_kouhyou_detail_004_kani=true&JigyosyoCd=4570201501-00&ServiceCd=410&Type=search", "url2": "https://healthrent.duskin.jp/" }, "geometry": { "type": "Point", "coordinates": [ 131.07849520000002, 31.7240848 ] } },
{ "type": "Feature", "properties": { "内容": "株式会社ライフサポート宮崎【特定福祉用具販売】宮崎県都城市早鈴町9街区6号", "url": "https://www.kaigokensaku.mhlw.go.jp/45/index.php?action_kouhyou_detail_004_kani=true&JigyosyoCd=4570202723-00&ServiceCd=410&Type=search", "url2": null }, "geometry": { "type": "Point", "coordinates": [ 131.0708098, 31.7160909 ] } },
{ "type": "Feature", "properties": { "内容": "株式会社カクイックスウィング延岡営業所【特定福祉用具販売】宮崎県延岡市大貫町2-2986-1", "url": "https://www.kaigokensaku.mhlw.go.jp/45/index.php?action_kouhyou_detail_004_kani=true&JigyosyoCd=4570300287-00&ServiceCd=410&Type=search", "url2": "http://www.kakuix-wing.com" }, "geometry": { "type": "Point", "coordinates": [ 131.654179800000065, 32.578222 ] } },
{ "type": "Feature", "properties": { "内容": "株式会社トーフク　延岡【特定福祉用具販売】宮崎県延岡市大貫町2-1298", "url": "https://www.kaigokensaku.mhlw.go.jp/45/index.php?action_kouhyou_detail_004_kani=true&JigyosyoCd=4570300857-00&ServiceCd=410&Type=search", "url2": null }, "geometry": { "type": "Point", "coordinates": [ 131.656724100000019, 32.5774805 ] } },
{ "type": "Feature", "properties": { "内容": "株式会社宮崎ヒューマンサービス延岡営業所【特定福祉用具販売】宮崎県延岡市緑ヶ丘2丁目14-33", "url": "https://www.kaigokensaku.mhlw.go.jp/45/index.php?action_kouhyou_detail_004_kani=true&JigyosyoCd=4570302747-00&ServiceCd=410&Type=search", "url2": "http://www.miyazaki-human.co.jp" }, "geometry": { "type": "Point", "coordinates": [ 131.6835959, 32.555224 ] } },
{ "type": "Feature", "properties": { "内容": "株式会社宮崎ヒューマンサービス日南営業所【特定福祉用具販売】宮崎県日南市木山1丁目1番1号", "url": "https://www.kaigokensaku.mhlw.go.jp/45/index.php?action_kouhyou_detail_004_kani=true&JigyosyoCd=4570401465-00&ServiceCd=410&Type=search", "url2": "http://www.miyazaki-human.co.jp" }, "geometry": { "type": "Point", "coordinates": [ 131.394465200000013, 31.5899521 ] } },
{ "type": "Feature", "properties": { "内容": "株式会社　カクイックスウィング　小林サテライト【特定福祉用具販売】宮崎県小林市細野北八反423-1", "url": "https://www.kaigokensaku.mhlw.go.jp/45/index.php?action_kouhyou_detail_004_kani=true&JigyosyoCd=4570500597-00&ServiceCd=410&Type=search", "url2": "http://www.kakuix-wing.com" }, "geometry": { "type": "Point", "coordinates": [ 130.979212100000041, 31.9923318 ] } },
{ "type": "Feature", "properties": { "内容": "株式会社宮崎ヒューマンサービス小林営業所【特定福祉用具販売】宮崎県小林市真方273-6", "url": "https://www.kaigokensaku.mhlw.go.jp/45/index.php?action_kouhyou_detail_004_kani=true&JigyosyoCd=4570501074-00&ServiceCd=410&Type=search", "url2": "htpp://miyazaki-human.co.jp" }, "geometry": { "type": "Point", "coordinates": [ 130.978544, 31.998658 ] } },
{ "type": "Feature", "properties": { "内容": "株式会社スマイルケア日向営業所【特定福祉用具販売】宮崎県日向市大字財光寺1444番地", "url": "https://www.kaigokensaku.mhlw.go.jp/45/index.php?action_kouhyou_detail_004_kani=true&JigyosyoCd=4570600231-00&ServiceCd=410&Type=search", "url2": null }, "geometry": { "type": "Point", "coordinates": [ 131.6335957, 32.404485 ] } },
{ "type": "Feature", "properties": { "内容": "株式会社カクイックスウィング　日向オフィス【特定福祉用具販売】宮崎県日向市財光寺沖町62-1", "url": "https://www.kaigokensaku.mhlw.go.jp/45/index.php?action_kouhyou_detail_004_kani=true&JigyosyoCd=4570600926-00&ServiceCd=410&Type=search", "url2": "www.kakuix-wing.com" }, "geometry": { "type": "Point", "coordinates": [ 131.625683277245997, 32.408628507132789 ] } },
{ "type": "Feature", "properties": { "内容": "株式会社宮崎ヒューマンサービス日向営業所【特定福祉用具販売】大字日知屋字玉田16546番の1", "url": "https://www.kaigokensaku.mhlw.go.jp/45/index.php?action_kouhyou_detail_004_kani=true&JigyosyoCd=4570601411-00&ServiceCd=410&Type=search", "url2": "http://www.miyazaki-human.co.jp/" }, "geometry": { "type": "Point", "coordinates": [ 131.644573806310348, 32.427198535681313 ] } },
{ "type": "Feature", "properties": { "内容": "株式会社ライフサポート【特定福祉用具販売】宮崎県えびの市大河平4633-43", "url": "https://www.kaigokensaku.mhlw.go.jp/45/index.php?action_kouhyou_detail_004_kani=true&JigyosyoCd=4570900128-00&ServiceCd=410&Type=search", "url2": "e-lifesupport.com" }, "geometry": { "type": "Point", "coordinates": [ 130.911921200000052, 32.040653 ] } },
{ "type": "Feature", "properties": { "内容": "合同会社あんしん介護サービス【特定福祉用具販売】宮崎県北諸県郡三股町大字樺山4959番地2", "url": "https://www.kaigokensaku.mhlw.go.jp/45/index.php?action_kouhyou_detail_004_kani=true&JigyosyoCd=4571701186-00&ServiceCd=410&Type=search", "url2": "http://anshinkaigo-service.com/" }, "geometry": { "type": "Point", "coordinates": [ 131.106254450926201, 31.739027776623139 ] } },
{ "type": "Feature", "properties": { "内容": "株式会社スマイラックス【特定福祉用具販売】宮崎県東諸県郡大字木脇1027-15", "url": "https://www.kaigokensaku.mhlw.go.jp/45/index.php?action_kouhyou_detail_004_kani=true&JigyosyoCd=4571901075-00&ServiceCd=410&Type=search", "url2": "https://www.smailax.com/" }, "geometry": { "type": "Point", "coordinates": [ 131.358429699999988, 31.9877621 ] } },
{ "type": "Feature", "properties": { "内容": "株式会社アリスライフ【特定福祉用具販売】宮崎県東臼杵郡門川町須賀崎5丁目42番地", "url": "https://www.kaigokensaku.mhlw.go.jp/45/index.php?action_kouhyou_detail_004_kani=true&JigyosyoCd=4572101030-00&ServiceCd=410&Type=search", "url2": "http://haradagr-dp.co.jp" }, "geometry": { "type": "Point", "coordinates": [ 131.671764200000013, 32.4911446 ] } }
]
}
