{
"type": "FeatureCollection",
"name": "geo_45_4",
"crs": { "type": "name", "properties": { "name": "urn:ogc:def:crs:OGC:1.3:CRS84" } },
"features": [
{ "type": "Feature", "properties": { "ID": 4544450100330, "正式名称": "助産院だいだい", "機関区分": 4, "都道府県コード": 45, "市区町村コード": 382, "所在地": "宮崎県東諸県郡国富町本庄４１５４－２", "緯度": 31.986471, "経度": 131.3281, "url": "https://www.iryou.teikyouseido.mhlw.go.jp/znk-web/juminkanja/S2430/initialize?prefCd=45&kikanCd=4450100330&kikanKbn=4", "url2": null, "内容": "助産院だいだい【4:助産院】宮崎県東諸県郡国富町本庄４１５４－２" }, "geometry": { "type": "Point", "coordinates": [ 131.3281, 31.986471 ] } },
{ "type": "Feature", "properties": { "ID": 4544450200230, "正式名称": "上田助産院", "機関区分": 4, "都道府県コード": 45, "市区町村コード": 202, "所在地": "宮崎県都城市南鷹尾町４２ー１８", "緯度": 31.721848, "経度": 131.03881, "url": "https://www.iryou.teikyouseido.mhlw.go.jp/znk-web/juminkanja/S2430/initialize?prefCd=45&kikanCd=4450200230&kikanKbn=4", "url2": null, "内容": "上田助産院【4:助産院】宮崎県都城市南鷹尾町４２ー１８" }, "geometry": { "type": "Point", "coordinates": [ 131.03881, 31.721848 ] } },
{ "type": "Feature", "properties": { "ID": 4544450200650, "正式名称": "ほのか助産院", "機関区分": 4, "都道府県コード": 45, "市区町村コード": 202, "所在地": "宮崎県都城市乙房町１５８８番地１", "緯度": 31.776919, "経度": 131.090248, "url": "https://www.iryou.teikyouseido.mhlw.go.jp/znk-web/juminkanja/S2430/initialize?prefCd=45&kikanCd=4450200650&kikanKbn=4", "url2": "https://honokajo.com", "内容": "ほのか助産院【4:助産院】宮崎県都城市乙房町１５８８番地１" }, "geometry": { "type": "Point", "coordinates": [ 131.090248, 31.776919 ] } },
{ "type": "Feature", "properties": { "ID": 4544450200810, "正式名称": "テルてる助産院", "機関区分": 4, "都道府県コード": 45, "市区町村コード": 202, "所在地": "宮崎県都城市南横市町２１２１－１", "緯度": 31.738151, "経度": 131.029649, "url": "https://www.iryou.teikyouseido.mhlw.go.jp/znk-web/juminkanja/S2430/initialize?prefCd=45&kikanCd=4450200810&kikanKbn=4", "url2": null, "内容": "テルてる助産院【4:助産院】宮崎県都城市南横市町２１２１－１" }, "geometry": { "type": "Point", "coordinates": [ 131.029649, 31.738151 ] } },
{ "type": "Feature", "properties": { "ID": 4544450200940, "正式名称": "みまた助産院", "機関区分": 4, "都道府県コード": 45, "市区町村コード": 341, "所在地": "宮崎県北諸県郡三股町新馬場２５－３", "緯度": 31.738153, "経度": 131.111016, "url": "https://www.iryou.teikyouseido.mhlw.go.jp/znk-web/juminkanja/S2430/initialize?prefCd=45&kikanCd=4450200940&kikanKbn=4", "url2": null, "内容": "みまた助産院【4:助産院】宮崎県北諸県郡三股町新馬場２５－３" }, "geometry": { "type": "Point", "coordinates": [ 131.111016, 31.738153 ] } },
{ "type": "Feature", "properties": { "ID": 4544450201080, "正式名称": "ままこ助産院", "機関区分": 4, "都道府県コード": 45, "市区町村コード": 341, "所在地": "宮崎県北諸県郡三股町五本松２０ー２", "緯度": 31.736804, "経度": 131.067351, "url": "https://www.iryou.teikyouseido.mhlw.go.jp/znk-web/juminkanja/S2430/initialize?prefCd=45&kikanCd=4450201080&kikanKbn=4", "url2": null, "内容": "ままこ助産院【4:助産院】宮崎県北諸県郡三股町五本松２０ー２" }, "geometry": { "type": "Point", "coordinates": [ 131.067351, 31.736804 ] } },
{ "type": "Feature", "properties": { "ID": 4544450201660, "正式名称": "産前産後ケアＢｌｏｏｍ", "機関区分": 4, "都道府県コード": 45, "市区町村コード": 202, "所在地": "宮崎県都城市山田町山田１１０４８－１", "緯度": 31.81962, "経度": 131.062453, "url": "https://www.iryou.teikyouseido.mhlw.go.jp/znk-web/juminkanja/S2430/initialize?prefCd=45&kikanCd=4450201660&kikanKbn=4", "url2": null, "内容": "産前産後ケアＢｌｏｏｍ【4:助産院】宮崎県都城市山田町山田１１０４８－１" }, "geometry": { "type": "Point", "coordinates": [ 131.062453, 31.81962 ] } },
{ "type": "Feature", "properties": { "ID": 4544450300130, "正式名称": "Ｍａｍａｓ　ｗｉｎｇ", "機関区分": 4, "都道府県コード": 45, "市区町村コード": 203, "所在地": "宮崎県延岡市沖田町２６３７−２０", "緯度": 32.549073, "経度": 131.666913, "url": "https://www.iryou.teikyouseido.mhlw.go.jp/znk-web/juminkanja/S2430/initialize?prefCd=45&kikanCd=4450300130&kikanKbn=4", "url2": "http://mamaswing.net", "内容": "Ｍａｍａｓ　ｗｉｎｇ【4:助産院】宮崎県延岡市沖田町２６３７−２０" }, "geometry": { "type": "Point", "coordinates": [ 131.666913, 32.549073 ] } },
{ "type": "Feature", "properties": { "ID": 4544450300260, "正式名称": "おざき母乳育児相談室", "機関区分": 4, "都道府県コード": 45, "市区町村コード": 203, "所在地": "宮崎県延岡市柳沢町１丁目４ー６　プロスペリテマンション４０３号室", "緯度": 32.579734, "経度": 131.667491, "url": "https://www.iryou.teikyouseido.mhlw.go.jp/znk-web/juminkanja/S2430/initialize?prefCd=45&kikanCd=4450300260&kikanKbn=4", "url2": "https://ozakicounselingroom.amebaownd.com", "内容": "おざき母乳育児相談室【4:助産院】宮崎県延岡市柳沢町１丁目４ー６　プロスペリテマンション４０３号室" }, "geometry": { "type": "Point", "coordinates": [ 131.667491, 32.579734 ] } },
{ "type": "Feature", "properties": { "ID": 4544450400160, "正式名称": "おっぱいハウス　池田助産院", "機関区分": 4, "都道府県コード": 45, "市区町村コード": 204, "所在地": "宮崎県日南市大字星倉４４１８番地", "緯度": 31.622451, "経度": 131.368826, "url": "https://www.iryou.teikyouseido.mhlw.go.jp/znk-web/juminkanja/S2430/initialize?prefCd=45&kikanCd=4450400160&kikanKbn=4", "url2": null, "内容": "おっぱいハウス　池田助産院【4:助産院】宮崎県日南市大字星倉４４１８番地" }, "geometry": { "type": "Point", "coordinates": [ 131.368826, 31.622451 ] } },
{ "type": "Feature", "properties": { "ID": 4544450500190, "正式名称": "ののは助産院", "機関区分": 4, "都道府県コード": 45, "市区町村コード": 205, "所在地": "宮崎県小林市駅南１１０", "緯度": 31.99241, "経度": 130.971538, "url": "https://www.iryou.teikyouseido.mhlw.go.jp/znk-web/juminkanja/S2430/initialize?prefCd=45&kikanCd=4450500190&kikanKbn=4", "url2": null, "内容": "ののは助産院【4:助産院】宮崎県小林市駅南１１０" }, "geometry": { "type": "Point", "coordinates": [ 130.971538, 31.99241 ] } },
{ "type": "Feature", "properties": { "ID": 4544450500220, "正式名称": "助産院　ひなり", "機関区分": 4, "都道府県コード": 45, "市区町村コード": 209, "所在地": "宮崎県えびの市上江６４６－４", "緯度": 32.029575, "経度": 130.862284, "url": "https://www.iryou.teikyouseido.mhlw.go.jp/znk-web/juminkanja/S2430/initialize?prefCd=45&kikanCd=4450500220&kikanKbn=4", "url2": null, "内容": "助産院　ひなり【4:助産院】宮崎県えびの市上江６４６－４" }, "geometry": { "type": "Point", "coordinates": [ 130.862284, 32.029575 ] } },
{ "type": "Feature", "properties": { "ID": 4544450500350, "正式名称": "あかり助産院", "機関区分": 4, "都道府県コード": 45, "市区町村コード": 205, "所在地": "宮崎県小林市堤２１４６－１５", "緯度": 31.965507, "経度": 131.000726, "url": "https://www.iryou.teikyouseido.mhlw.go.jp/znk-web/juminkanja/S2430/initialize?prefCd=45&kikanCd=4450500350&kikanKbn=4", "url2": "akari-josan-in.com", "内容": "あかり助産院【4:助産院】宮崎県小林市堤２１４６－１５" }, "geometry": { "type": "Point", "coordinates": [ 131.000726, 31.965507 ] } },
{ "type": "Feature", "properties": { "ID": 4544450600120, "正式名称": "にこにこおっぱいハウス", "機関区分": 4, "都道府県コード": 45, "市区町村コード": 401, "所在地": "宮崎県児湯郡高鍋町大字北高鍋２８０８ー５", "緯度": 32.12403, "経度": 131.519425, "url": "https://www.iryou.teikyouseido.mhlw.go.jp/znk-web/juminkanja/S2430/initialize?prefCd=45&kikanCd=4450600120&kikanKbn=4", "url2": null, "内容": "にこにこおっぱいハウス【4:助産院】宮崎県児湯郡高鍋町大字北高鍋２８０８ー５" }, "geometry": { "type": "Point", "coordinates": [ 131.519425, 32.12403 ] } },
{ "type": "Feature", "properties": { "ID": 4544450900110, "正式名称": "ｍｏｍｏ助産院", "機関区分": 4, "都道府県コード": 45, "市区町村コード": 206, "所在地": "宮崎県日向市亀崎東４丁目２６番地", "緯度": 32.437496, "経度": 131.63945, "url": "https://www.iryou.teikyouseido.mhlw.go.jp/znk-web/juminkanja/S2430/initialize?prefCd=45&kikanCd=4450900110&kikanKbn=4", "url2": null, "内容": "ｍｏｍｏ助産院【4:助産院】宮崎県日向市亀崎東４丁目２６番地" }, "geometry": { "type": "Point", "coordinates": [ 131.63945, 32.437496 ] } },
{ "type": "Feature", "properties": { "ID": 4544450900120, "正式名称": "ゆかり助産院", "機関区分": 4, "都道府県コード": 45, "市区町村コード": 206, "所在地": "宮崎県日向市財光寺４０２６番地８", "緯度": 32.406302, "経度": 131.623609, "url": "https://www.iryou.teikyouseido.mhlw.go.jp/znk-web/juminkanja/S2430/initialize?prefCd=45&kikanCd=4450900120&kikanKbn=4", "url2": "https://yukari-nursing.jp", "内容": "ゆかり助産院【4:助産院】宮崎県日向市財光寺４０２６番地８" }, "geometry": { "type": "Point", "coordinates": [ 131.623609, 32.406302 ] } },
{ "type": "Feature", "properties": { "ID": 4544453100230, "正式名称": "Ｆａｍｉｌｙ　Ｃａｒｅ　Ｈｏｕｓｅ　とも（旧　日高母乳育児コンサルタント）", "機関区分": 4, "都道府県コード": 45, "市区町村コード": 201, "所在地": "宮崎県宮崎市神宮１丁目２３５", "緯度": 31.932215, "経度": 131.42136, "url": "https://www.iryou.teikyouseido.mhlw.go.jp/znk-web/juminkanja/S2430/initialize?prefCd=45&kikanCd=4453100230&kikanKbn=4", "url2": "hidaka_8181", "内容": "Ｆａｍｉｌｙ　Ｃａｒｅ　Ｈｏｕｓｅ　とも（旧　日高母乳育児コンサルタント）【4:助産院】宮崎県宮崎市神宮１丁目２３５" }, "geometry": { "type": "Point", "coordinates": [ 131.42136, 31.932215 ] } },
{ "type": "Feature", "properties": { "ID": 4544453100940, "正式名称": "あおき母乳育児相談室", "機関区分": 4, "都道府県コード": 45, "市区町村コード": 201, "所在地": "宮崎県宮崎市佐土原町下田島２１４８７ー１６", "緯度": 32.019728, "経度": 131.470916, "url": "https://www.iryou.teikyouseido.mhlw.go.jp/znk-web/juminkanja/S2430/initialize?prefCd=45&kikanCd=4453100940&kikanKbn=4", "url2": null, "内容": "あおき母乳育児相談室【4:助産院】宮崎県宮崎市佐土原町下田島２１４８７ー１６" }, "geometry": { "type": "Point", "coordinates": [ 131.470916, 32.019728 ] } },
{ "type": "Feature", "properties": { "ID": 4544453101400, "正式名称": "きんかん助産院", "機関区分": 4, "都道府県コード": 45, "市区町村コード": 201, "所在地": "宮崎県宮崎市清武町加納甲１４５０ー５０番地", "緯度": 31.874428, "経度": 131.394339, "url": "https://www.iryou.teikyouseido.mhlw.go.jp/znk-web/juminkanja/S2430/initialize?prefCd=45&kikanCd=4453101400&kikanKbn=4", "url2": null, "内容": "きんかん助産院【4:助産院】宮崎県宮崎市清武町加納甲１４５０ー５０番地" }, "geometry": { "type": "Point", "coordinates": [ 131.394339, 31.874428 ] } },
{ "type": "Feature", "properties": { "ID": 4544453101660, "正式名称": "きら助産院", "機関区分": 4, "都道府県コード": 45, "市区町村コード": 201, "所在地": "宮崎県宮崎市佐土原町上田島１１４４－３６", "緯度": 32.043458, "経度": 131.425196, "url": "https://www.iryou.teikyouseido.mhlw.go.jp/znk-web/juminkanja/S2430/initialize?prefCd=45&kikanCd=4453101660&kikanKbn=4", "url2": null, "内容": "きら助産院【4:助産院】宮崎県宮崎市佐土原町上田島１１４４－３６" }, "geometry": { "type": "Point", "coordinates": [ 131.425196, 32.043458 ] } },
{ "type": "Feature", "properties": { "ID": 4544453101820, "正式名称": "もあな助産院", "機関区分": 4, "都道府県コード": 45, "市区町村コード": 201, "所在地": "宮崎県宮崎市佐土原町上田島１３３６－３", "緯度": 32.04841, "経度": 131.428171, "url": "https://www.iryou.teikyouseido.mhlw.go.jp/znk-web/juminkanja/S2430/initialize?prefCd=45&kikanCd=4453101820&kikanKbn=4", "url2": "https://moanamh.net/", "内容": "もあな助産院【4:助産院】宮崎県宮崎市佐土原町上田島１３３６－３" }, "geometry": { "type": "Point", "coordinates": [ 131.428171, 32.04841 ] } },
{ "type": "Feature", "properties": { "ID": 4544453101950, "正式名称": "いずみ助産院", "機関区分": 4, "都道府県コード": 45, "市区町村コード": 201, "所在地": "宮崎県宮崎市波島１丁目１番７１ー１号", "緯度": 31.941673, "経度": 131.445758, "url": "https://www.iryou.teikyouseido.mhlw.go.jp/znk-web/juminkanja/S2430/initialize?prefCd=45&kikanCd=4453101950&kikanKbn=4", "url2": null, "内容": "いずみ助産院【4:助産院】宮崎県宮崎市波島１丁目１番７１ー１号" }, "geometry": { "type": "Point", "coordinates": [ 131.445758, 31.941673 ] } },
{ "type": "Feature", "properties": { "ID": 4544453102080, "正式名称": "助産院　わがや", "機関区分": 4, "都道府県コード": 45, "市区町村コード": 201, "所在地": "宮崎県宮崎市佐土原町下那珂７９１番地５", "緯度": 32.005539, "経度": 131.477703, "url": "https://www.iryou.teikyouseido.mhlw.go.jp/znk-web/juminkanja/S2430/initialize?prefCd=45&kikanCd=4453102080&kikanKbn=4", "url2": "https://www.wagaya-midwiferyhome-883.com", "内容": "助産院　わがや【4:助産院】宮崎県宮崎市佐土原町下那珂７９１番地５" }, "geometry": { "type": "Point", "coordinates": [ 131.477703, 32.005539 ] } },
{ "type": "Feature", "properties": { "ID": 4544453102240, "正式名称": "ひなた助産院", "機関区分": 4, "都道府県コード": 45, "市区町村コード": 201, "所在地": "宮崎県宮崎市本郷北方４４８６番地２６５", "緯度": 31.911095, "経度": 131.423893, "url": "https://www.iryou.teikyouseido.mhlw.go.jp/znk-web/juminkanja/S2430/initialize?prefCd=45&kikanCd=4453102240&kikanKbn=4", "url2": null, "内容": "ひなた助産院【4:助産院】宮崎県宮崎市本郷北方４４８６番地２６５" }, "geometry": { "type": "Point", "coordinates": [ 131.423893, 31.911095 ] } },
{ "type": "Feature", "properties": { "ID": 4544453102370, "正式名称": "にじいろ助産院", "機関区分": 4, "都道府県コード": 45, "市区町村コード": 201, "所在地": "宮崎県　宮崎市　小松台南町５ー３", "緯度": 31.927122, "経度": 131.392802, "url": "https://www.iryou.teikyouseido.mhlw.go.jp/znk-web/juminkanja/S2430/initialize?prefCd=45&kikanCd=4453102370&kikanKbn=4", "url2": null, "内容": "にじいろ助産院【4:助産院】宮崎県　宮崎市　小松台南町５ー３" }, "geometry": { "type": "Point", "coordinates": [ 131.392802, 31.927122 ] } },
{ "type": "Feature", "properties": { "ID": 4544453102400, "正式名称": "にこはぴ助産院", "機関区分": 4, "都道府県コード": 45, "市区町村コード": 201, "所在地": "宮崎県宮崎市大塚町宮田２９２９－５", "緯度": 31.91484, "経度": 131.395581, "url": "https://www.iryou.teikyouseido.mhlw.go.jp/znk-web/juminkanja/S2430/initialize?prefCd=45&kikanCd=4453102400&kikanKbn=4", "url2": null, "内容": "にこはぴ助産院【4:助産院】宮崎県宮崎市大塚町宮田２９２９－５" }, "geometry": { "type": "Point", "coordinates": [ 131.395581, 31.91484 ] } },
{ "type": "Feature", "properties": { "ID": 454445310266, "正式名称": "トントン助産院", "機関区分": 4, "都道府県コード": 45, "市区町村コード": 201, "所在地": "宮崎県宮崎市希望ケ丘４丁目１３－２４", "緯度": 31.856636, "経度": 131.418517, "url": "https://www.iryou.teikyouseido.mhlw.go.jp/znk-web/juminkanja/S2430/initialize?prefCd=45&kikanCd=445310266&kikanKbn=4", "url2": null, "内容": "トントン助産院【4:助産院】宮崎県宮崎市希望ケ丘４丁目１３－２４" }, "geometry": { "type": "Point", "coordinates": [ 131.418517, 31.856636 ] } },
{ "type": "Feature", "properties": { "ID": 4544453102790, "正式名称": "はれはれ助産院", "機関区分": 4, "都道府県コード": 45, "市区町村コード": 201, "所在地": "宮崎県宮崎市新城町２１　第２新城荘１０１", "緯度": 31.925265, "経度": 131.440686, "url": "https://www.iryou.teikyouseido.mhlw.go.jp/znk-web/juminkanja/S2430/initialize?prefCd=45&kikanCd=4453102790&kikanKbn=4", "url2": "https://harehare-josanin.wepage.com/", "内容": "はれはれ助産院【4:助産院】宮崎県宮崎市新城町２１　第２新城荘１０１" }, "geometry": { "type": "Point", "coordinates": [ 131.440686, 31.925265 ] } },
{ "type": "Feature", "properties": { "ID": 454445310324, "正式名称": "ａｃｏ助産院", "機関区分": 4, "都道府県コード": 45, "市区町村コード": 201, "所在地": "宮崎県宮崎市清水１丁目３番２０号", "緯度": 31.917891, "経度": 131.421623, "url": "https://www.iryou.teikyouseido.mhlw.go.jp/znk-web/juminkanja/S2430/initialize?prefCd=45&kikanCd=445310324&kikanKbn=4", "url2": null, "内容": "ａｃｏ助産院【4:助産院】宮崎県宮崎市清水１丁目３番２０号" }, "geometry": { "type": "Point", "coordinates": [ 131.421623, 31.917891 ] } }
]
}
