{
"type": "FeatureCollection",
"name": "geo_45_訪問看護",
"crs": { "type": "name", "properties": { "name": "urn:ogc:def:crs:OGC:1.3:CRS84" } },
"features": [
{ "type": "Feature", "properties": { "内容": "訪問看護ステーションふれあい【訪問看護】宮崎県宮崎市清武町正手1丁目81番地パークマンション106号室", "url": "https://www.kaigokensaku.mhlw.go.jp/45/index.php?action_kouhyou_detail_004_kani=true&JigyosyoCd=4560190714-00&ServiceCd=130&Type=search", "url2": null }, "geometry": { "type": "Point", "coordinates": [ 131.3870939, 31.858989 ] } },
{ "type": "Feature", "properties": { "内容": "訪問看護ステーションここあ【訪問看護】宮崎県宮崎市大字本郷北方2960番地３YHコーポ102号室", "url": "https://www.kaigokensaku.mhlw.go.jp/45/index.php?action_kouhyou_detail_004_kani=true&JigyosyoCd=4560190912-00&ServiceCd=130&Type=search", "url2": null }, "geometry": { "type": "Point", "coordinates": [ 131.4178499, 31.872652 ] } },
{ "type": "Feature", "properties": { "内容": "訪問看護ステーション安心夢　宮崎【訪問看護】宮崎県宮崎市大字島之内9686-10", "url": "https://www.kaigokensaku.mhlw.go.jp/45/index.php?action_kouhyou_detail_004_kani=true&JigyosyoCd=4560190706-00&ServiceCd=130&Type=search", "url2": null }, "geometry": { "type": "Point", "coordinates": [ 131.4581801, 31.9903722 ] } },
{ "type": "Feature", "properties": { "内容": "訪問看護ステーション　Calm【訪問看護】宮崎県宮崎市一の宮町79番地シャンテ一の宮101号", "url": "https://www.kaigokensaku.mhlw.go.jp/45/index.php?action_kouhyou_detail_004_kani=true&JigyosyoCd=4560190722-00&ServiceCd=130&Type=search", "url2": "http://calm-green.jp/" }, "geometry": { "type": "Point", "coordinates": [ 131.444864300000091, 31.9061512 ] } },
{ "type": "Feature", "properties": { "内容": "わがや訪問看護ステーション【訪問看護】宮崎県宮崎市佐土原町下那珂791番地5", "url": "https://www.kaigokensaku.mhlw.go.jp/45/index.php?action_kouhyou_detail_004_kani=true&JigyosyoCd=4560190995-00&ServiceCd=130&Type=search", "url2": null }, "geometry": { "type": "Point", "coordinates": [ 131.429939100000013, 32.0281088 ] } },
{ "type": "Feature", "properties": { "内容": "住吉慶明会訪問看護ステーション【訪問看護】宮崎県宮崎市大字島之内6719-1オーシャンハイツ101号", "url": "https://www.kaigokensaku.mhlw.go.jp/45/index.php?action_kouhyou_detail_004_kani=true&JigyosyoCd=4560190623-00&ServiceCd=130&Type=search", "url2": "http://www.keimeisw.or.jp" }, "geometry": { "type": "Point", "coordinates": [ 131.447448399999985, 31.9832691 ] } },
{ "type": "Feature", "properties": { "内容": "訪問看護ステーションConnectmoon【訪問看護】太田1丁目3－31コーポ大淀201号室", "url": "https://www.kaigokensaku.mhlw.go.jp/45/index.php?action_kouhyou_detail_004_kani=true&JigyosyoCd=4560191027-00&ServiceCd=130&Type=search", "url2": null }, "geometry": { "type": "Point", "coordinates": [ 135.194058399999989, 34.2293105 ] } },
{ "type": "Feature", "properties": { "内容": "訪問看護ステーション　りんごの里【訪問看護】宮崎県宮崎市吉村町西田甲647-17", "url": "https://www.kaigokensaku.mhlw.go.jp/45/index.php?action_kouhyou_detail_004_kani=true&JigyosyoCd=4560190656-00&ServiceCd=130&Type=search", "url2": "https://ringo-ichigo.jp" }, "geometry": { "type": "Point", "coordinates": [ 131.443316699475076, 31.921481684580225 ] } },
{ "type": "Feature", "properties": { "内容": "訪問看護　TMステーション【訪問看護】宮崎県宮崎市大字瓜生野3756番地1", "url": "https://www.kaigokensaku.mhlw.go.jp/45/index.php?action_kouhyou_detail_004_kani=true&JigyosyoCd=4560190813-00&ServiceCd=130&Type=search", "url2": "https://tm-reha.co.jp" }, "geometry": { "type": "Point", "coordinates": [ 131.385063089549249, 31.96242820997114 ] } },
{ "type": "Feature", "properties": { "内容": "訪問看護ステーションケアふる宮崎【訪問看護】宮崎県宮崎市吉村町南田甲1051番地12多機能リハビリステーション　ケアふる内", "url": "https://www.kaigokensaku.mhlw.go.jp/45/index.php?action_kouhyou_detail_004_kani=true&JigyosyoCd=4560190227-00&ServiceCd=130&Type=search", "url2": "http://www.care-project.co.jp/" }, "geometry": { "type": "Point", "coordinates": [ 131.453254891493202, 31.917350218818807 ] } },
{ "type": "Feature", "properties": { "内容": "訪問看護ステーション光の糸【訪問看護】宮崎市大塚町西ノ後3397番地7", "url": "https://www.kaigokensaku.mhlw.go.jp/45/index.php?action_kouhyou_detail_004_kani=true&JigyosyoCd=4560191167-00&ServiceCd=130&Type=search", "url2": "https://yuusinn₋wd.co.jp/company/" }, "geometry": { "type": "Point", "coordinates": [ 131.3927041, 31.9115819 ] } },
{ "type": "Feature", "properties": { "内容": "友愛訪問看護ステーション【訪問看護】宮崎県宮崎市恒久南3丁目11-26", "url": "https://www.kaigokensaku.mhlw.go.jp/45/index.php?action_kouhyou_detail_004_kani=true&JigyosyoCd=4560190235-00&ServiceCd=130&Type=search", "url2": null }, "geometry": { "type": "Point", "coordinates": [ 131.427087121668848, 31.890468672717613 ] } },
{ "type": "Feature", "properties": { "内容": "訪問看護ステーションゆずり葉【訪問看護】宮崎県宮崎市大字新名爪4450-1", "url": "https://www.kaigokensaku.mhlw.go.jp/45/index.php?action_kouhyou_detail_004_kani=true&JigyosyoCd=4560191191-00&ServiceCd=130&Type=search", "url2": null }, "geometry": { "type": "Point", "coordinates": [ 131.4374647, 31.9729978 ] } },
{ "type": "Feature", "properties": { "内容": "ユーカリ訪問看護ステーション　Ｍｉｙａｚａｋｉ【訪問看護】宮崎県宮崎市大字田吉１１６－２", "url": "https://www.kaigokensaku.mhlw.go.jp/45/index.php?action_kouhyou_detail_004_kani=true&JigyosyoCd=4560191233-00&ServiceCd=130&Type=search", "url2": "https://rainbow7373.com/" }, "geometry": { "type": "Point", "coordinates": [ 131.428781, 31.877409 ] } },
{ "type": "Feature", "properties": { "内容": "訪問看護ステーション心奏【訪問看護】大橋1丁目55番地", "url": "https://www.kaigokensaku.mhlw.go.jp/45/index.php?action_kouhyou_detail_004_kani=true&JigyosyoCd=4570110322-00&ServiceCd=130&Type=search", "url2": "https://www.kanade-office.jp/" }, "geometry": { "type": "Point", "coordinates": [ 131.4144545, 31.9194531 ] } },
{ "type": "Feature", "properties": { "内容": "訪問看護ステーション　オリーブ【訪問看護】宮崎県宮崎市吉村町西田甲679番地1", "url": "https://www.kaigokensaku.mhlw.go.jp/45/index.php?action_kouhyou_detail_004_kani=true&JigyosyoCd=4560191274-00&ServiceCd=130&Type=search", "url2": null }, "geometry": { "type": "Point", "coordinates": [ 131.44193, 31.922612400000013 ] } },
{ "type": "Feature", "properties": { "内容": "きずケア訪問看護リハビリステーション【訪問看護】永楽町77番地田野ビル203", "url": "https://www.kaigokensaku.mhlw.go.jp/45/index.php?action_kouhyou_detail_004_kani=true&JigyosyoCd=4560191209-00&ServiceCd=130&Type=search", "url2": "www.kizucarehoumon.com" }, "geometry": { "type": "Point", "coordinates": [ 139.630864, 35.4384626 ] } },
{ "type": "Feature", "properties": { "内容": "医心館訪問看護ステーション宮崎【訪問看護】高千穂通一丁目８番14号", "url": "https://www.kaigokensaku.mhlw.go.jp/45/index.php?action_kouhyou_detail_004_kani=true&JigyosyoCd=4560191316-00&ServiceCd=130&Type=search", "url2": null }, "geometry": { "type": "Point", "coordinates": [ 131.4275245, 31.9178839 ] } },
{ "type": "Feature", "properties": { "内容": "キラリチャーム【訪問看護】宮崎県宮崎市橘通東3丁目7−12ホワイトポケットビルF号", "url": "https://www.kaigokensaku.mhlw.go.jp/45/index.php?action_kouhyou_detail_004_kani=true&JigyosyoCd=4560191142-00&ServiceCd=130&Type=search", "url2": null }, "geometry": { "type": "Point", "coordinates": [ 131.3963767, 31.9123298 ] } },
{ "type": "Feature", "properties": { "内容": "訪問看護事業所　aika【訪問看護】大島町馬場尻1898番地1", "url": "https://www.kaigokensaku.mhlw.go.jp/45/index.php?action_kouhyou_detail_004_kani=true&JigyosyoCd=4560191175-00&ServiceCd=130&Type=search", "url2": "https://valo-hikari.com/company/" }, "geometry": { "type": "Point", "coordinates": [ 131.4370083, 31.9388908 ] } },
{ "type": "Feature", "properties": { "内容": "訪問看護ステーション凪【訪問看護】宮崎県宮崎市霧島5-68平和台マンションⅡ103号室", "url": "https://www.kaigokensaku.mhlw.go.jp/45/index.php?action_kouhyou_detail_004_kani=true&JigyosyoCd=4560191183-00&ServiceCd=130&Type=search", "url2": null }, "geometry": { "type": "Point", "coordinates": [ 131.4134867, 31.9379348 ] } },
{ "type": "Feature", "properties": { "内容": "訪問看護ステーションうみがめ【訪問看護】宮崎県宮崎市島之内6951番地", "url": "https://www.kaigokensaku.mhlw.go.jp/45/index.php?action_kouhyou_detail_004_kani=true&JigyosyoCd=4560191266-00&ServiceCd=130&Type=search", "url2": "https://umigame-nursinghome.com/" }, "geometry": { "type": "Point", "coordinates": [ 131.4480795, 31.986352 ] } },
{ "type": "Feature", "properties": { "内容": "訪問看護ステーションかえるのほっぺ【訪問看護】宮崎県宮崎市大字赤江974‐28マリベール赤江205", "url": "https://www.kaigokensaku.mhlw.go.jp/45/index.php?action_kouhyou_detail_004_kani=true&JigyosyoCd=4560191217-00&ServiceCd=130&Type=search", "url2": "https://www.kaerunohoppe.com" }, "geometry": { "type": "Point", "coordinates": [ 131.4430142, 31.8837981 ] } },
{ "type": "Feature", "properties": { "内容": "宮崎生協病院　訪問看護ステーション(休止中)【訪問看護】宮崎県宮崎市大島町天神前1171番地", "url": "https://www.kaigokensaku.mhlw.go.jp/45/index.php?action_kouhyou_detail_004_kani=true&JigyosyoCd=4560190805-00&ServiceCd=130&Type=search", "url2": null }, "geometry": { "type": "Point", "coordinates": [ 131.4393833, 31.9384635 ] } },
{ "type": "Feature", "properties": { "内容": "どこでも訪問看護ステーション【訪問看護】宮崎県宮崎市大塚町祝子前1798番地1セゾンハイム103号", "url": "https://www.kaigokensaku.mhlw.go.jp/45/index.php?action_kouhyou_detail_004_kani=true&JigyosyoCd=4560191324-00&ServiceCd=130&Type=search", "url2": null }, "geometry": { "type": "Point", "coordinates": [ 131.400675, 31.9197421 ] } },
{ "type": "Feature", "properties": { "内容": "いしかわ内科【訪問看護】宮崎県宮崎市神宮西1丁目49番地１", "url": "https://www.kaigokensaku.mhlw.go.jp/45/index.php?action_kouhyou_detail_004_kani=true&JigyosyoCd=4510115605-00&ServiceCd=130&Type=search", "url2": "http://www.sanyu‐kai.jp/" }, "geometry": { "type": "Point", "coordinates": [ 131.417529400000035, 31.9361229 ] } },
{ "type": "Feature", "properties": { "内容": "訪問看護ステーションひばり【訪問看護】宮崎県宮崎市高岡町花見字下水流354番1", "url": "https://www.kaigokensaku.mhlw.go.jp/45/index.php?action_kouhyou_detail_004_kani=true&JigyosyoCd=4560191399-00&ServiceCd=130&Type=search", "url2": "https://hibari-service.com/" }, "geometry": { "type": "Point", "coordinates": [ 131.339075048204393, 31.945168320077741 ] } },
{ "type": "Feature", "properties": { "内容": "訪問看護のあ【訪問看護】宮崎市田野町甲2739-80北側", "url": "https://www.kaigokensaku.mhlw.go.jp/45/index.php?action_kouhyou_detail_004_kani=true&JigyosyoCd=4560191365-00&ServiceCd=130&Type=search", "url2": null }, "geometry": { "type": "Point", "coordinates": [ 131.303446984655778, 31.840895400131568 ] } },
{ "type": "Feature", "properties": { "内容": "訪問看護ステーション七草【訪問看護】宮崎市古城町岡ノ原13番地１", "url": "https://www.kaigokensaku.mhlw.go.jp/45/index.php?action_kouhyou_detail_004_kani=true&JigyosyoCd=4560191282-00&ServiceCd=130&Type=search", "url2": "https://nanakusa-m.jp/" }, "geometry": { "type": "Point", "coordinates": [ 131.4089739, 31.8835763 ] } },
{ "type": "Feature", "properties": { "内容": "訪問看護ステーションMARE【訪問看護】宮崎市大字本郷南方字榎田2542-4", "url": "https://www.kaigokensaku.mhlw.go.jp/45/index.php?action_kouhyou_detail_004_kani=true&JigyosyoCd=4560191407-00&ServiceCd=130&Type=search", "url2": "https://www.okamoto-pharmacy.com/" }, "geometry": { "type": "Point", "coordinates": [ 131.434036691068201, 31.851374285125448 ] } },
{ "type": "Feature", "properties": { "内容": "訪問看護ステーションなんぶ【訪問看護】宮崎県宮崎市大字本郷北方字津和田3373-1住宅型有料老人ホームなんぶの杜内", "url": "https://www.kaigokensaku.mhlw.go.jp/45/index.php?action_kouhyou_detail_004_kani=true&JigyosyoCd=4560190201-00&ServiceCd=130&Type=search", "url2": "http://www.nanbuhp.or.jp/" }, "geometry": { "type": "Point", "coordinates": [ 131.426340353373007, 31.872616082549968 ] } },
{ "type": "Feature", "properties": { "内容": "株式会社Ｆ．Ｓ．Ｔ．【訪問看護】宮崎県宮崎市月見ケ丘五丁目32-２", "url": "https://www.kaigokensaku.mhlw.go.jp/45/index.php?action_kouhyou_detail_004_kani=true&JigyosyoCd=4560190938-00&ServiceCd=130&Type=search", "url2": null }, "geometry": { "type": "Point", "coordinates": [ 131.4176479, 31.8818677 ] } },
{ "type": "Feature", "properties": { "内容": "訪問看護ステーションわすれな草【訪問看護】宮崎県宮崎市学園木花台南三丁目30番地５", "url": "https://www.kaigokensaku.mhlw.go.jp/45/index.php?action_kouhyou_detail_004_kani=true&JigyosyoCd=4560190896-00&ServiceCd=130&Type=search", "url2": "https://wasurenagusa-houkan.jp/" }, "geometry": { "type": "Point", "coordinates": [ 131.422966970437386, 31.831561357644407 ] } },
{ "type": "Feature", "properties": { "内容": "SOU訪問看護ステーション宮崎【訪問看護】宮崎県宮崎市吉村町浮之城甲16－１", "url": "https://www.kaigokensaku.mhlw.go.jp/45/index.php?action_kouhyou_detail_004_kani=true&JigyosyoCd=4560190326-00&ServiceCd=130&Type=search", "url2": "http://www.sou-seniorcare.co.jp" }, "geometry": { "type": "Point", "coordinates": [ 131.438036164526324, 31.931556424622134 ] } },
{ "type": "Feature", "properties": { "内容": "OUR訪問看護ステーション【訪問看護】宮崎県宮崎市花ヶ島町南赤江町2096番地1", "url": "https://www.kaigokensaku.mhlw.go.jp/45/index.php?action_kouhyou_detail_004_kani=true&JigyosyoCd=4560191043-00&ServiceCd=130&Type=search", "url2": "https://our-co.jp/" }, "geometry": { "type": "Point", "coordinates": [ 131.429874699999971, 31.9445984 ] } },
{ "type": "Feature", "properties": { "内容": "のぞみステーション【訪問看護】宮崎県宮崎市神宮西2丁目278-1ナチュラルタウンⅠ202", "url": "https://www.kaigokensaku.mhlw.go.jp/45/index.php?action_kouhyou_detail_004_kani=true&JigyosyoCd=4560191084-00&ServiceCd=130&Type=search", "url2": "nozomi-station2023.1web.jp" }, "geometry": { "type": "Point", "coordinates": [ 131.416273897869843, 31.939271781661763 ] } },
{ "type": "Feature", "properties": { "内容": "訪問看護ステーションはなまる縁【訪問看護】宮崎県宮崎市佐土原町上田島8113-1", "url": "https://www.kaigokensaku.mhlw.go.jp/45/index.php?action_kouhyou_detail_004_kani=true&JigyosyoCd=4560191381-00&ServiceCd=130&Type=search", "url2": "https://www.minori-hanamaru.com" }, "geometry": { "type": "Point", "coordinates": [ 131.4062045, 32.0498793 ] } },
{ "type": "Feature", "properties": { "内容": "訪問看護ステーションらいむ【訪問看護】宮崎県宮崎市高岡町花見1943番地5", "url": "https://www.kaigokensaku.mhlw.go.jp/45/index.php?action_kouhyou_detail_004_kani=true&JigyosyoCd=4560191332-00&ServiceCd=130&Type=search", "url2": null }, "geometry": { "type": "Point", "coordinates": [ 131.325006, 31.9378061 ] } },
{ "type": "Feature", "properties": { "内容": "訪問看護ステーションららばい【訪問看護】宮崎県宮崎市大塚町横立1367-2", "url": "https://www.kaigokensaku.mhlw.go.jp/45/index.php?action_kouhyou_detail_004_kani=true&JigyosyoCd=4560191373-00&ServiceCd=130&Type=search", "url2": "https://rarabai-homon.com/" }, "geometry": { "type": "Point", "coordinates": [ 131.3925562, 31.9229842 ] } },
{ "type": "Feature", "properties": { "内容": "こどもとおとなの訪問看護ろけっと★ステーション【訪問看護】宮崎県宮崎市跡江665", "url": "https://www.kaigokensaku.mhlw.go.jp/45/index.php?action_kouhyou_detail_004_kani=true&JigyosyoCd=4560190474-00&ServiceCd=130&Type=search", "url2": "http://www.rocket-station.jp" }, "geometry": { "type": "Point", "coordinates": [ 131.390064299999949, 31.9513735 ] } },
{ "type": "Feature", "properties": { "内容": "訪問看護ステーション敬寿【訪問看護】宮崎県宮崎市本郷北方字池田4043-1介護老人保健施設ことぶき苑内", "url": "https://www.kaigokensaku.mhlw.go.jp/45/index.php?action_kouhyou_detail_004_kani=true&JigyosyoCd=4560190086-00&ServiceCd=130&Type=search", "url2": "http://www.anami-kotobukien.jp" }, "geometry": { "type": "Point", "coordinates": [ 131.425081146167372, 31.863359579019502 ] } },
{ "type": "Feature", "properties": { "内容": "みやざき訪問看護ステーション【訪問看護】宮崎県宮崎市高松町2番16号", "url": "https://www.kaigokensaku.mhlw.go.jp/45/index.php?action_kouhyou_detail_004_kani=true&JigyosyoCd=4560190011-00&ServiceCd=130&Type=search", "url2": "http://www.jojinkai.com/miyazaki/" }, "geometry": { "type": "Point", "coordinates": [ 131.418918800000029, 31.9137006 ] } },
{ "type": "Feature", "properties": { "内容": "医療法人将優会クリニックうしたに【訪問看護】宮崎県宮崎市大字恒久５０６５番地", "url": "https://www.kaigokensaku.mhlw.go.jp/45/index.php?action_kouhyou_detail_004_kani=true&JigyosyoCd=4510116280-00&ServiceCd=130&Type=search", "url2": "www.ushitani.com/" }, "geometry": { "type": "Point", "coordinates": [ 131.428946399999973, 31.894839 ] } },
{ "type": "Feature", "properties": { "内容": "訪問看護ステーションてとて【訪問看護】宮崎県宮崎市大瀬町2176番地1", "url": "https://www.kaigokensaku.mhlw.go.jp/45/index.php?action_kouhyou_detail_004_kani=true&JigyosyoCd=4560190946-00&ServiceCd=130&Type=search", "url2": null }, "geometry": { "type": "Point", "coordinates": [ 131.380470876057444, 31.972443605606301 ] } },
{ "type": "Feature", "properties": { "内容": "訪問看護ステーションやわらぎ【訪問看護】宮崎県宮崎市大字小松1119番地", "url": "https://www.kaigokensaku.mhlw.go.jp/45/index.php?action_kouhyou_detail_004_kani=true&JigyosyoCd=4560190078-00&ServiceCd=130&Type=search", "url2": "http://www.zaitaku.junwakai.com/" }, "geometry": { "type": "Point", "coordinates": [ 131.40304531548307, 31.934858805679333 ] } },
{ "type": "Feature", "properties": { "内容": "在宅看護センターReir　Miyazaki【訪問看護】源藤町原田368-1串間ビル203", "url": "https://www.kaigokensaku.mhlw.go.jp/45/index.php?action_kouhyou_detail_004_kani=true&JigyosyoCd=4560190953-00&ServiceCd=130&Type=search", "url2": "https://reir2016.org/" }, "geometry": { "type": "Point", "coordinates": [ 131.415007300000013, 31.8878235 ] } },
{ "type": "Feature", "properties": { "内容": "訪問看護ステーション　らふたーらいふ【訪問看護】宮崎県宮崎市神宮東２丁目3-55河崎ビル203", "url": "https://www.kaigokensaku.mhlw.go.jp/45/index.php?action_kouhyou_detail_004_kani=true&JigyosyoCd=4560190433-00&ServiceCd=130&Type=search", "url2": null }, "geometry": { "type": "Point", "coordinates": [ 131.428679763159948, 31.93507123517869 ] } },
{ "type": "Feature", "properties": { "内容": "訪問看護ステーション　オハナ【訪問看護】宮崎県宮崎市下北方町塚原5774-1", "url": "https://www.kaigokensaku.mhlw.go.jp/45/index.php?action_kouhyou_detail_004_kani=true&JigyosyoCd=4560190797-00&ServiceCd=130&Type=search", "url2": "www.hananoie.jp" }, "geometry": { "type": "Point", "coordinates": [ 131.411035162565611, 31.941808730698263 ] } },
{ "type": "Feature", "properties": { "内容": "訪問看護ステーション夢【訪問看護】大字小松260番地", "url": "https://www.kaigokensaku.mhlw.go.jp/45/index.php?action_kouhyou_detail_004_kani=true&JigyosyoCd=4560190276-00&ServiceCd=130&Type=search", "url2": "https://www.yumecomes.com/" }, "geometry": { "type": "Point", "coordinates": [ 131.401874864412662, 31.940150753371199 ] } },
{ "type": "Feature", "properties": { "内容": "禅リハ訪問看護ステーション【訪問看護】宮崎県宮崎市末広1丁目4-11モアナレア末広306号", "url": "https://www.kaigokensaku.mhlw.go.jp/45/index.php?action_kouhyou_detail_004_kani=true&JigyosyoCd=4560191134-00&ServiceCd=130&Type=search", "url2": "https://zenreha.com/" }, "geometry": { "type": "Point", "coordinates": [ 131.418269257999043, 31.911757433121192 ] } },
{ "type": "Feature", "properties": { "内容": "訪問看護ステーションあいに【訪問看護】宮崎県宮崎市大塚町窪田3326202号", "url": "https://www.kaigokensaku.mhlw.go.jp/45/index.php?action_kouhyou_detail_004_kani=true&JigyosyoCd=4560190789-00&ServiceCd=130&Type=search", "url2": "aini3326.com" }, "geometry": { "type": "Point", "coordinates": [ 131.3949153, 31.9143309 ] } },
{ "type": "Feature", "properties": { "内容": "訪問看護ステーション　おあふ【訪問看護】宮崎県宮崎市清武町西新町11-3", "url": "https://www.kaigokensaku.mhlw.go.jp/45/index.php?action_kouhyou_detail_004_kani=true&JigyosyoCd=4560190607-00&ServiceCd=130&Type=search", "url2": null }, "geometry": { "type": "Point", "coordinates": [ 131.3899404, 31.8534629 ] } },
{ "type": "Feature", "properties": { "内容": "ニチイケアセンター神宮訪問看護ステーション【訪問看護】宮崎市神宮西2丁目138番地", "url": "https://www.kaigokensaku.mhlw.go.jp/45/index.php?action_kouhyou_detail_004_kani=true&JigyosyoCd=4560190342-00&ServiceCd=130&Type=search", "url2": "http://www.nichiigakkan.co.jp" }, "geometry": { "type": "Point", "coordinates": [ 131.421117900000013, 31.9385311 ] } },
{ "type": "Feature", "properties": { "内容": "結　訪問看護ステーション【訪問看護】宮崎県宮崎市生目台東1丁目20番地３", "url": "https://www.kaigokensaku.mhlw.go.jp/45/index.php?action_kouhyou_detail_004_kani=true&JigyosyoCd=4560190615-00&ServiceCd=130&Type=search", "url2": "http://kango-yui.jp" }, "geometry": { "type": "Point", "coordinates": [ 131.383183199999962, 31.9040359 ] } },
{ "type": "Feature", "properties": { "内容": "宮崎県看護協会訪問看護ステーションなでしこ３号館【訪問看護】宮崎県宮崎市清武町船引644-62新町橋レジデンス1階事務所", "url": "https://www.kaigokensaku.mhlw.go.jp/45/index.php?action_kouhyou_detail_004_kani=true&JigyosyoCd=4560190375-00&ServiceCd=130&Type=search", "url2": "https://www.m-kango.or.jp/" }, "geometry": { "type": "Point", "coordinates": [ 131.391489518849198, 31.858556346874877 ] } },
{ "type": "Feature", "properties": { "内容": "合同会社訪問看護ステーションハピネス【訪問看護】昭栄町80番", "url": "https://www.kaigokensaku.mhlw.go.jp/45/index.php?action_kouhyou_detail_004_kani=true&JigyosyoCd=4570108920-00&ServiceCd=130&Type=search", "url2": "https://www.happiness-llc.net/" }, "geometry": { "type": "Point", "coordinates": [ 131.454396491534141, 31.91153661804881 ] } },
{ "type": "Feature", "properties": { "内容": "城ヶ崎訪問看護ステーションなのはな【訪問看護】宮崎県宮崎市城ヶ崎３丁目２番１", "url": "https://www.kaigokensaku.mhlw.go.jp/45/index.php?action_kouhyou_detail_004_kani=true&JigyosyoCd=4560190128-00&ServiceCd=130&Type=search", "url2": "http://www.kowakai.jp" }, "geometry": { "type": "Point", "coordinates": [ 131.431832100000065, 31.8985888 ] } },
{ "type": "Feature", "properties": { "内容": "訪問看護ステーション一ツ葉【訪問看護】宮崎県宮崎市新別府町江口９５０番地１", "url": "https://www.kaigokensaku.mhlw.go.jp/45/index.php?action_kouhyou_detail_004_kani=true&JigyosyoCd=4560190094-00&ServiceCd=130&Type=search", "url2": null }, "geometry": { "type": "Point", "coordinates": [ 131.452449563875945, 31.92201061619329 ] } },
{ "type": "Feature", "properties": { "内容": "古賀訪問看護ステーションあおぞら【訪問看護】宮崎県宮崎市池内町数太木1763-3", "url": "https://www.kaigokensaku.mhlw.go.jp/45/index.php?action_kouhyou_detail_004_kani=true&JigyosyoCd=4560190045-00&ServiceCd=130&Type=search", "url2": "http://www.kgh.or.jp/" }, "geometry": { "type": "Point", "coordinates": [ 131.41023456613155, 31.972711314410173 ] } },
{ "type": "Feature", "properties": { "内容": "独立行政法人地域医療機能推進機構宮崎江南病院附属訪問看護ステーション【訪問看護】宮崎市大坪西１丁目２－１", "url": "https://www.kaigokensaku.mhlw.go.jp/45/index.php?action_kouhyou_detail_004_kani=true&JigyosyoCd=4560190169-00&ServiceCd=130&Type=search", "url2": "https://miyazaki.jcho.go.jp/houmon/" }, "geometry": { "type": "Point", "coordinates": [ 131.404973499999983, 31.8962016 ] } },
{ "type": "Feature", "properties": { "内容": "訪問看護ステーションさくらの花【訪問看護】宮崎県宮崎市大字本郷北方2994番地", "url": "https://www.kaigokensaku.mhlw.go.jp/45/index.php?action_kouhyou_detail_004_kani=true&JigyosyoCd=4560190219-00&ServiceCd=130&Type=search", "url2": null }, "geometry": { "type": "Point", "coordinates": [ 131.418940300000031, 31.8732239 ] } },
{ "type": "Feature", "properties": { "内容": "訪問看護ステーション燦久寿【訪問看護】宮崎県宮崎市大字小松301-1", "url": "https://www.kaigokensaku.mhlw.go.jp/45/index.php?action_kouhyou_detail_004_kani=true&JigyosyoCd=4560190482-00&ServiceCd=130&Type=search", "url2": null }, "geometry": { "type": "Point", "coordinates": [ 131.402383524282897, 31.941898851787805 ] } },
{ "type": "Feature", "properties": { "内容": "セントケア訪問看護ステーション宮崎【訪問看護】宮崎市祇園2丁目23-2", "url": "https://www.kaigokensaku.mhlw.go.jp/45/index.php?action_kouhyou_detail_004_kani=true&JigyosyoCd=4560190383-00&ServiceCd=130&Type=search", "url2": null }, "geometry": { "type": "Point", "coordinates": [ 131.409372722198441, 31.928654753514287 ] } },
{ "type": "Feature", "properties": { "内容": "ココロとカラダのリハビリステーションほのか【訪問看護】清武町岡1丁目14-4", "url": "https://www.kaigokensaku.mhlw.go.jp/45/index.php?action_kouhyou_detail_004_kani=true&JigyosyoCd=4560190698-00&ServiceCd=130&Type=search", "url2": "http://honoka-miyazaki.jp" }, "geometry": { "type": "Point", "coordinates": [ 131.3892796, 31.8505447 ] } },
{ "type": "Feature", "properties": { "内容": "訪問ケア・ステーションにじ【訪問看護】清武町西新町11-6エスペランザ清武103", "url": "https://www.kaigokensaku.mhlw.go.jp/45/index.php?action_kouhyou_detail_004_kani=true&JigyosyoCd=4560191001-00&ServiceCd=130&Type=search", "url2": "http://hp.kaipoke.biz/8sb" }, "geometry": { "type": "Point", "coordinates": [ 131.3899008, 31.853059 ] } },
{ "type": "Feature", "properties": { "内容": "あいず訪問看護ステーション宮崎【訪問看護】宮崎市大塚町乱橋4551-1ユーワホームズビル1階", "url": "https://www.kaigokensaku.mhlw.go.jp/45/index.php?action_kouhyou_detail_004_kani=true&JigyosyoCd=4560190755-00&ServiceCd=130&Type=search", "url2": "http://aizu-company.co.jp" }, "geometry": { "type": "Point", "coordinates": [ 131.39333255271228, 31.907143728929757 ] } },
{ "type": "Feature", "properties": { "内容": "ざいたくかんごすてら【訪問看護】宮崎県宮崎市源藤町原田３６８－1串間ビル401", "url": "https://www.kaigokensaku.mhlw.go.jp/45/index.php?action_kouhyou_detail_004_kani=true&JigyosyoCd=4560191035-00&ServiceCd=130&Type=search", "url2": null }, "geometry": { "type": "Point", "coordinates": [ 131.415039299999989, 31.8878276 ] } },
{ "type": "Feature", "properties": { "内容": "訪問看護ステーション　ベスト【訪問看護】宮崎県宮崎市柳丸町237-1", "url": "https://www.kaigokensaku.mhlw.go.jp/45/index.php?action_kouhyou_detail_004_kani=true&JigyosyoCd=4560190888-00&ServiceCd=130&Type=search", "url2": "https://www.best-inc.jp/" }, "geometry": { "type": "Point", "coordinates": [ 131.4378320699862, 31.926575401552761 ] } },
{ "type": "Feature", "properties": { "内容": "訪問看護なちゅらる【訪問看護】宮崎県宮崎市宮崎駅東3丁目2番2号Serio２０３号室", "url": "https://www.kaigokensaku.mhlw.go.jp/45/index.php?action_kouhyou_detail_004_kani=true&JigyosyoCd=4560190839-00&ServiceCd=130&Type=search", "url2": "https://www.rarabond.com" }, "geometry": { "type": "Point", "coordinates": [ 131.4340516, 31.917977 ] } },
{ "type": "Feature", "properties": { "内容": "訪問看護ステーション夢紡ぎ【訪問看護】宮崎県宮崎市恒久3丁目30番地24", "url": "https://www.kaigokensaku.mhlw.go.jp/45/index.php?action_kouhyou_detail_004_kani=true&JigyosyoCd=4560190987-00&ServiceCd=130&Type=search", "url2": "https://yume-tsumugi.com/" }, "geometry": { "type": "Point", "coordinates": [ 131.430265100000014, 31.8919878 ] } },
{ "type": "Feature", "properties": { "内容": "訪問看護ステーションれいんぼう【訪問看護】宮崎県宮崎市和知川原２丁目２５－１れいんぼう会館内", "url": "https://www.kaigokensaku.mhlw.go.jp/45/index.php?action_kouhyou_detail_004_kani=true&JigyosyoCd=4560190029-00&ServiceCd=130&Type=search", "url2": "https://www.miyazaki-iryou.coop/nursing/facility_01_01/" }, "geometry": { "type": "Point", "coordinates": [ 131.411605300000019, 31.923688 ] } },
{ "type": "Feature", "properties": { "内容": "訪問看護ステーション　FESTA宮崎【訪問看護】宮崎県宮崎市源藤町葉山２６３番地４葉山マンション６０３号", "url": "https://www.kaigokensaku.mhlw.go.jp/45/index.php?action_kouhyou_detail_004_kani=true&JigyosyoCd=4560190680-00&ServiceCd=130&Type=search", "url2": "https://www.festamiyazaki.com/" }, "geometry": { "type": "Point", "coordinates": [ 131.413444128974902, 31.887460924357768 ] } },
{ "type": "Feature", "properties": { "内容": "太陽訪問看護リハビリステーション宮崎【訪問看護】江平東町6-14", "url": "https://www.kaigokensaku.mhlw.go.jp/45/index.php?action_kouhyou_detail_004_kani=true&JigyosyoCd=4560190854-00&ServiceCd=130&Type=search", "url2": "https://peraichi.com/landing_pages/view/taiyomiyazaki" }, "geometry": { "type": "Point", "coordinates": [ 131.4300919, 31.9260091 ] } },
{ "type": "Feature", "properties": { "内容": "訪問看護リハビリステーション　はんもっく【訪問看護】宮崎県宮崎市新別府町前浜1401番地267", "url": "https://www.kaigokensaku.mhlw.go.jp/45/index.php?action_kouhyou_detail_004_kani=true&JigyosyoCd=4560190748-00&ServiceCd=130&Type=search", "url2": "http://seibikai-group.or.jp/misei/hanmokku/index.html" }, "geometry": { "type": "Point", "coordinates": [ 131.459029099999981, 31.9221594 ] } },
{ "type": "Feature", "properties": { "内容": "訪問看護ステーションぱりおん【訪問看護】橘通東3丁目1-31ホームホスピス宮崎", "url": "https://www.kaigokensaku.mhlw.go.jp/45/index.php?action_kouhyou_detail_004_kani=true&JigyosyoCd=4570107781-00&ServiceCd=130&Type=search", "url2": "https://www.hale-tachibana.jp/" }, "geometry": { "type": "Point", "coordinates": [ 131.424401597226222, 31.913358237286527 ] } },
{ "type": "Feature", "properties": { "内容": "訪問看護ステーション　えんむすび【訪問看護】宮崎県宮崎市大字島之内6717番地１", "url": "https://www.kaigokensaku.mhlw.go.jp/45/index.php?action_kouhyou_detail_004_kani=true&JigyosyoCd=4560191159-00&ServiceCd=130&Type=search", "url2": null }, "geometry": { "type": "Point", "coordinates": [ 131.4474875, 31.9835843 ] } },
{ "type": "Feature", "properties": { "内容": "宮崎県看護協会訪問看護ステーションなでしこ２号館【訪問看護】宮崎県宮崎市佐土原町下田島12220-9", "url": "https://www.kaigokensaku.mhlw.go.jp/45/index.php?action_kouhyou_detail_004_kani=true&JigyosyoCd=4560190268-00&ServiceCd=130&Type=search", "url2": "http://www.m-kango.or.jp/" }, "geometry": { "type": "Point", "coordinates": [ 131.469264122090152, 32.03758300207965 ] } },
{ "type": "Feature", "properties": { "内容": "訪問看護ステーション　GLEEE【訪問看護】宮崎県宮崎市稗原町19番地岩切事務所２階", "url": "https://www.kaigokensaku.mhlw.go.jp/45/index.php?action_kouhyou_detail_004_kani=true&JigyosyoCd=4560191050-00&ServiceCd=130&Type=search", "url2": "http://futaba-gr.co.jp/" }, "geometry": { "type": "Point", "coordinates": [ 131.450060799999989, 31.9073734 ] } },
{ "type": "Feature", "properties": { "内容": "訪問看護ステーションこみどり【訪問看護】宮崎県宮崎市熊野470-2", "url": "https://www.kaigokensaku.mhlw.go.jp/45/index.php?action_kouhyou_detail_004_kani=true&JigyosyoCd=4560190110-00&ServiceCd=130&Type=search", "url2": "g-houmon@green-care.net" }, "geometry": { "type": "Point", "coordinates": [ 131.438523300000043, 31.8282468 ] } },
{ "type": "Feature", "properties": { "内容": "訪問看護ステーションTOMO宮崎【訪問看護】宮崎市阿波岐原町前浜4276-673", "url": "https://www.kaigokensaku.mhlw.go.jp/45/index.php?action_kouhyou_detail_004_kani=true&JigyosyoCd=4560190409-00&ServiceCd=130&Type=search", "url2": "http://human-loop.com/" }, "geometry": { "type": "Point", "coordinates": [ 131.463445064556936, 31.944014981561889 ] } },
{ "type": "Feature", "properties": { "内容": "訪問看護ステーションつむぎ【訪問看護】宮崎県宮崎市佐土原町下田島20312番地32", "url": "https://www.kaigokensaku.mhlw.go.jp/45/index.php?action_kouhyou_detail_004_kani=true&JigyosyoCd=4560191100-00&ServiceCd=130&Type=search", "url2": "https://kokorocare.co.jp/" }, "geometry": { "type": "Point", "coordinates": [ 131.47255198888746, 32.016387778965886 ] } },
{ "type": "Feature", "properties": { "内容": "訪問看護ステーション翔【訪問看護】宮崎県宮崎市本郷北方2708ケアタウン飛鳥内", "url": "https://www.kaigokensaku.mhlw.go.jp/45/index.php?action_kouhyou_detail_004_kani=true&JigyosyoCd=4560190417-00&ServiceCd=130&Type=search", "url2": "http://www.hijiri.biz" }, "geometry": { "type": "Point", "coordinates": [ 131.411926699999981, 31.8746928 ] } },
{ "type": "Feature", "properties": { "内容": "訪問看護ステーションＣＡＮ【訪問看護】大字島之内6321-2清田アパート201号室", "url": "https://www.kaigokensaku.mhlw.go.jp/45/index.php?action_kouhyou_detail_004_kani=true&JigyosyoCd=4560191225-00&ServiceCd=130&Type=search", "url2": "http://h-can.info" }, "geometry": { "type": "Point", "coordinates": [ 131.4443656, 31.978075499999974 ] } },
{ "type": "Feature", "properties": { "内容": "訪問看護ステーション　栞【訪問看護】宮崎県宮崎市大塚町乱橋4506番地4アメニティ大塚II102号", "url": "https://www.kaigokensaku.mhlw.go.jp/45/index.php?action_kouhyou_detail_004_kani=true&JigyosyoCd=4560191290-00&ServiceCd=130&Type=search", "url2": "houkanshiori.wixsite.com/houkan-shiori" }, "geometry": { "type": "Point", "coordinates": [ 131.3909578, 31.9062705 ] } },
{ "type": "Feature", "properties": { "内容": "訪問看護ステーション葵【訪問看護】大字柏原4251F", "url": "https://www.kaigokensaku.mhlw.go.jp/45/index.php?action_kouhyou_detail_004_kani=true&JigyosyoCd=4560190466-00&ServiceCd=130&Type=search", "url2": null }, "geometry": { "type": "Point", "coordinates": [ 131.369059665606756, 31.935426982041424 ] } },
{ "type": "Feature", "properties": { "内容": "一般財団法人弘潤会　訪問看護ステーションのびやか【訪問看護】宮崎県宮崎市村角町北田134-6", "url": "https://www.kaigokensaku.mhlw.go.jp/45/index.php?action_kouhyou_detail_004_kani=true&JigyosyoCd=4560190391-00&ServiceCd=130&Type=search", "url2": "http://www.koujunkai.jp/" }, "geometry": { "type": "Point", "coordinates": [ 131.446057332224314, 31.957588383176127 ] } },
{ "type": "Feature", "properties": { "内容": "訪問看護ステーション　福笑実【訪問看護】宮崎県宮崎市大字芳士584-2　2F", "url": "https://www.kaigokensaku.mhlw.go.jp/45/index.php?action_kouhyou_detail_004_kani=true&JigyosyoCd=4560191423-00&ServiceCd=130&Type=search", "url2": "https://hukuwa-miyazaki.com/" }, "geometry": { "type": "Point", "coordinates": [ 131.4380131, 31.9660738 ] } },
{ "type": "Feature", "properties": { "内容": "あいず訪問看護ステーションしょうわ町【訪問看護】昭和町76番地2Nビル2階", "url": "https://www.kaigokensaku.mhlw.go.jp/45/index.php?action_kouhyou_detail_004_kani=true&JigyosyoCd=4560191068-00&ServiceCd=130&Type=search", "url2": null }, "geometry": { "type": "Point", "coordinates": [ 135.5175357, 34.6288421 ] } },
{ "type": "Feature", "properties": { "内容": "医療法人啓仁会　城南病院　訪問看護【訪問看護】宮崎県都城市大王町30街区5号", "url": "https://www.kaigokensaku.mhlw.go.jp/45/index.php?action_kouhyou_detail_004_kani=true&JigyosyoCd=4510210208-00&ServiceCd=130&Type=search", "url2": "johnan-hp.or.jp" }, "geometry": { "type": "Point", "coordinates": [ 131.064146, 31.733334 ] } },
{ "type": "Feature", "properties": { "内容": "医療法人（社団）仮屋医院【訪問看護】宮崎県都城市上水流町２３４８番地", "url": "https://www.kaigokensaku.mhlw.go.jp/45/index.php?action_kouhyou_detail_004_kani=true&JigyosyoCd=4510211636-00&ServiceCd=130&Type=search", "url2": null }, "geometry": { "type": "Point", "coordinates": [ 131.095119299999965, 31.8118913 ] } },
{ "type": "Feature", "properties": { "内容": "訪問看護ステーション　来夢【訪問看護】宮崎県都城市山之口町冨吉2813-2", "url": "https://www.kaigokensaku.mhlw.go.jp/45/index.php?action_kouhyou_detail_004_kani=true&JigyosyoCd=4560290274-00&ServiceCd=130&Type=search", "url2": "http://demidemi47.wix.com/mysite" }, "geometry": { "type": "Point", "coordinates": [ 131.144980700000019, 31.7766737 ] } },
{ "type": "Feature", "properties": { "内容": "訪問看護ステーションかえで【訪問看護】宮崎県都城市五十町１６９４－２", "url": "https://www.kaigokensaku.mhlw.go.jp/45/index.php?action_kouhyou_detail_004_kani=true&JigyosyoCd=4560290076-00&ServiceCd=130&Type=search", "url2": null }, "geometry": { "type": "Point", "coordinates": [ 131.0395433, 31.7134155 ] } },
{ "type": "Feature", "properties": { "内容": "訪問看護ステーション　リボン【訪問看護】宮崎県都城市郡元町2772番地", "url": "https://www.kaigokensaku.mhlw.go.jp/45/index.php?action_kouhyou_detail_004_kani=true&JigyosyoCd=4560290522-00&ServiceCd=130&Type=search", "url2": null }, "geometry": { "type": "Point", "coordinates": [ 131.100835204124451, 31.741124365133249 ] } },
{ "type": "Feature", "properties": { "内容": "訪問看護リハビリステーション　オールグリーン【訪問看護】若葉町73-6", "url": "https://www.kaigokensaku.mhlw.go.jp/45/index.php?action_kouhyou_detail_004_kani=true&JigyosyoCd=4560290514-00&ServiceCd=130&Type=search", "url2": "https://goodsignal.net" }, "geometry": { "type": "Point", "coordinates": [ 140.8636094, 37.052219 ] } },
{ "type": "Feature", "properties": { "内容": "訪問看護ステーション　エール【訪問看護】宮崎県都城市横市町5876番地9", "url": "https://www.kaigokensaku.mhlw.go.jp/45/index.php?action_kouhyou_detail_004_kani=true&JigyosyoCd=4560290282-00&ServiceCd=130&Type=search", "url2": "https://totalcareservice.info/" }, "geometry": { "type": "Point", "coordinates": [ 131.037017600000013, 31.754603 ] } },
{ "type": "Feature", "properties": { "内容": "訪問看護ステーション優和【訪問看護】宮崎県都城市早水町34号4番地1ひまわりマンション101号室", "url": "https://www.kaigokensaku.mhlw.go.jp/45/index.php?action_kouhyou_detail_004_kani=true&JigyosyoCd=4560290548-00&ServiceCd=130&Type=search", "url2": "http://yuwa-omoiyari.co.jp" }, "geometry": { "type": "Point", "coordinates": [ 131.099682300000012, 31.7332252 ] } },
{ "type": "Feature", "properties": { "内容": "藤元総合訪問看護ステーション【訪問看護】宮崎県都城市早鈴町17街区1号", "url": "https://www.kaigokensaku.mhlw.go.jp/45/index.php?action_kouhyou_detail_004_kani=true&JigyosyoCd=4560290027-00&ServiceCd=130&Type=search", "url2": "www.fujimoto.com" }, "geometry": { "type": "Point", "coordinates": [ 131.070726400000012, 31.7195655 ] } },
{ "type": "Feature", "properties": { "内容": "訪問看護ステーション笑歩【訪問看護】宮崎県都城市年見町4-15", "url": "https://www.kaigokensaku.mhlw.go.jp/45/index.php?action_kouhyou_detail_004_kani=true&JigyosyoCd=4560290399-00&ServiceCd=130&Type=search", "url2": "http://hp.kaipoke.biz/fh9/" }, "geometry": { "type": "Point", "coordinates": [ 131.083300457556987, 31.733179912674963 ] } },
{ "type": "Feature", "properties": { "内容": "訪問看護ステーションふるる【訪問看護】宮崎県都城市安久町5596番地3", "url": "https://www.kaigokensaku.mhlw.go.jp/45/index.php?action_kouhyou_detail_004_kani=true&JigyosyoCd=4560290290-00&ServiceCd=130&Type=search", "url2": null }, "geometry": { "type": "Point", "coordinates": [ 131.079418135594437, 31.688466122259204 ] } },
{ "type": "Feature", "properties": { "内容": "訪問看護ステーションにこケア【訪問看護】宮崎県都城市年見町22-1-2", "url": "https://www.kaigokensaku.mhlw.go.jp/45/index.php?action_kouhyou_detail_004_kani=true&JigyosyoCd=4560290555-00&ServiceCd=130&Type=search", "url2": null }, "geometry": { "type": "Point", "coordinates": [ 131.087281879762259, 31.731928561309001 ] } },
{ "type": "Feature", "properties": { "内容": "訪問看護ステーション　Dream【訪問看護】宮崎県都城市金田町　2135番地2", "url": "https://www.kaigokensaku.mhlw.go.jp/45/index.php?action_kouhyou_detail_004_kani=true&JigyosyoCd=4560290530-00&ServiceCd=130&Type=search", "url2": null }, "geometry": { "type": "Point", "coordinates": [ 131.0847348, 31.7665364 ] } },
{ "type": "Feature", "properties": { "内容": "庄内の杜　にじの花訪問看護ST【訪問看護】宮崎県都城市庄内町8610番地", "url": "https://www.kaigokensaku.mhlw.go.jp/45/index.php?action_kouhyou_detail_004_kani=true&JigyosyoCd=4560290431-00&ServiceCd=130&Type=search", "url2": null }, "geometry": { "type": "Point", "coordinates": [ 131.020726499999967, 31.7695414 ] } },
{ "type": "Feature", "properties": { "内容": "三州訪問看護ステーションもも【訪問看護】宮崎県都城市花繰町3街区14号", "url": "https://www.kaigokensaku.mhlw.go.jp/45/index.php?action_kouhyou_detail_004_kani=true&JigyosyoCd=4560290365-00&ServiceCd=130&Type=search", "url2": "http://www.sanshu.org" }, "geometry": { "type": "Point", "coordinates": [ 131.081134, 31.7257603 ] } },
{ "type": "Feature", "properties": { "内容": "くぼはら　訪問看護ステーション【訪問看護】都城市平塚町３１７２－１", "url": "https://www.kaigokensaku.mhlw.go.jp/45/index.php?action_kouhyou_detail_004_kani=true&JigyosyoCd=4560290241-00&ServiceCd=130&Type=search", "url2": null }, "geometry": { "type": "Point", "coordinates": [ 131.018909600000029, 31.7180591 ] } },
{ "type": "Feature", "properties": { "内容": "都城市郡医師会立訪問看護ステーション【訪問看護】宮崎県都城市太郎坊町1364番地1", "url": "https://www.kaigokensaku.mhlw.go.jp/45/index.php?action_kouhyou_detail_004_kani=true&JigyosyoCd=4560290050-00&ServiceCd=130&Type=search", "url2": "https://miyakonojo-ishikai.jp/nurse" }, "geometry": { "type": "Point", "coordinates": [ 131.085668369898229, 31.780189344852214 ] } },
{ "type": "Feature", "properties": { "内容": "訪問看護ステーションゼロワン【訪問看護】宮崎県都城市松元町11－13", "url": "https://www.kaigokensaku.mhlw.go.jp/45/index.php?action_kouhyou_detail_004_kani=true&JigyosyoCd=4560290415-00&ServiceCd=130&Type=search", "url2": "https://01station.com" }, "geometry": { "type": "Point", "coordinates": [ 131.0581659, 31.723610099999984 ] } },
{ "type": "Feature", "properties": { "内容": "訪問看護ステーションのぞみ【訪問看護】宮崎県都城市下長飯町1609番地", "url": "https://www.kaigokensaku.mhlw.go.jp/45/index.php?action_kouhyou_detail_004_kani=true&JigyosyoCd=4560290019-00&ServiceCd=130&Type=search", "url2": "http://www.houei-group.or.jp/" }, "geometry": { "type": "Point", "coordinates": [ 131.069433033352681, 31.700679824497993 ] } },
{ "type": "Feature", "properties": { "内容": "ray訪問看護ステーション都城【訪問看護】宮崎県都城市早水町９－２－１２階", "url": "https://www.kaigokensaku.mhlw.go.jp/45/index.php?action_kouhyou_detail_004_kani=true&JigyosyoCd=4560290423-00&ServiceCd=130&Type=search", "url2": "https://www.lightray-web.com/" }, "geometry": { "type": "Point", "coordinates": [ 131.091857, 31.7329449 ] } },
{ "type": "Feature", "properties": { "内容": "訪問看護ステーションことぶき【訪問看護】宮崎県都城市松元町15街区10号", "url": "https://www.kaigokensaku.mhlw.go.jp/45/index.php?action_kouhyou_detail_004_kani=true&JigyosyoCd=4560290035-00&ServiceCd=130&Type=search", "url2": "https://konnichiwa-center.com" }, "geometry": { "type": "Point", "coordinates": [ 131.059378312164313, 31.725066350884536 ] } },
{ "type": "Feature", "properties": { "内容": "訪問看護ステーション紬【訪問看護】宮崎県都城市立野町3633番地1", "url": "https://www.kaigokensaku.mhlw.go.jp/45/index.php?action_kouhyou_detail_004_kani=true&JigyosyoCd=4560290472-00&ServiceCd=130&Type=search", "url2": null }, "geometry": { "type": "Point", "coordinates": [ 131.1038763, 31.7306011 ] } },
{ "type": "Feature", "properties": { "内容": "訪問看護ステーション　ひだまり【訪問看護】志比田町4539番地1", "url": "https://www.kaigokensaku.mhlw.go.jp/45/index.php?action_kouhyou_detail_004_kani=true&JigyosyoCd=4560290373-00&ServiceCd=130&Type=search", "url2": null }, "geometry": { "type": "Point", "coordinates": [ 131.051770382803454, 31.741785810250065 ] } },
{ "type": "Feature", "properties": { "内容": "訪問看護ステーションTOMO都城【訪問看護】宮崎県都城市金田町2720", "url": "https://www.kaigokensaku.mhlw.go.jp/45/index.php?action_kouhyou_detail_004_kani=true&JigyosyoCd=4560290340-00&ServiceCd=130&Type=search", "url2": "http://human-loop.com/" }, "geometry": { "type": "Point", "coordinates": [ 131.078794236950245, 31.780352482602279 ] } },
{ "type": "Feature", "properties": { "内容": "訪問看護ステーションcocoro美【訪問看護】宮崎県都城市上長飯町58号13番地", "url": "https://www.kaigokensaku.mhlw.go.jp/45/index.php?action_kouhyou_detail_004_kani=true&JigyosyoCd=4560290407-00&ServiceCd=130&Type=search", "url2": "https://cocoromi-nurse.com/" }, "geometry": { "type": "Point", "coordinates": [ 131.090562793900432, 31.717554852708982 ] } },
{ "type": "Feature", "properties": { "内容": "訪問看護ステーションほほえみの園【訪問看護】宮崎県都城市上長飯町5-1", "url": "https://www.kaigokensaku.mhlw.go.jp/45/index.php?action_kouhyou_detail_004_kani=true&JigyosyoCd=4560290308-00&ServiceCd=130&Type=search", "url2": "https://smilehohoemi.com/" }, "geometry": { "type": "Point", "coordinates": [ 131.082478000427386, 31.719218858617353 ] } },
{ "type": "Feature", "properties": { "内容": "訪問看護ステーション元気【訪問看護】宮崎県都城市上川東二丁目４号１３番地", "url": "https://www.kaigokensaku.mhlw.go.jp/45/index.php?action_kouhyou_detail_004_kani=true&JigyosyoCd=4560290266-00&ServiceCd=130&Type=search", "url2": "https://sun3.jp/nisinihon/st-genki/" }, "geometry": { "type": "Point", "coordinates": [ 131.06572149312683, 31.745173192433004 ] } },
{ "type": "Feature", "properties": { "内容": "訪問看護ステーション　優癒【訪問看護】宮崎県都城市高城町大井手字佐土原大道2167番地41", "url": "https://www.kaigokensaku.mhlw.go.jp/45/index.php?action_kouhyou_detail_004_kani=true&JigyosyoCd=4560290233-00&ServiceCd=130&Type=search", "url2": "https://thoughtful-yuyu.com" }, "geometry": { "type": "Point", "coordinates": [ 131.142183100000011, 31.7984634 ] } },
{ "type": "Feature", "properties": { "内容": "訪問看護ステーションおうち生活応援団　都城事業所【訪問看護】宮崎県都城市中原町1街区10号2F", "url": "https://www.kaigokensaku.mhlw.go.jp/45/index.php?action_kouhyou_detail_004_kani=true&JigyosyoCd=4560290456-00&ServiceCd=130&Type=search", "url2": null }, "geometry": { "type": "Point", "coordinates": [ 131.0730263, 31.7247492 ] } },
{ "type": "Feature", "properties": { "内容": "訪問看護ステーションさくら【訪問看護】宮崎県都城市高城町穂満坊1448-5三原貸家1号室", "url": "https://www.kaigokensaku.mhlw.go.jp/45/index.php?action_kouhyou_detail_004_kani=true&JigyosyoCd=4560290506-00&ServiceCd=130&Type=search", "url2": "https://jpkango.co.jp/sakura" }, "geometry": { "type": "Point", "coordinates": [ 131.125770328236939, 31.806320298016811 ] } },
{ "type": "Feature", "properties": { "内容": "訪問看護ステーション　La・fu【訪問看護】高崎町大牟田1899-6", "url": "https://www.kaigokensaku.mhlw.go.jp/45/index.php?action_kouhyou_detail_004_kani=true&JigyosyoCd=4560290464-00&ServiceCd=130&Type=search", "url2": null }, "geometry": { "type": "Point", "coordinates": [ 131.0780249, 31.8699899 ] } },
{ "type": "Feature", "properties": { "内容": "訪問看護ステーション　ハート【訪問看護】宮崎県都城市上東町1-12-2", "url": "https://www.kaigokensaku.mhlw.go.jp/45/index.php?action_kouhyou_detail_004_kani=true&JigyosyoCd=4560290498-00&ServiceCd=130&Type=search", "url2": "https://houkan-heart.com" }, "geometry": { "type": "Point", "coordinates": [ 131.074349811222845, 31.724250712956881 ] } },
{ "type": "Feature", "properties": { "内容": "Ｎ‐ｒｅｈａ訪問看護ステーション【訪問看護】南横市町3730－13", "url": "https://www.kaigokensaku.mhlw.go.jp/45/index.php?action_kouhyou_detail_004_kani=true&JigyosyoCd=4560290571-00&ServiceCd=130&Type=search", "url2": "n-reha-visiting.com" }, "geometry": { "type": "Point", "coordinates": [ 131.0338561, 31.7400502 ] } },
{ "type": "Feature", "properties": { "内容": "訪問看護ステーションはっぴー【訪問看護】宮崎県都城市南横市町3885-2", "url": "https://www.kaigokensaku.mhlw.go.jp/45/index.php?action_kouhyou_detail_004_kani=true&JigyosyoCd=4560290381-00&ServiceCd=130&Type=search", "url2": "https://peaceofmind-happy.jp/" }, "geometry": { "type": "Point", "coordinates": [ 131.0322212, 31.7450044 ] } },
{ "type": "Feature", "properties": { "内容": "リハケアステーション都城【訪問看護】宮崎県都城市上長飯町３８号１番地", "url": "https://www.kaigokensaku.mhlw.go.jp/45/index.php?action_kouhyou_detail_004_kani=true&JigyosyoCd=4560290142-00&ServiceCd=130&Type=search", "url2": "http://rehacare-will.jp" }, "geometry": { "type": "Point", "coordinates": [ 131.089880427647387, 31.718134256267405 ] } },
{ "type": "Feature", "properties": { "内容": "訪問看護ステーション　太陽の里【訪問看護】宮崎県延岡市出北４丁目２４３７番地", "url": "https://www.kaigokensaku.mhlw.go.jp/45/index.php?action_kouhyou_detail_004_kani=true&JigyosyoCd=4560390256-00&ServiceCd=130&Type=search", "url2": null }, "geometry": { "type": "Point", "coordinates": [ 131.681705599999987, 32.571492 ] } },
{ "type": "Feature", "properties": { "内容": "医療法人隆誠会訪問看護ステーションはまゆり【訪問看護】宮崎県延岡市緑ヶ丘5丁目2番22号", "url": "https://www.kaigokensaku.mhlw.go.jp/45/index.php?action_kouhyou_detail_004_kani=true&JigyosyoCd=4560390058-00&ServiceCd=130&Type=search", "url2": "ryuseikai.com" }, "geometry": { "type": "Point", "coordinates": [ 131.679493, 32.545977 ] } },
{ "type": "Feature", "properties": { "内容": "訪問看護ステーションひとしずく【訪問看護】宮崎県延岡市塩浜町2丁目1858番7", "url": "https://www.kaigokensaku.mhlw.go.jp/45/index.php?action_kouhyou_detail_004_kani=true&JigyosyoCd=4560390132-00&ServiceCd=130&Type=search", "url2": "http://houkanhitoshizuku.web.fc2.com/" }, "geometry": { "type": "Point", "coordinates": [ 131.673345555181982, 32.54273441155938 ] } },
{ "type": "Feature", "properties": { "内容": "ゆめの木訪問看護ステ-ション【訪問看護】宮崎県延岡市高千穂通４－８", "url": "https://www.kaigokensaku.mhlw.go.jp/45/index.php?action_kouhyou_detail_004_kani=true&JigyosyoCd=4570302796-00&ServiceCd=130&Type=search", "url2": "http://www.npo-yumenoki.com/" }, "geometry": { "type": "Point", "coordinates": [ 131.665910807616143, 32.586176361119485 ] } },
{ "type": "Feature", "properties": { "内容": "セントケア訪問看護ステーション延岡【訪問看護】延岡市緑ヶ丘5丁目11-25", "url": "https://www.kaigokensaku.mhlw.go.jp/45/index.php?action_kouhyou_detail_004_kani=true&JigyosyoCd=4560390090-00&ServiceCd=130&Type=search", "url2": null }, "geometry": { "type": "Point", "coordinates": [ 131.681623775849147, 32.547954522815822 ] } },
{ "type": "Feature", "properties": { "内容": "医療法人明石会曽根病院訪問看護ステ－ション【訪問看護】宮崎県延岡市大貫町5丁目", "url": "https://www.kaigokensaku.mhlw.go.jp/45/index.php?action_kouhyou_detail_004_kani=true&JigyosyoCd=4560390215-00&ServiceCd=130&Type=search", "url2": null }, "geometry": { "type": "Point", "coordinates": [ 131.64761942893432, 32.571657065727329 ] } },
{ "type": "Feature", "properties": { "内容": "訪問看護ステ－ションエクセルケア【訪問看護】宮崎県延岡市大貫町1-2850-1", "url": "https://www.kaigokensaku.mhlw.go.jp/45/index.php?action_kouhyou_detail_004_kani=true&JigyosyoCd=4560390033-00&ServiceCd=130&Type=search", "url2": "http://www.excel-life.jp/" }, "geometry": { "type": "Point", "coordinates": [ 131.655274, 32.5796358 ] } },
{ "type": "Feature", "properties": { "内容": "延岡リハビリテーション病院　訪問看護ステーション　はまかぜ【訪問看護】宮崎県延岡市長浜町1丁目１７７７番地延岡リハビリテーション病院内", "url": "https://www.kaigokensaku.mhlw.go.jp/45/index.php?action_kouhyou_detail_004_kani=true&JigyosyoCd=4560390207-00&ServiceCd=130&Type=search", "url2": "http://www.nobereha.junwakai.com" }, "geometry": { "type": "Point", "coordinates": [ 131.691088799999989, 32.5755352 ] } },
{ "type": "Feature", "properties": { "内容": "訪問看護ステーション　TOMO延岡【訪問看護】宮崎県延岡市野地町2丁目3602‐1", "url": "https://www.kaigokensaku.mhlw.go.jp/45/index.php?action_kouhyou_detail_004_kani=true&JigyosyoCd=4560390199-00&ServiceCd=130&Type=search", "url2": "http://human-loop.com/tomo-nobeoka" }, "geometry": { "type": "Point", "coordinates": [ 131.6745436, 32.5522088 ] } },
{ "type": "Feature", "properties": { "内容": "訪問看護ステーションあいの環【訪問看護】宮崎県延岡市無鹿町1-2233", "url": "https://www.kaigokensaku.mhlw.go.jp/45/index.php?action_kouhyou_detail_004_kani=true&JigyosyoCd=4560390223-00&ServiceCd=130&Type=search", "url2": null }, "geometry": { "type": "Point", "coordinates": [ 131.6874932, 32.6093455 ] } },
{ "type": "Feature", "properties": { "内容": "ニチイケアセンター西小路　訪問看護ステーション【訪問看護】宮崎県延岡市西小路6番地6", "url": "https://www.kaigokensaku.mhlw.go.jp/45/index.php?action_kouhyou_detail_004_kani=true&JigyosyoCd=4560390165-00&ServiceCd=130&Type=search", "url2": "http://www.nichiigakkan.co.jp/" }, "geometry": { "type": "Point", "coordinates": [ 131.663091201635808, 32.571725717740243 ] } },
{ "type": "Feature", "properties": { "内容": "訪問看護ステーション　陽のひかり【訪問看護】宮崎県延岡市塩浜町3丁目1795番地1", "url": "https://www.kaigokensaku.mhlw.go.jp/45/index.php?action_kouhyou_detail_004_kani=true&JigyosyoCd=4560390173-00&ServiceCd=130&Type=search", "url2": "https://www.hinohikari-vn.com/" }, "geometry": { "type": "Point", "coordinates": [ 131.674302610893164, 32.539394546790206 ] } },
{ "type": "Feature", "properties": { "内容": "訪問看護ステーションそれいゆ【訪問看護】宮崎県延岡市浜砂町1丁目５－６", "url": "https://www.kaigokensaku.mhlw.go.jp/45/index.php?action_kouhyou_detail_004_kani=true&JigyosyoCd=4560390025-00&ServiceCd=130&Type=search", "url2": "https://www.miyazaki-iryou.coop/" }, "geometry": { "type": "Point", "coordinates": [ 131.697983099999988, 32.5802836 ] } },
{ "type": "Feature", "properties": { "内容": "訪問看護ステーション真ごころ【訪問看護】宮崎県延岡市長浜町１丁目１７６５番地１", "url": "https://www.kaigokensaku.mhlw.go.jp/45/index.php?action_kouhyou_detail_004_kani=true&JigyosyoCd=4560390249-00&ServiceCd=130&Type=search", "url2": "shinga.or.jp" }, "geometry": { "type": "Point", "coordinates": [ 131.6913489, 32.5759131 ] } },
{ "type": "Feature", "properties": { "内容": "訪問看護ステーション　やさしい手【訪問看護】宮崎県延岡市野地町1丁目4070-1", "url": "https://www.kaigokensaku.mhlw.go.jp/45/index.php?action_kouhyou_detail_004_kani=true&JigyosyoCd=4560390181-00&ServiceCd=130&Type=search", "url2": "http://www.yu-ryu.co.jp/" }, "geometry": { "type": "Point", "coordinates": [ 131.643641965746696, 32.57469895267878 ] } },
{ "type": "Feature", "properties": { "内容": "訪問看護事業所しおり【訪問看護】宮崎県中島町2丁目174番地12訪問看護事業所しおり", "url": "https://www.kaigokensaku.mhlw.go.jp/45/index.php?action_kouhyou_detail_004_kani=true&JigyosyoCd=4560390231-00&ServiceCd=130&Type=search", "url2": null }, "geometry": { "type": "Point", "coordinates": [ 131.675308227647406, 32.579626597757091 ] } },
{ "type": "Feature", "properties": { "内容": "訪問看護事業者あたご【訪問看護】宮崎県延岡市中島町4丁目314番地介護老人保健施設のべおか老健あたご", "url": "https://www.kaigokensaku.mhlw.go.jp/45/index.php?action_kouhyou_detail_004_kani=true&JigyosyoCd=4560390140-00&ServiceCd=130&Type=search", "url2": "https://www.atago-seikei.com/" }, "geometry": { "type": "Point", "coordinates": [ 131.675497855759346, 32.576461893480392 ] } },
{ "type": "Feature", "properties": { "内容": "医療法人慶明会日南慶明会訪問看護ステーション【訪問看護】飫肥6丁目6番5号", "url": "https://www.kaigokensaku.mhlw.go.jp/45/index.php?action_kouhyou_detail_004_kani=true&JigyosyoCd=4570401515-00&ServiceCd=130&Type=search", "url2": null }, "geometry": { "type": "Point", "coordinates": [ 131.355180042273389, 31.623947369639588 ] } },
{ "type": "Feature", "properties": { "内容": "訪問看護ステーション笑生【訪問看護】宮崎県日南市吾田西3-10-23", "url": "https://www.kaigokensaku.mhlw.go.jp/45/index.php?action_kouhyou_detail_004_kani=true&JigyosyoCd=4560490122-00&ServiceCd=130&Type=search", "url2": "http://houmonkango-egao-co.jp" }, "geometry": { "type": "Point", "coordinates": [ 131.37073, 31.610986 ] } },
{ "type": "Feature", "properties": { "内容": "訪問看護事業所ブレイブマーリン【訪問看護】宮崎県日南市材木町2-222F", "url": "https://www.kaigokensaku.mhlw.go.jp/45/index.php?action_kouhyou_detail_004_kani=true&JigyosyoCd=4560490130-00&ServiceCd=130&Type=search", "url2": null }, "geometry": { "type": "Point", "coordinates": [ 131.400442, 31.5875995 ] } },
{ "type": "Feature", "properties": { "内容": "カエル訪問看護ステーション【訪問看護】宮崎県日南市吾田東九丁目1-30", "url": "https://www.kaigokensaku.mhlw.go.jp/45/index.php?action_kouhyou_detail_004_kani=true&JigyosyoCd=4560490106-00&ServiceCd=130&Type=search", "url2": "http://hp.kaipoke.biz/4g9/" }, "geometry": { "type": "Point", "coordinates": [ 131.3752955, 31.611127 ] } },
{ "type": "Feature", "properties": { "内容": "なないろ訪問看護ステーション【訪問看護】宮崎県日南市吾田西3-8-23", "url": "https://www.kaigokensaku.mhlw.go.jp/45/index.php?action_kouhyou_detail_004_kani=true&JigyosyoCd=4560490080-00&ServiceCd=130&Type=search", "url2": "https://agata-gakuen.com/nanairo/" }, "geometry": { "type": "Point", "coordinates": [ 131.371565803041108, 31.609602130453371 ] } },
{ "type": "Feature", "properties": { "内容": "はまぼう訪問看護ステーション【訪問看護】宮崎県日南市大字下方１３７６番地４", "url": "https://www.kaigokensaku.mhlw.go.jp/45/index.php?action_kouhyou_detail_004_kani=true&JigyosyoCd=4560490049-00&ServiceCd=130&Type=search", "url2": null }, "geometry": { "type": "Point", "coordinates": [ 131.37536654357757, 31.564994397724263 ] } },
{ "type": "Feature", "properties": { "内容": "日南市立中部病院【訪問看護】宮崎県日南市大堂津五丁目10番1号", "url": "https://www.kaigokensaku.mhlw.go.jp/45/index.php?action_kouhyou_detail_004_kani=true&JigyosyoCd=4510411178-00&ServiceCd=130&Type=search", "url2": "https://chubu.city.nichinan.lg.jp" }, "geometry": { "type": "Point", "coordinates": [ 131.3797184, 31.5493342 ] } },
{ "type": "Feature", "properties": { "内容": "在宅看護センターReirNichinan【訪問看護】宮崎県日南市大字東弁分乙７２５番４", "url": "https://www.kaigokensaku.mhlw.go.jp/45/index.php?action_kouhyou_detail_004_kani=true&JigyosyoCd=4560490155-00&ServiceCd=130&Type=search", "url2": "https://reir2016.org/" }, "geometry": { "type": "Point", "coordinates": [ 131.3920443, 31.6239626 ] } },
{ "type": "Feature", "properties": { "内容": "小林市立病院訪問看護ステーション【訪問看護】宮崎県小林市細野2235番地3", "url": "https://www.kaigokensaku.mhlw.go.jp/45/index.php?action_kouhyou_detail_004_kani=true&JigyosyoCd=4560590095-00&ServiceCd=130&Type=search", "url2": "https://kobayashi-city-hp.jp/" }, "geometry": { "type": "Point", "coordinates": [ 130.985342899999978, 31.9890655 ] } },
{ "type": "Feature", "properties": { "内容": "池井病院訪問看護ステーションひとみ【訪問看護】宮崎県小林市真方８７番地", "url": "https://www.kaigokensaku.mhlw.go.jp/45/index.php?action_kouhyou_detail_004_kani=true&JigyosyoCd=4560590020-00&ServiceCd=130&Type=search", "url2": null }, "geometry": { "type": "Point", "coordinates": [ 130.978198099999986, 31.996748 ] } },
{ "type": "Feature", "properties": { "内容": "訪問看護ステーション虹Life【訪問看護】宮崎県小林市細野4361番地1", "url": "https://www.kaigokensaku.mhlw.go.jp/45/index.php?action_kouhyou_detail_004_kani=true&JigyosyoCd=4560590103-00&ServiceCd=130&Type=search", "url2": null }, "geometry": { "type": "Point", "coordinates": [ 130.9637114, 31.9741218 ] } },
{ "type": "Feature", "properties": { "内容": "医療法人　けんゆう会　園田訪問看護ステーション【訪問看護】宮崎県小林市堤3005番地１園田訪問看護ステーション", "url": "https://www.kaigokensaku.mhlw.go.jp/45/index.php?action_kouhyou_detail_004_kani=true&JigyosyoCd=4560590053-00&ServiceCd=130&Type=search", "url2": "www.sonoda-hospital.jp" }, "geometry": { "type": "Point", "coordinates": [ 130.997615926458707, 31.983440621552507 ] } },
{ "type": "Feature", "properties": { "内容": "訪問看護ステーションなごみ【訪問看護】宮崎県小林市野尻町東麓1085-2訪問看護ステーションなごみ", "url": "https://www.kaigokensaku.mhlw.go.jp/45/index.php?action_kouhyou_detail_004_kani=true&JigyosyoCd=4570501124-00&ServiceCd=130&Type=search", "url2": "http://oshikawahp.com/visiting-nursing-station-nagomi/" }, "geometry": { "type": "Point", "coordinates": [ 131.09511623629723, 31.961587912273195 ] } },
{ "type": "Feature", "properties": { "内容": "公益社団法人宮崎県看護協会訪問看護ステーションなでしこ1号館【訪問看護】宮崎県小林市堤2260-1", "url": "https://www.kaigokensaku.mhlw.go.jp/45/index.php?action_kouhyou_detail_004_kani=true&JigyosyoCd=4560590012-00&ServiceCd=130&Type=search", "url2": "http://www.m-kanngo.or.jp/f-05.htm" }, "geometry": { "type": "Point", "coordinates": [ 130.999850739288377, 31.970577252612362 ] } },
{ "type": "Feature", "properties": { "内容": "訪問看護ステーション幸ちゃんの家【訪問看護】宮崎県小林市野尻町東麓2658-86", "url": "https://www.kaigokensaku.mhlw.go.jp/45/index.php?action_kouhyou_detail_004_kani=true&JigyosyoCd=4560590079-00&ServiceCd=130&Type=search", "url2": "http://yukichannoie.info/" }, "geometry": { "type": "Point", "coordinates": [ 131.083069, 31.9572391 ] } },
{ "type": "Feature", "properties": { "内容": "訪問看護ステーションおうち生活応援団　小林事業所【訪問看護】宮崎県小林市細野1217魁ビル105号", "url": "https://www.kaigokensaku.mhlw.go.jp/45/index.php?action_kouhyou_detail_004_kani=true&JigyosyoCd=4560590061-00&ServiceCd=130&Type=search", "url2": null }, "geometry": { "type": "Point", "coordinates": [ 130.965404412303172, 31.997991111121625 ] } },
{ "type": "Feature", "properties": { "内容": "社会福祉法人ときわ会訪問看護ステーションおじゃったもんせ【訪問看護】宮崎県小林市堤3702-2", "url": "https://www.kaigokensaku.mhlw.go.jp/45/index.php?action_kouhyou_detail_004_kani=true&JigyosyoCd=4560590087-00&ServiceCd=130&Type=search", "url2": "https://www.tokiwa-kai.or.jp" }, "geometry": { "type": "Point", "coordinates": [ 131.0086508, 31.961847 ] } },
{ "type": "Feature", "properties": { "内容": "訪問看護ステーション　夢の杜【訪問看護】野尻町東麓1170番地", "url": "https://www.kaigokensaku.mhlw.go.jp/45/index.php?action_kouhyou_detail_004_kani=true&JigyosyoCd=4560590046-00&ServiceCd=130&Type=search", "url2": "cgi.nojiri-ch.com" }, "geometry": { "type": "Point", "coordinates": [ 131.099397488360637, 31.961082552310039 ] } },
{ "type": "Feature", "properties": { "内容": "訪問看護ステーションrecoco【訪問看護】宮崎県小林市水流迫1047-5", "url": "https://www.kaigokensaku.mhlw.go.jp/45/index.php?action_kouhyou_detail_004_kani=true&JigyosyoCd=4560590111-00&ServiceCd=130&Type=search", "url2": "https://hitotsu-recoco-hp.netlify.app" }, "geometry": { "type": "Point", "coordinates": [ 130.990478300000035, 31.9982979 ] } },
{ "type": "Feature", "properties": { "内容": "訪問看護ステーションCalm日向【訪問看護】宮崎県日向市大字日知屋4726－3前畑コーソクテナント1階中央", "url": "https://www.kaigokensaku.mhlw.go.jp/45/index.php?action_kouhyou_detail_004_kani=true&JigyosyoCd=4560690101-00&ServiceCd=130&Type=search", "url2": "https://calm-houmon.com" }, "geometry": { "type": "Point", "coordinates": [ 131.648354417790983, 32.42752030841919 ] } },
{ "type": "Feature", "properties": { "内容": "訪問看護ステーション　エルプラス【訪問看護】宮崎県日向市都町13-6第7小松ビル２０３号", "url": "https://www.kaigokensaku.mhlw.go.jp/45/index.php?action_kouhyou_detail_004_kani=true&JigyosyoCd=4570601569-00&ServiceCd=130&Type=search", "url2": null }, "geometry": { "type": "Point", "coordinates": [ 131.6265098, 32.4268527 ] } },
{ "type": "Feature", "properties": { "内容": "あおい訪問看護ステーション【訪問看護】宮崎県日向市向江町二丁目１５３番地１", "url": "https://www.kaigokensaku.mhlw.go.jp/45/index.php?action_kouhyou_detail_004_kani=true&JigyosyoCd=4560690093-00&ServiceCd=130&Type=search", "url2": null }, "geometry": { "type": "Point", "coordinates": [ 131.633977142659717, 32.431129009075931 ] } },
{ "type": "Feature", "properties": { "内容": "日向市立東郷診療所【訪問看護】宮崎県日向市東郷町山陰丙1412-1", "url": "https://www.kaigokensaku.mhlw.go.jp/45/index.php?action_kouhyou_detail_004_kani=true&JigyosyoCd=4510611074-00&ServiceCd=130&Type=search", "url2": null }, "geometry": { "type": "Point", "coordinates": [ 131.5317341, 32.3934554 ] } },
{ "type": "Feature", "properties": { "内容": "かかりつけ訪問看護ステーションふた葉【訪問看護】宮崎県日向市江良町4丁目81番地", "url": "https://www.kaigokensaku.mhlw.go.jp/45/index.php?action_kouhyou_detail_004_kani=true&JigyosyoCd=4560690077-00&ServiceCd=130&Type=search", "url2": null }, "geometry": { "type": "Point", "coordinates": [ 131.642113171163942, 32.420291174166664 ] } },
{ "type": "Feature", "properties": { "内容": "医療法人杏林会三股病院【訪問看護】宮崎県日向市美々津町3870", "url": "https://www.kaigokensaku.mhlw.go.jp/45/index.php?action_kouhyou_detail_004_kani=true&JigyosyoCd=4570600751-00&ServiceCd=130&Type=search", "url2": null }, "geometry": { "type": "Point", "coordinates": [ 131.604817300000036, 32.3312139 ] } },
{ "type": "Feature", "properties": { "内容": "訪問看護ステーション　はぁとここ【訪問看護】宮崎県日向市大字財光寺3445番地29", "url": "https://www.kaigokensaku.mhlw.go.jp/45/index.php?action_kouhyou_detail_004_kani=true&JigyosyoCd=4570601486-00&ServiceCd=130&Type=search", "url2": null }, "geometry": { "type": "Point", "coordinates": [ 131.624335550762169, 32.398587347486085 ] } },
{ "type": "Feature", "properties": { "内容": "和田病院【訪問看護】向江町１丁目196-1", "url": "https://www.kaigokensaku.mhlw.go.jp/45/index.php?action_kouhyou_detail_004_kani=true&JigyosyoCd=4510610449-00&ServiceCd=130&Type=search", "url2": "https://wada-hosp.or.jp/" }, "geometry": { "type": "Point", "coordinates": [ 131.6289734, 32.4288321 ] } },
{ "type": "Feature", "properties": { "内容": "一般社団法人日向市東臼杵郡医師会立訪問看護ステーション【訪問看護】宮崎県日向市鶴町1丁目6番2号", "url": "https://www.kaigokensaku.mhlw.go.jp/45/index.php?action_kouhyou_detail_004_kani=true&JigyosyoCd=4560690010-00&ServiceCd=130&Type=search", "url2": "http://hyuga-ishikai.jp/care_service/index.htm" }, "geometry": { "type": "Point", "coordinates": [ 131.6293313, 32.4266023 ] } },
{ "type": "Feature", "properties": { "内容": "訪問看護ステーションジャックとまめの木【訪問看護】宮崎県日向市大字財光寺2939-8", "url": "https://www.kaigokensaku.mhlw.go.jp/45/index.php?action_kouhyou_detail_004_kani=true&JigyosyoCd=4560690036-00&ServiceCd=130&Type=search", "url2": "https://lovelove55.jp/" }, "geometry": { "type": "Point", "coordinates": [ 138.252924, 36.204824 ] } },
{ "type": "Feature", "properties": { "内容": "訪問看護ステーション　あやめ【訪問看護】宮崎県日向市大字財光寺９７２番地１０", "url": "https://www.kaigokensaku.mhlw.go.jp/45/index.php?action_kouhyou_detail_004_kani=true&JigyosyoCd=4570601288-00&ServiceCd=130&Type=search", "url2": null }, "geometry": { "type": "Point", "coordinates": [ 131.631184699999949, 32.406732 ] } },
{ "type": "Feature", "properties": { "内容": "訪問看護ステーション　ぽぴー【訪問看護】宮崎県日向市曽根町1丁目108番地", "url": "https://www.kaigokensaku.mhlw.go.jp/45/index.php?action_kouhyou_detail_004_kani=true&JigyosyoCd=4560690085-00&ServiceCd=130&Type=search", "url2": null }, "geometry": { "type": "Point", "coordinates": [ 131.6451334, 32.4217725 ] } },
{ "type": "Feature", "properties": { "内容": "串間市民病院訪問看護ステーションクローバー【訪問看護】宮崎県串間市大字西方7917", "url": "https://www.kaigokensaku.mhlw.go.jp/45/index.php?action_kouhyou_detail_004_kani=true&JigyosyoCd=4560790018-00&ServiceCd=130&Type=search", "url2": null }, "geometry": { "type": "Point", "coordinates": [ 131.2179131, 31.4644266 ] } },
{ "type": "Feature", "properties": { "内容": "訪問看護ステーションClear【訪問看護】宮崎県西都市水流崎町14番地HAKUBATOWN102号室", "url": "https://www.kaigokensaku.mhlw.go.jp/45/index.php?action_kouhyou_detail_004_kani=true&JigyosyoCd=4560890040-00&ServiceCd=130&Type=search", "url2": "https://clear.colors-gk.jp/" }, "geometry": { "type": "Point", "coordinates": [ 131.4086108, 32.1106083 ] } },
{ "type": "Feature", "properties": { "内容": "訪問看護ステーション並木【訪問看護】宮崎県西都市大字下三財3378", "url": "https://www.kaigokensaku.mhlw.go.jp/45/index.php?action_kouhyou_detail_004_kani=true&JigyosyoCd=4560890032-00&ServiceCd=130&Type=search", "url2": null }, "geometry": { "type": "Point", "coordinates": [ 131.359081106691292, 32.06099142825952 ] } },
{ "type": "Feature", "properties": { "内容": "ひまわり訪問看護ステーション【訪問看護】宮崎県西都市御舟町１丁目９３－２", "url": "https://www.kaigokensaku.mhlw.go.jp/45/index.php?action_kouhyou_detail_004_kani=true&JigyosyoCd=4560890008-00&ServiceCd=130&Type=search", "url2": "http://www.ryutoku.or.jp/" }, "geometry": { "type": "Point", "coordinates": [ 131.403127300000051, 32.1111591 ] } },
{ "type": "Feature", "properties": { "内容": "訪問看護ステーション　デューン西都【訪問看護】宮崎県西都市大字妻1698番地1金丸貸店舗", "url": "https://www.kaigokensaku.mhlw.go.jp/45/index.php?action_kouhyou_detail_004_kani=true&JigyosyoCd=4560890016-00&ServiceCd=130&Type=search", "url2": "https://www.nfield.co.jp" }, "geometry": { "type": "Point", "coordinates": [ 131.4002863, 32.1030379 ] } },
{ "type": "Feature", "properties": { "内容": "訪問看護ステーションいいな【訪問看護】宮崎県西都市大字右松字三反田2221番地3", "url": "https://www.kaigokensaku.mhlw.go.jp/45/index.php?action_kouhyou_detail_004_kani=true&JigyosyoCd=4560890024-00&ServiceCd=130&Type=search", "url2": null }, "geometry": { "type": "Point", "coordinates": [ 131.408708600000011, 32.0935571 ] } },
{ "type": "Feature", "properties": { "内容": "訪問看護ステーションひかり【訪問看護】宮崎県えびの市大字原田2200-9", "url": "https://www.kaigokensaku.mhlw.go.jp/45/index.php?action_kouhyou_detail_004_kani=true&JigyosyoCd=4560990022-00&ServiceCd=130&Type=search", "url2": "http://care-net.biz/45/ebinodaiichi/." }, "geometry": { "type": "Point", "coordinates": [ 130.872166600000014, 32.0328193 ] } },
{ "type": "Feature", "properties": { "内容": "訪問看護ステーション　３rd　Hand【訪問看護】宮崎県えびの市向江630-1", "url": "https://www.kaigokensaku.mhlw.go.jp/45/index.php?action_kouhyou_detail_004_kani=true&JigyosyoCd=4560990030-00&ServiceCd=130&Type=search", "url2": "3rd-hand.com" }, "geometry": { "type": "Point", "coordinates": [ 130.766661571163922, 32.047356257089447 ] } },
{ "type": "Feature", "properties": { "内容": "訪問看護ステーションケアふる【訪問看護】宮崎県えびの市大字栗下209-5", "url": "https://www.kaigokensaku.mhlw.go.jp/45/index.php?action_kouhyou_detail_004_kani=true&JigyosyoCd=4560990006-00&ServiceCd=130&Type=search", "url2": null }, "geometry": { "type": "Point", "coordinates": [ 130.815170800000033, 32.0434806 ] } },
{ "type": "Feature", "properties": { "内容": "訪問看護ステーションおうち生活応援団【訪問看護】宮崎県えびの市大字永山943番地1", "url": "https://www.kaigokensaku.mhlw.go.jp/45/index.php?action_kouhyou_detail_004_kani=true&JigyosyoCd=4560990014-00&ServiceCd=130&Type=search", "url2": null }, "geometry": { "type": "Point", "coordinates": [ 130.8045282, 32.0515908 ] } },
{ "type": "Feature", "properties": { "内容": "訪問看護ステーション　Ｖｉｓｉｏｎ【訪問看護】宮崎県北諸県郡三股町蓼池1409番地1ブランエノワールＩ　202号室", "url": "https://www.kaigokensaku.mhlw.go.jp/45/index.php?action_kouhyou_detail_004_kani=true&JigyosyoCd=4561790041-00&ServiceCd=130&Type=search", "url2": null }, "geometry": { "type": "Point", "coordinates": [ 131.105497625656142, 31.756356850890032 ] } },
{ "type": "Feature", "properties": { "内容": "訪問看護ステーションIRODORI【訪問看護】宮崎県北諸県郡三股町大字樺山3473", "url": "https://www.kaigokensaku.mhlw.go.jp/45/index.php?action_kouhyou_detail_004_kani=true&JigyosyoCd=4561790033-00&ServiceCd=130&Type=search", "url2": "https://www.irodorinursingstation.com/" }, "geometry": { "type": "Point", "coordinates": [ 131.126073235581998, 31.732056049286129 ] } },
{ "type": "Feature", "properties": { "内容": "三股町訪問看護ステーションなごみ【訪問看護】宮崎県北諸県郡三股町大字樺山3384番地2", "url": "https://www.kaigokensaku.mhlw.go.jp/45/index.php?action_kouhyou_detail_004_kani=true&JigyosyoCd=4561790140-00&ServiceCd=130&Type=search", "url2": "http://www.mimata-syakyou.or.jp/care/kaihoukan.html" }, "geometry": { "type": "Point", "coordinates": [ 131.121520299999929, 31.728894 ] } },
{ "type": "Feature", "properties": { "内容": "訪問看護・リハビリステーション手と手【訪問看護】宮崎県北諸県郡三股町大字蓼池３６３７番地１", "url": "https://www.kaigokensaku.mhlw.go.jp/45/index.php?action_kouhyou_detail_004_kani=true&JigyosyoCd=4561790025-00&ServiceCd=130&Type=search", "url2": "http://hara-care.com/" }, "geometry": { "type": "Point", "coordinates": [ 131.11364750000007, 31.7623546 ] } },
{ "type": "Feature", "properties": { "内容": "訪問看護ステーション　おひさま【訪問看護】大字宮村字植木2860-1", "url": "https://www.kaigokensaku.mhlw.go.jp/45/index.php?action_kouhyou_detail_004_kani=true&JigyosyoCd=4561790017-00&ServiceCd=130&Type=search", "url2": null }, "geometry": { "type": "Point", "coordinates": [ 131.106511899999987, 31.7227376 ] } },
{ "type": "Feature", "properties": { "内容": "国民健康保険高原病院【訪問看護】宮崎県西諸県郡高原町大字西麓８７１番地", "url": "https://www.kaigokensaku.mhlw.go.jp/45/index.php?action_kouhyou_detail_004_kani=true&JigyosyoCd=4511810279-00&ServiceCd=130&Type=search", "url2": "https://takaharu-hp.com" }, "geometry": { "type": "Point", "coordinates": [ 131.0071868, 31.9288799 ] } },
{ "type": "Feature", "properties": { "内容": "株式会社　水ノ月【訪問看護】宮崎県西諸県郡高原町大字西麓221－3", "url": "https://www.kaigokensaku.mhlw.go.jp/45/index.php?action_kouhyou_detail_004_kani=true&JigyosyoCd=4561890015-00&ServiceCd=130&Type=search", "url2": "https：//kminaduki.jp" }, "geometry": { "type": "Point", "coordinates": [ 131.0042815, 31.9239133 ] } },
{ "type": "Feature", "properties": { "内容": "わがや訪問看護ステーションくにとみ【訪問看護】宮崎県東諸県郡国富町大字本庄4437-2メゾンイッコク105号", "url": "https://www.kaigokensaku.mhlw.go.jp/45/index.php?action_kouhyou_detail_004_kani=true&JigyosyoCd=4561990096-00&ServiceCd=130&Type=search", "url2": null }, "geometry": { "type": "Point", "coordinates": [ 131.328165, 31.9879212 ] } },
{ "type": "Feature", "properties": { "内容": "訪問看護ステーション希星【訪問看護】宮崎県東諸県郡国富町大字宮王丸154-8.", "url": "https://www.kaigokensaku.mhlw.go.jp/45/index.php?action_kouhyou_detail_004_kani=true&JigyosyoCd=4561990070-00&ServiceCd=130&Type=search", "url2": "https://www.houkannkirai.com" }, "geometry": { "type": "Point", "coordinates": [ 131.345999860742438, 31.989798354361408 ] } },
{ "type": "Feature", "properties": { "内容": "社会医療法人慶明会　訪問看護ステーションかがやき【訪問看護】宮崎県東諸県郡国富町大字岩知野762番地", "url": "https://www.kaigokensaku.mhlw.go.jp/45/index.php?action_kouhyou_detail_004_kani=true&JigyosyoCd=4561990047-00&ServiceCd=130&Type=search", "url2": "http://www.keimei-kinen.com" }, "geometry": { "type": "Point", "coordinates": [ 131.37189281415553, 31.97896201195358 ] } },
{ "type": "Feature", "properties": { "内容": "一期一会訪問看護ステーション【訪問看護】宮崎県東諸県郡国富町大字本庄4832-7医療と介護の連携ステーション", "url": "https://www.kaigokensaku.mhlw.go.jp/45/index.php?action_kouhyou_detail_004_kani=true&JigyosyoCd=4561990062-00&ServiceCd=130&Type=search", "url2": "ichigoichie-kunitomi.com" }, "geometry": { "type": "Point", "coordinates": [ 131.322457151975982, 31.989624450641376 ] } },
{ "type": "Feature", "properties": { "内容": "訪問看護ステーション　yoridocoro（よりどころ）【訪問看護】宮崎県東諸県郡国富町大字三名1162番地2", "url": "https://www.kaigokensaku.mhlw.go.jp/45/index.php?action_kouhyou_detail_004_kani=true&JigyosyoCd=4571901133-00&ServiceCd=130&Type=search", "url2": "https://www.yoridocoro.biz/" }, "geometry": { "type": "Point", "coordinates": [ 131.3413809, 32.003686700000024 ] } },
{ "type": "Feature", "properties": { "内容": "まいづる訪問看護リハビリステーション【訪問看護】宮崎県児湯郡高鍋町大字北高鍋3291-3田園ビル202・203号室", "url": "https://www.kaigokensaku.mhlw.go.jp/45/index.php?action_kouhyou_detail_004_kani=true&JigyosyoCd=4562090151-00&ServiceCd=130&Type=search", "url2": "https://mizrhkrs.amebaownd.com" }, "geometry": { "type": "Point", "coordinates": [ 131.520701278448342, 32.127204115393475 ] } },
{ "type": "Feature", "properties": { "内容": "訪問看護ステーション　coconoki【訪問看護】宮崎県児湯郡高鍋町大字北高鍋763-3", "url": "https://www.kaigokensaku.mhlw.go.jp/45/index.php?action_kouhyou_detail_004_kani=true&JigyosyoCd=4572001933-00&ServiceCd=130&Type=search", "url2": "https://coconoki-miyazaki.com/" }, "geometry": { "type": "Point", "coordinates": [ 131.507482900000014, 32.1295618 ] } },
{ "type": "Feature", "properties": { "内容": "ナーシングセンター・オーシャン【訪問看護】宮崎県児湯郡新富町新田3693-1住宅型有料ホーム　ナーシングホーム・オーシャン　併設", "url": "https://www.kaigokensaku.mhlw.go.jp/45/index.php?action_kouhyou_detail_004_kani=true&JigyosyoCd=4562090144-00&ServiceCd=130&Type=search", "url2": null }, "geometry": { "type": "Point", "coordinates": [ 131.446408546548525, 32.059655778117715 ] } },
{ "type": "Feature", "properties": { "内容": "訪問看護ステーションラプラス【訪問看護】児湯郡新富町富田１丁目１１山西店舗２F", "url": "https://www.kaigokensaku.mhlw.go.jp/45/index.php?action_kouhyou_detail_004_kani=true&JigyosyoCd=4562090185-00&ServiceCd=130&Type=search", "url2": null }, "geometry": { "type": "Point", "coordinates": [ 131.490043220901526, 32.068747024781914 ] } },
{ "type": "Feature", "properties": { "内容": "訪問看護ステーションLife【訪問看護】宮崎県児湯郡木城町大字椎木字出店4646番地2", "url": "https://www.kaigokensaku.mhlw.go.jp/45/index.php?action_kouhyou_detail_004_kani=true&JigyosyoCd=4562090102-00&ServiceCd=130&Type=search", "url2": "kabushikigais.ripurasu@sepia.plala.or.jp" }, "geometry": { "type": "Point", "coordinates": [ 131.469539837603747, 32.157079231926389 ] } },
{ "type": "Feature", "properties": { "内容": "訪問看護ステーション花ほたる【訪問看護】宮崎県児湯郡川南町大字平田1428番地8", "url": "https://www.kaigokensaku.mhlw.go.jp/45/index.php?action_kouhyou_detail_004_kani=true&JigyosyoCd=4562090086-00&ServiceCd=130&Type=search", "url2": "https://www.sakumatsu.jp/" }, "geometry": { "type": "Point", "coordinates": [ 131.531749908734128, 32.204994348149121 ] } },
{ "type": "Feature", "properties": { "内容": "訪問看護ステーション湯癒亭【訪問看護】宮崎県児湯郡川南町大字平田2379番地1", "url": "https://www.kaigokensaku.mhlw.go.jp/45/index.php?action_kouhyou_detail_004_kani=true&JigyosyoCd=4562090003-00&ServiceCd=130&Type=search", "url2": "https://yuuyuutei.jp" }, "geometry": { "type": "Point", "coordinates": [ 131.528665600000039, 32.1934279 ] } },
{ "type": "Feature", "properties": { "内容": "訪問看護ステーション紬【訪問看護】宮崎県児湯郡都農町大字川北3901番地7", "url": "https://www.kaigokensaku.mhlw.go.jp/45/index.php?action_kouhyou_detail_004_kani=true&JigyosyoCd=4562090177-00&ServiceCd=130&Type=search", "url2": "https://houmonkango-tsumugi.com/" }, "geometry": { "type": "Point", "coordinates": [ 131.5659729, 32.2523093 ] } },
{ "type": "Feature", "properties": { "内容": "都農町国民健康保険病院【訪問看護】宮崎県児湯郡都農町大字川北５２０２番地", "url": "https://www.kaigokensaku.mhlw.go.jp/45/index.php?action_kouhyou_detail_004_kani=true&JigyosyoCd=4512010382-00&ServiceCd=130&Type=search", "url2": "http://www.tsuno-hsp.jp/" }, "geometry": { "type": "Point", "coordinates": [ 131.553737353828438, 32.259950771595882 ] } },
{ "type": "Feature", "properties": { "内容": "訪問看護ステーションこばる【訪問看護】宮崎県東臼杵郡門川町東栄町2丁目2番地1", "url": "https://www.kaigokensaku.mhlw.go.jp/45/index.php?action_kouhyou_detail_004_kani=true&JigyosyoCd=4562190019-00&ServiceCd=130&Type=search", "url2": null }, "geometry": { "type": "Point", "coordinates": [ 131.652338699999973, 32.4760642 ] } },
{ "type": "Feature", "properties": { "内容": "訪問看護ステーションひまわり【訪問看護】宮崎県東臼杵郡門川町宮ヶ原四丁目43番地", "url": "https://www.kaigokensaku.mhlw.go.jp/45/index.php?action_kouhyou_detail_004_kani=true&JigyosyoCd=4562190076-00&ServiceCd=130&Type=search", "url2": null }, "geometry": { "type": "Point", "coordinates": [ 131.651992949577448, 32.482781152298237 ] } },
{ "type": "Feature", "properties": { "内容": "訪問看護ステーションかどがわ【訪問看護】宮崎県東臼杵郡門川町東栄町4丁目6-3", "url": "https://www.kaigokensaku.mhlw.go.jp/45/index.php?action_kouhyou_detail_004_kani=true&JigyosyoCd=4562190027-00&ServiceCd=130&Type=search", "url2": "https://tanaka-hp.or.jp" }, "geometry": { "type": "Point", "coordinates": [ 131.653480435032492, 32.480703845784447 ] } },
{ "type": "Feature", "properties": { "内容": "宮崎県済生会　訪問看護ステーションなでしこ日向【訪問看護】宮崎県東臼杵郡門川町南町４丁目１２８番地社会福祉法人恩賜財団済生会支部宮崎県済生会　日向病院", "url": "https://www.kaigokensaku.mhlw.go.jp/45/index.php?action_kouhyou_detail_004_kani=true&JigyosyoCd=4562190050-00&ServiceCd=130&Type=search", "url2": "http://www.hyuga.saiseikai.or.jp/nadeshiko/" }, "geometry": { "type": "Point", "coordinates": [ 131.647536800000012, 32.4581688 ] } },
{ "type": "Feature", "properties": { "内容": "訪問看護ステーションMahalo【訪問看護】宮崎県東臼杵郡門川町須賀崎3丁目23番地", "url": "https://www.kaigokensaku.mhlw.go.jp/45/index.php?action_kouhyou_detail_004_kani=true&JigyosyoCd=4562190068-00&ServiceCd=130&Type=search", "url2": "https://www.mahalo-sun.com/" }, "geometry": { "type": "Point", "coordinates": [ 131.6651832, 32.4913518 ] } },
{ "type": "Feature", "properties": { "内容": "高千穂町訪問看護ステーション【訪問看護】宮崎県西臼杵郡高千穂町大字三田井435-1", "url": "https://www.kaigokensaku.mhlw.go.jp/45/index.php?action_kouhyou_detail_004_kani=true&JigyosyoCd=4562290017-00&ServiceCd=130&Type=search", "url2": "http://www.takachiho-hp.jp/" }, "geometry": { "type": "Point", "coordinates": [ 131.314795015903911, 32.716720711587485 ] } },
{ "type": "Feature", "properties": { "内容": "たかちほちょう訪問看護ステーション【訪問看護】宮崎県西臼杵郡高千穂町大字三田井435番地1", "url": "https://www.kaigokensaku.mhlw.go.jp/45/index.php?action_kouhyou_detail_004_kani=true&JigyosyoCd=4562290025-00&ServiceCd=130&Type=search", "url2": "http://www.takachiho-hp.jp/" }, "geometry": { "type": "Point", "coordinates": [ 131.3148433, 32.7166008 ] } },
{ "type": "Feature", "properties": { "内容": "日之影町国民健康保険病院【訪問看護】西臼杵郡日之影町大字七折9074-3", "url": "https://www.kaigokensaku.mhlw.go.jp/45/index.php?action_kouhyou_detail_004_kani=true&JigyosyoCd=4512210339-00&ServiceCd=130&Type=search", "url2": "https://www.nishiusuki-hp.jp/" }, "geometry": { "type": "Point", "coordinates": [ 131.382110199999943, 32.660196 ] } }
]
}
