{
"type": "FeatureCollection",
"name": "geo_45_小規模多機能型居宅介護",
"crs": { "type": "name", "properties": { "name": "urn:ogc:def:crs:OGC:1.3:CRS84" } },
"features": [
{ "type": "Feature", "properties": { "内容": "小規模多機能型居宅介護事業所　福寿草【小規模多機能型居宅介護】宮崎県宮崎市広原312－1", "url": "https://www.kaigokensaku.mhlw.go.jp/45/index.php?action_kouhyou_detail_004_kani=true&JigyosyoCd=4590100238-00&ServiceCd=730&Type=search", "url2": "https://www.fukujusou-miyazaki.com/" }, "geometry": { "type": "Point", "coordinates": [ 131.441241699999978, 31.9990818 ] } },
{ "type": "Feature", "properties": { "内容": "小規模多機能ホームおおつかの家【小規模多機能型居宅介護】宮崎県宮崎市大塚町西ノ後3435-1", "url": "https://www.kaigokensaku.mhlw.go.jp/45/index.php?action_kouhyou_detail_004_kani=true&JigyosyoCd=4590100410-00&ServiceCd=730&Type=search", "url2": "http://www1.ocn.ne.jp/~mcoop/syoukiboootukanoie.htm" }, "geometry": { "type": "Point", "coordinates": [ 131.391396399999962, 31.9108244 ] } },
{ "type": "Feature", "properties": { "内容": "小規模多機能ホーム　みんなの家【小規模多機能型居宅介護】宮崎市大島町国草142-2", "url": "https://www.kaigokensaku.mhlw.go.jp/45/index.php?action_kouhyou_detail_004_kani=true&JigyosyoCd=4590100535-00&ServiceCd=730&Type=search", "url2": "http://www1.ocn.ne.jp/mcoop/" }, "geometry": { "type": "Point", "coordinates": [ 131.43915, 31.9418337 ] } },
{ "type": "Feature", "properties": { "内容": "きんかん小規模多機能ホーム【小規模多機能型居宅介護】宮崎県宮崎市大字浮田１６７７番２", "url": "https://www.kaigokensaku.mhlw.go.jp/45/index.php?action_kouhyou_detail_004_kani=true&JigyosyoCd=4590100337-00&ServiceCd=730&Type=search", "url2": "http://www.sin-ai-kai.jp/" }, "geometry": { "type": "Point", "coordinates": [ 131.364125599999966, 31.9189784 ] } },
{ "type": "Feature", "properties": { "内容": "東大宮ひばり【小規模多機能型居宅介護】宮崎県宮崎市大島町国草136-6", "url": "https://www.kaigokensaku.mhlw.go.jp/45/index.php?action_kouhyou_detail_004_kani=true&JigyosyoCd=4590100048-00&ServiceCd=730&Type=search", "url2": null }, "geometry": { "type": "Point", "coordinates": [ 131.439393149590842, 31.941748241661891 ] } },
{ "type": "Feature", "properties": { "内容": "小規模多機能ホームいきめ【小規模多機能型居宅介護】宮崎県宮崎市大字小松字口ノ坪2861番地", "url": "https://www.kaigokensaku.mhlw.go.jp/45/index.php?action_kouhyou_detail_004_kani=true&JigyosyoCd=4590100634-00&ServiceCd=730&Type=search", "url2": "http://www.umigikukai.jp" }, "geometry": { "type": "Point", "coordinates": [ 131.38199086196235, 31.926239963731387 ] } },
{ "type": "Feature", "properties": { "内容": "小規模多機能型居宅介護　友愛【小規模多機能型居宅介護】宮崎県宮崎市大坪町西六月２１９９‐１", "url": "https://www.kaigokensaku.mhlw.go.jp/45/index.php?action_kouhyou_detail_004_kani=true&JigyosyoCd=4590100378-00&ServiceCd=730&Type=search", "url2": "http://www.houmei.or.jp" }, "geometry": { "type": "Point", "coordinates": [ 131.4070428, 31.8957101 ] } },
{ "type": "Feature", "properties": { "内容": "小規模多機能ホーム　ゆらり芳士【小規模多機能型居宅介護】宮崎県宮崎市大字芳士字祝田１２２９－２", "url": "https://www.kaigokensaku.mhlw.go.jp/45/index.php?action_kouhyou_detail_004_kani=true&JigyosyoCd=4590100543-00&ServiceCd=730&Type=search", "url2": null }, "geometry": { "type": "Point", "coordinates": [ 131.4202411, 31.9076736 ] } },
{ "type": "Feature", "properties": { "内容": "小規模多機能型居宅介護センター美波　東大宮【小規模多機能型居宅介護】宮崎市大島町国草132", "url": "https://www.kaigokensaku.mhlw.go.jp/45/index.php?action_kouhyou_detail_004_kani=true&JigyosyoCd=4590100709-00&ServiceCd=730&Type=search", "url2": "https://miyazaki-ifuku.com/" }, "geometry": { "type": "Point", "coordinates": [ 131.439915189652424, 31.941793889043566 ] } },
{ "type": "Feature", "properties": { "内容": "小規模多機能ホームぎおんの家【小規模多機能型居宅介護】宮崎県宮崎市祇園３丁目１９５番地", "url": "https://www.kaigokensaku.mhlw.go.jp/45/index.php?action_kouhyou_detail_004_kani=true&JigyosyoCd=4590100881-00&ServiceCd=730&Type=search", "url2": "http://www.miyazaki-iryou.coop/" }, "geometry": { "type": "Point", "coordinates": [ 131.412135300000045, 31.9375837 ] } },
{ "type": "Feature", "properties": { "内容": "小規模多機能ホームはなはな【小規模多機能型居宅介護】宮崎県宮崎市宮田町10番13号ケアステーション如月3階", "url": "https://www.kaigokensaku.mhlw.go.jp/45/index.php?action_kouhyou_detail_004_kani=true&JigyosyoCd=4590101418-00&ServiceCd=730&Type=search", "url2": null }, "geometry": { "type": "Point", "coordinates": [ 131.426664, 31.9110167 ] } },
{ "type": "Feature", "properties": { "内容": "小規模多機能型居宅介護　とみよし【小規模多機能型居宅介護】宮崎県宮崎市大字富吉2139番地2", "url": "https://www.kaigokensaku.mhlw.go.jp/45/index.php?action_kouhyou_detail_004_kani=true&JigyosyoCd=4590100816-00&ServiceCd=730&Type=search", "url2": "http://www.keimeisw.or.jp/s-tomiyoshi/" }, "geometry": { "type": "Point", "coordinates": [ 131.358046148037829, 31.941284690622648 ] } },
{ "type": "Feature", "properties": { "内容": "芳生あやめ館【小規模多機能型居宅介護】宮崎県宮崎市大字糸原300番１", "url": "https://www.kaigokensaku.mhlw.go.jp/45/index.php?action_kouhyou_detail_004_kani=true&JigyosyoCd=4590100436-00&ServiceCd=730&Type=search", "url2": "http://www.houseien.jp/" }, "geometry": { "type": "Point", "coordinates": [ 131.369673400000011, 31.9596388 ] } },
{ "type": "Feature", "properties": { "内容": "小規模多機能ホーム源藤の里こころ【小規模多機能型居宅介護】宮崎市源藤町堤下５０９番地", "url": "https://www.kaigokensaku.mhlw.go.jp/45/index.php?action_kouhyou_detail_004_kani=true&JigyosyoCd=4590100717-00&ServiceCd=730&Type=search", "url2": "http://www.jiaikai-fuk.or.jp/" }, "geometry": { "type": "Point", "coordinates": [ 131.415546782803403, 31.885800627830459 ] } },
{ "type": "Feature", "properties": { "内容": "小規模多機能ホームさくらテラス【小規模多機能型居宅介護】宮崎県宮崎市清武町加納甲1312-1", "url": "https://www.kaigokensaku.mhlw.go.jp/45/index.php?action_kouhyou_detail_004_kani=true&JigyosyoCd=4590101137-00&ServiceCd=730&Type=search", "url2": "tokueikai.lar.jp/" }, "geometry": { "type": "Point", "coordinates": [ 131.3909332, 31.8725165 ] } },
{ "type": "Feature", "properties": { "内容": "小規模多機能型居宅介護ほほえみの園ヒストリア前浜【小規模多機能型居宅介護】宮崎県宮崎市阿波岐原町前浜4276番地1261小規模多機能型居宅介護ほほえみの園ヒストリア前浜", "url": "https://www.kaigokensaku.mhlw.go.jp/45/index.php?action_kouhyou_detail_004_kani=true&JigyosyoCd=4590101384-00&ServiceCd=730&Type=search", "url2": null }, "geometry": { "type": "Point", "coordinates": [ 131.4638112, 31.940328 ] } },
{ "type": "Feature", "properties": { "内容": "希望楽苑【小規模多機能型居宅介護】宮崎県宮崎市郡司分乙1590-1", "url": "https://www.kaigokensaku.mhlw.go.jp/45/index.php?action_kouhyou_detail_004_kani=true&JigyosyoCd=4590100220-00&ServiceCd=730&Type=search", "url2": "http://www.kudomi.com" }, "geometry": { "type": "Point", "coordinates": [ 131.420665049629179, 31.855886196533131 ] } },
{ "type": "Feature", "properties": { "内容": "小規模多機能型居宅介護センター美波清武【小規模多機能型居宅介護】宮崎県宮崎市清武町木原5581-3", "url": "https://www.kaigokensaku.mhlw.go.jp/45/index.php?action_kouhyou_detail_004_kani=true&JigyosyoCd=4590100865-00&ServiceCd=730&Type=search", "url2": "https://miyazaki-ifuku.com/" }, "geometry": { "type": "Point", "coordinates": [ 131.397612500000037, 31.8436862 ] } },
{ "type": "Feature", "properties": { "内容": "小規模多機能型居宅介護　トクばぁちゃんの家【小規模多機能型居宅介護】宮崎市高岡町内山2744-4", "url": "https://www.kaigokensaku.mhlw.go.jp/45/index.php?action_kouhyou_detail_004_kani=true&JigyosyoCd=4590100030-00&ServiceCd=730&Type=search", "url2": null }, "geometry": { "type": "Point", "coordinates": [ 131.3010107, 31.9609977 ] } },
{ "type": "Feature", "properties": { "内容": "小規模多機能ホームよかよか【小規模多機能型居宅介護】宮崎県宮崎市広島1丁目14-17", "url": "https://www.kaigokensaku.mhlw.go.jp/45/index.php?action_kouhyou_detail_004_kani=true&JigyosyoCd=4590101491-00&ServiceCd=730&Type=search", "url2": null }, "geometry": { "type": "Point", "coordinates": [ 131.4267271, 31.9136176 ] } },
{ "type": "Feature", "properties": { "内容": "小規模多機能ホームよかよか南方【小規模多機能型居宅介護】宮崎県宮崎市南方町迫之山159番地", "url": "https://www.kaigokensaku.mhlw.go.jp/45/index.php?action_kouhyou_detail_004_kani=true&JigyosyoCd=4590101509-00&ServiceCd=730&Type=search", "url2": "https://www.miyazaki-wakakusa.or.jp/facilities/%E5%B0%8F%E8%A6%8F%E6%A8%A1%E5%A4%9A%E6%A9%9F%E8%83%BD%E3%83%9B%E3%83%BC%E3%83%A0%E3%81%AF%E3%81%AA%E3%81%AF%E3%81%AA%E3%83%BB%E3%82%88%E3%81%8B%E3%82%88%E3%81%8B%E3%83%BB%E3%82%88%E3%81%8B%E3%82%88/" }, "geometry": { "type": "Point", "coordinates": [ 131.4204671, 31.9632011 ] } },
{ "type": "Feature", "properties": { "内容": "ニチイケアセンター上北方【小規模多機能型居宅介護】宮崎市大字上北方７１７－１", "url": "https://www.kaigokensaku.mhlw.go.jp/45/index.php?action_kouhyou_detail_004_kani=true&JigyosyoCd=4590100568-00&ServiceCd=730&Type=search", "url2": "http://www.nichiigakkan.co.jp" }, "geometry": { "type": "Point", "coordinates": [ 131.406848800000034, 31.958565 ] } },
{ "type": "Feature", "properties": { "内容": "新栄ひばり【小規模多機能型居宅介護】宮崎市新栄町７２－４", "url": "https://www.kaigokensaku.mhlw.go.jp/45/index.php?action_kouhyou_detail_004_kani=true&JigyosyoCd=4590100667-00&ServiceCd=730&Type=search", "url2": null }, "geometry": { "type": "Point", "coordinates": [ 131.454810299999963, 31.9078523 ] } },
{ "type": "Feature", "properties": { "内容": "小規模多機能型居宅介護ほほえみの園ヒストリアⅠ【小規模多機能型居宅介護】宮崎県都城市早鈴町１８６６－４０", "url": "https://www.kaigokensaku.mhlw.go.jp/45/index.php?action_kouhyou_detail_004_kani=true&JigyosyoCd=4590200228-00&ServiceCd=730&Type=search", "url2": null }, "geometry": { "type": "Point", "coordinates": [ 131.077519182803371, 31.717847454141118 ] } },
{ "type": "Feature", "properties": { "内容": "小規模多機能型居宅介護ほほえみの園ヒストリアⅡ【小規模多機能型居宅介護】宮崎県都城市高城町桜木字横弓場1489-1", "url": "https://www.kaigokensaku.mhlw.go.jp/45/index.php?action_kouhyou_detail_004_kani=true&JigyosyoCd=4590200251-00&ServiceCd=730&Type=search", "url2": null }, "geometry": { "type": "Point", "coordinates": [ 131.1225197, 31.78204550000002 ] } },
{ "type": "Feature", "properties": { "内容": "小規模多機能ホーム一休庵いわよし【小規模多機能型居宅介護】宮崎県都城市郡元町２１７－１", "url": "https://www.kaigokensaku.mhlw.go.jp/45/index.php?action_kouhyou_detail_004_kani=true&JigyosyoCd=4590200061-00&ServiceCd=730&Type=search", "url2": "http://www.keijuen.net" }, "geometry": { "type": "Point", "coordinates": [ 131.095093499999962, 31.7489775 ] } },
{ "type": "Feature", "properties": { "内容": "小規模多機能型居宅介護　創生館【小規模多機能型居宅介護】宮崎県都城市庄内町8618番地1", "url": "https://www.kaigokensaku.mhlw.go.jp/45/index.php?action_kouhyou_detail_004_kani=true&JigyosyoCd=4590200327-00&ServiceCd=730&Type=search", "url2": "https://mjfj.net/jouyou/souseikan/" }, "geometry": { "type": "Point", "coordinates": [ 131.022327499999989, 31.7697649 ] } },
{ "type": "Feature", "properties": { "内容": "小規模多機能型居宅介護ちっちゃなお家みづき【小規模多機能型居宅介護】宮崎県都城市志比田町9560番地1", "url": "https://www.kaigokensaku.mhlw.go.jp/45/index.php?action_kouhyou_detail_004_kani=true&JigyosyoCd=4590200012-00&ServiceCd=730&Type=search", "url2": "https://www.maria-f.jp/" }, "geometry": { "type": "Point", "coordinates": [ 131.048330399999912, 31.751789800000019 ] } },
{ "type": "Feature", "properties": { "内容": "地域密着型小規模多機能型居宅介護豊明苑【小規模多機能型居宅介護】宮崎県都城市蓑原町1846番地1", "url": "https://www.kaigokensaku.mhlw.go.jp/45/index.php?action_kouhyou_detail_004_kani=true&JigyosyoCd=4590200053-00&ServiceCd=730&Type=search", "url2": "http://www.houei-group.or.jp/" }, "geometry": { "type": "Point", "coordinates": [ 131.0187813, 31.7351265 ] } },
{ "type": "Feature", "properties": { "内容": "小規模多機能型居宅介護　ほほえみの園　ヒストリアⅢ【小規模多機能型居宅介護】都城市山田町中霧島2941番地１", "url": "https://www.kaigokensaku.mhlw.go.jp/45/index.php?action_kouhyou_detail_004_kani=true&JigyosyoCd=4590200335-00&ServiceCd=730&Type=search", "url2": "https://smilehohoemi.com" }, "geometry": { "type": "Point", "coordinates": [ 131.052540042463221, 31.792459266782085 ] } },
{ "type": "Feature", "properties": { "内容": "小規模多機能型居宅介護事業所　千代の家【小規模多機能型居宅介護】宮崎県延岡市中島町2丁目271番地3", "url": "https://www.kaigokensaku.mhlw.go.jp/45/index.php?action_kouhyou_detail_004_kani=true&JigyosyoCd=4590300150-00&ServiceCd=730&Type=search", "url2": null }, "geometry": { "type": "Point", "coordinates": [ 131.6748639, 32.5784202 ] } },
{ "type": "Feature", "properties": { "内容": "ケアコンシェルジュ由楽里・ゆらり　ひとつが丘【小規模多機能型居宅介護】北一ケ岡4丁目9-10", "url": "https://www.kaigokensaku.mhlw.go.jp/45/index.php?action_kouhyou_detail_004_kani=true&JigyosyoCd=4590300242-00&ServiceCd=730&Type=search", "url2": null }, "geometry": { "type": "Point", "coordinates": [ 131.67751885672763, 32.524850347335992 ] } },
{ "type": "Feature", "properties": { "内容": "ケアコンシェルジュ由楽里・ゆらり　ひとつが丘【小規模多機能型居宅介護】北一ヶ岡４丁目9-10", "url": "https://www.kaigokensaku.mhlw.go.jp/45/index.php?action_kouhyou_detail_004_kani=true&JigyosyoCd=4590300531-00&ServiceCd=730&Type=search", "url2": null }, "geometry": { "type": "Point", "coordinates": [ 131.677528628362325, 32.524854766676363 ] } },
{ "type": "Feature", "properties": { "内容": "小規模多機能居宅介護事業所　風見鶏【小規模多機能型居宅介護】宮崎県延岡市日の出町２丁目2-3風見鶏", "url": "https://www.kaigokensaku.mhlw.go.jp/45/index.php?action_kouhyou_detail_004_kani=true&JigyosyoCd=4590300408-00&ServiceCd=730&Type=search", "url2": null }, "geometry": { "type": "Point", "coordinates": [ 131.6751712, 32.5905236 ] } },
{ "type": "Feature", "properties": { "内容": "小規模多機能型居宅介護事業所きたかた【小規模多機能型居宅介護】延岡市北方町川水流卯92-1老人ホームカジタ", "url": "https://www.kaigokensaku.mhlw.go.jp/45/index.php?action_kouhyou_detail_004_kani=true&JigyosyoCd=4590300309-00&ServiceCd=730&Type=search", "url2": "https://tunodakitakatakazita5.jimdofree.com" }, "geometry": { "type": "Point", "coordinates": [ 131.529973482274158, 32.557299353509841 ] } },
{ "type": "Feature", "properties": { "内容": "小規模多機能型居宅介護　芳生さくら館【小規模多機能型居宅介護】宮崎県延岡市夏田町245番地芳生さくら館", "url": "https://www.kaigokensaku.mhlw.go.jp/45/index.php?action_kouhyou_detail_004_kani=true&JigyosyoCd=4590300218-00&ServiceCd=730&Type=search", "url2": "houseien.jp/institution/s11.html" }, "geometry": { "type": "Point", "coordinates": [ 131.672927, 32.6051682 ] } },
{ "type": "Feature", "properties": { "内容": "みちの音【小規模多機能型居宅介護】宮崎県延岡市水尻町２２５－３０", "url": "https://www.kaigokensaku.mhlw.go.jp/45/index.php?action_kouhyou_detail_004_kani=true&JigyosyoCd=4590300077-00&ServiceCd=730&Type=search", "url2": "tsuda-well.jp" }, "geometry": { "type": "Point", "coordinates": [ 131.708504700000049, 32.6089246 ] } },
{ "type": "Feature", "properties": { "内容": "宮崎県延岡市東浜砂町1114番地1【小規模多機能型居宅介護】延岡市東浜砂町1114番地１", "url": "https://www.kaigokensaku.mhlw.go.jp/45/index.php?action_kouhyou_detail_004_kani=true&JigyosyoCd=4590300143-00&ServiceCd=730&Type=search", "url2": "tsuda-well.jp" }, "geometry": { "type": "Point", "coordinates": [ 131.687316399999986, 32.5814401 ] } },
{ "type": "Feature", "properties": { "内容": "結いの里【小規模多機能型居宅介護】宮崎県延岡市北浦町古江1495-1", "url": "https://www.kaigokensaku.mhlw.go.jp/45/index.php?action_kouhyou_detail_004_kani=true&JigyosyoCd=4590300283-00&ServiceCd=730&Type=search", "url2": null }, "geometry": { "type": "Point", "coordinates": [ 131.821850645507737, 32.719119490567792 ] } },
{ "type": "Feature", "properties": { "内容": "かねの音【小規模多機能型居宅介護】宮崎県延岡市大貫町４丁目２２４６－１", "url": "https://www.kaigokensaku.mhlw.go.jp/45/index.php?action_kouhyou_detail_004_kani=true&JigyosyoCd=4590300440-00&ServiceCd=730&Type=search", "url2": "https://sites.google.com/view/kanenone1201" }, "geometry": { "type": "Point", "coordinates": [ 131.6493782, 32.5749853 ] } },
{ "type": "Feature", "properties": { "内容": "憩いの郷　とみやま【小規模多機能型居宅介護】宮崎県延岡市富美山町５１５番地２", "url": "https://www.kaigokensaku.mhlw.go.jp/45/index.php?action_kouhyou_detail_004_kani=true&JigyosyoCd=4590300101-00&ServiceCd=730&Type=search", "url2": "http://www.adoniskaigo.com/" }, "geometry": { "type": "Point", "coordinates": [ 131.661333799999966, 32.5957962 ] } },
{ "type": "Feature", "properties": { "内容": "小規模多機能型居宅介護つわぶき【小規模多機能型居宅介護】宮崎県日南市飫肥6丁目5番18号", "url": "https://www.kaigokensaku.mhlw.go.jp/45/index.php?action_kouhyou_detail_004_kani=true&JigyosyoCd=4590400059-00&ServiceCd=730&Type=search", "url2": "http://www.keimeisw.or.jp/s-tsuwabuki/" }, "geometry": { "type": "Point", "coordinates": [ 131.354331499999944, 31.6233549 ] } },
{ "type": "Feature", "properties": { "内容": "喜多郷ひばり【小規模多機能型居宅介護】宮崎県日南市北郷町北河内８８７４番地", "url": "https://www.kaigokensaku.mhlw.go.jp/45/index.php?action_kouhyou_detail_004_kani=true&JigyosyoCd=4590400018-00&ServiceCd=730&Type=search", "url2": null }, "geometry": { "type": "Point", "coordinates": [ 131.343953635104413, 31.703382348857819 ] } },
{ "type": "Feature", "properties": { "内容": "ファミリーケアいろは【小規模多機能型居宅介護】宮崎県小林市細野2295-2", "url": "https://www.kaigokensaku.mhlw.go.jp/45/index.php?action_kouhyou_detail_004_kani=true&JigyosyoCd=4590500114-00&ServiceCd=730&Type=search", "url2": "iroha-intento.jp" }, "geometry": { "type": "Point", "coordinates": [ 130.979226, 31.9923235 ] } },
{ "type": "Feature", "properties": { "内容": "小規模多機能ホーム茶のん村【小規模多機能型居宅介護】小林市南西方1906番地1", "url": "https://www.kaigokensaku.mhlw.go.jp/45/index.php?action_kouhyou_detail_004_kani=true&JigyosyoCd=4590500056-00&ServiceCd=730&Type=search", "url2": "http://kobayashi-syakyo.jimdo.com/" }, "geometry": { "type": "Point", "coordinates": [ 130.954561516076268, 32.004541081008874 ] } },
{ "type": "Feature", "properties": { "内容": "永寿園小規模多機能ホームゆたっと【小規模多機能型居宅介護】宮崎県日向市北町2丁目17番地", "url": "https://www.kaigokensaku.mhlw.go.jp/45/index.php?action_kouhyou_detail_004_kani=true&JigyosyoCd=4590600054-00&ServiceCd=730&Type=search", "url2": "www.himawarikai.or.jp/" }, "geometry": { "type": "Point", "coordinates": [ 131.626620199999934, 32.4327795 ] } },
{ "type": "Feature", "properties": { "内容": "小規模多機能ホーム・とうごう【小規模多機能型居宅介護】宮崎県日向市山陰辛７５１－１", "url": "https://www.kaigokensaku.mhlw.go.jp/45/index.php?action_kouhyou_detail_004_kani=true&JigyosyoCd=4590600146-00&ServiceCd=730&Type=search", "url2": null }, "geometry": { "type": "Point", "coordinates": [ 131.507842085886438, 32.395757636927939 ] } },
{ "type": "Feature", "properties": { "内容": "特定非営利活動法人あったかほーむ愛あい　小規模多機能型居宅介護　あったかほーむ愛あい【小規模多機能型居宅介護】宮崎県日向市財光寺中ノ原1164-1", "url": "https://www.kaigokensaku.mhlw.go.jp/45/index.php?action_kouhyou_detail_004_kani=true&JigyosyoCd=4590600062-00&ServiceCd=730&Type=search", "url2": "https://lovelove55.jp/" }, "geometry": { "type": "Point", "coordinates": [ 131.629418126662614, 32.403925803575355 ] } },
{ "type": "Feature", "properties": { "内容": "トムソーヤ【小規模多機能型居宅介護】宮崎県日向市大字財光寺字大原2993-3", "url": "https://www.kaigokensaku.mhlw.go.jp/45/index.php?action_kouhyou_detail_004_kani=true&JigyosyoCd=4590600096-00&ServiceCd=730&Type=search", "url2": "https://lovelove55.jp" }, "geometry": { "type": "Point", "coordinates": [ 131.626167500000065, 32.4012293 ] } },
{ "type": "Feature", "properties": { "内容": "小規模多機能ホーム　やすらぎの家　喜楽【小規模多機能型居宅介護】宮崎県西諸県郡高原町大字蒲牟田１１８５－２１８", "url": "https://www.kaigokensaku.mhlw.go.jp/45/index.php?action_kouhyou_detail_004_kani=true&JigyosyoCd=4591800042-00&ServiceCd=730&Type=search", "url2": null }, "geometry": { "type": "Point", "coordinates": [ 130.997315500000013, 31.9195249 ] } },
{ "type": "Feature", "properties": { "内容": "小規模多機能ホームやすらぎの家遊楽【小規模多機能型居宅介護】大字蒲牟田３０２１－２", "url": "https://www.kaigokensaku.mhlw.go.jp/45/index.php?action_kouhyou_detail_004_kani=true&JigyosyoCd=4591800018-00&ServiceCd=730&Type=search", "url2": null }, "geometry": { "type": "Point", "coordinates": [ 131.005501224328555, 31.915567015292542 ] } },
{ "type": "Feature", "properties": { "内容": "小規模多機能型居宅介護施設さくらんぼ【小規模多機能型居宅介護】宮崎県東諸県郡国富町大字三名字初田２６２１番６", "url": "https://www.kaigokensaku.mhlw.go.jp/45/index.php?action_kouhyou_detail_004_kani=true&JigyosyoCd=4591900024-00&ServiceCd=730&Type=search", "url2": "http://www.keimeisw.or.jp/sakuranbo/index.htmI" }, "geometry": { "type": "Point", "coordinates": [ 131.349547463026397, 32.007999248682601 ] } },
{ "type": "Feature", "properties": { "内容": "小規模多機能型居宅介護　アミーチェ【小規模多機能型居宅介護】宮崎県東諸県郡綾町大字南俣１１１６", "url": "https://www.kaigokensaku.mhlw.go.jp/45/index.php?action_kouhyou_detail_004_kani=true&JigyosyoCd=4591900032-00&ServiceCd=730&Type=search", "url2": "https://www.shishimeseikei.or.jp" }, "geometry": { "type": "Point", "coordinates": [ 131.247163, 31.996441 ] } },
{ "type": "Feature", "properties": { "内容": "小規模多機能ホームなぎのき【小規模多機能型居宅介護】宮崎県児湯郡高鍋町大字南高鍋7161-12", "url": "https://www.kaigokensaku.mhlw.go.jp/45/index.php?action_kouhyou_detail_004_kani=true&JigyosyoCd=4592000139-00&ServiceCd=730&Type=search", "url2": "http://www.hakuai1101.com" }, "geometry": { "type": "Point", "coordinates": [ 131.498825, 32.1195994 ] } },
{ "type": "Feature", "properties": { "内容": "小規模多機能ホーム花唄【小規模多機能型居宅介護】宮崎県児湯郡新富町大字三納代１－１", "url": "https://www.kaigokensaku.mhlw.go.jp/45/index.php?action_kouhyou_detail_004_kani=true&JigyosyoCd=4592000162-00&ServiceCd=730&Type=search", "url2": "https://www.eido-hanauta.jp/" }, "geometry": { "type": "Point", "coordinates": [ 131.491177204475292, 32.071678964539394 ] } },
{ "type": "Feature", "properties": { "内容": "社会福祉法人　長平会　川南ひばり【小規模多機能型居宅介護】宮崎県児湯郡川南町大字川南13526-9", "url": "https://www.kaigokensaku.mhlw.go.jp/45/index.php?action_kouhyou_detail_004_kani=true&JigyosyoCd=4592000055-00&ServiceCd=730&Type=search", "url2": "kawaminamihibari@friend.ocn.ne.jp" }, "geometry": { "type": "Point", "coordinates": [ 131.523115400000052, 32.1988199 ] } },
{ "type": "Feature", "properties": { "内容": "ケアホームこころみ【小規模多機能型居宅介護】宮崎県児湯郡都農町大字川北16975番地3", "url": "https://www.kaigokensaku.mhlw.go.jp/45/index.php?action_kouhyou_detail_004_kani=true&JigyosyoCd=4592000097-00&ServiceCd=730&Type=search", "url2": null }, "geometry": { "type": "Point", "coordinates": [ 131.5757542, 32.2918612 ] } },
{ "type": "Feature", "properties": { "内容": "特定非営利法人かどがわ・ざわざわ会小規模多機能ホームこばる2号館【小規模多機能型居宅介護】宮崎県東臼杵郡門川町東栄町２丁目7番14号", "url": "https://www.kaigokensaku.mhlw.go.jp/45/index.php?action_kouhyou_detail_004_kani=true&JigyosyoCd=4592100012-00&ServiceCd=730&Type=search", "url2": null }, "geometry": { "type": "Point", "coordinates": [ 131.651576952639743, 32.476245220137535 ] } }
]
}
