{
"type": "FeatureCollection",
"name": "geo_45_介護老人福祉施設",
"crs": { "type": "name", "properties": { "name": "urn:ogc:def:crs:OGC:1.3:CRS84" } },
"features": [
{ "type": "Feature", "properties": { "内容": "特別養護老人ホームゴールデンレイク【介護老人福祉施設】宮崎県宮崎市大字加江田４５１４－２", "url": "https://www.kaigokensaku.mhlw.go.jp/45/index.php?action_kouhyou_detail_004_kani=true&JigyosyoCd=4570100943-00&ServiceCd=510&Type=search", "url2": "aisinfukusikai.jp" }, "geometry": { "type": "Point", "coordinates": [ 131.4450256, 31.8116514 ] } },
{ "type": "Feature", "properties": { "内容": "特別養護老人ホームかなえ【介護老人福祉施設】宮崎県宮崎市大字恒久5311番地1", "url": "https://www.kaigokensaku.mhlw.go.jp/45/index.php?action_kouhyou_detail_004_kani=true&JigyosyoCd=4570107658-00&ServiceCd=510&Type=search", "url2": "http://www.kanae-kai.com" }, "geometry": { "type": "Point", "coordinates": [ 131.412773099999981, 31.8906748 ] } },
{ "type": "Feature", "properties": { "内容": "特別養護老人ホーム三愛園【介護老人福祉施設】宮崎県宮崎市新別府町前浜１４０１番地２７１", "url": "https://www.kaigokensaku.mhlw.go.jp/45/index.php?action_kouhyou_detail_004_kani=true&JigyosyoCd=4570100935-00&ServiceCd=510&Type=search", "url2": "http://www.shin-wa-kai.jp/" }, "geometry": { "type": "Point", "coordinates": [ 131.45986452746547, 31.922604596868656 ] } },
{ "type": "Feature", "properties": { "内容": "特別養護老人ホーム　城ケ崎小戸の家【介護老人福祉施設】宮崎市城ケ崎3丁目3番地3", "url": "https://www.kaigokensaku.mhlw.go.jp/45/index.php?action_kouhyou_detail_004_kani=true&JigyosyoCd=4570106635-00&ServiceCd=510&Type=search", "url2": "https://jougasaki0d0noie.wixsite.com/home" }, "geometry": { "type": "Point", "coordinates": [ 131.432577919049095, 31.897884050154932 ] } },
{ "type": "Feature", "properties": { "内容": "特別養護老人ホームヴィラ・サザン【介護老人福祉施設】宮崎県宮崎市本郷北方2717番地15", "url": "https://www.kaigokensaku.mhlw.go.jp/45/index.php?action_kouhyou_detail_004_kani=true&JigyosyoCd=4570102881-00&ServiceCd=510&Type=search", "url2": "http://www.villa-southern.net/" }, "geometry": { "type": "Point", "coordinates": [ 131.409435199999962, 31.8747732 ] } },
{ "type": "Feature", "properties": { "内容": "特別養護老人ホームみやざき荘【介護老人福祉施設】宮崎県宮崎市大字田吉４９７７－３７４", "url": "https://www.kaigokensaku.mhlw.go.jp/45/index.php?action_kouhyou_detail_004_kani=true&JigyosyoCd=4570100927-00&ServiceCd=510&Type=search", "url2": "http://www.m-sj.or.jp/miyazaki/" }, "geometry": { "type": "Point", "coordinates": [ 131.446992899999941, 31.8699745 ] } },
{ "type": "Feature", "properties": { "内容": "特別養護老人ホーム長生園【介護老人福祉施設】宮崎県宮崎市山崎町浜川37番地", "url": "https://www.kaigokensaku.mhlw.go.jp/45/index.php?action_kouhyou_detail_004_kani=true&JigyosyoCd=4570100901-00&ServiceCd=510&Type=search", "url2": "https://www.choseien.jp" }, "geometry": { "type": "Point", "coordinates": [ 131.465256818661373, 31.957357549879742 ] } },
{ "type": "Feature", "properties": { "内容": "特別養護老人ホーム芳生苑【介護老人福祉施設】宮崎県宮崎市大字大瀬町3190", "url": "https://www.kaigokensaku.mhlw.go.jp/45/index.php?action_kouhyou_detail_004_kani=true&JigyosyoCd=4570100968-00&ServiceCd=510&Type=search", "url2": "http://www.houseien.jp/" }, "geometry": { "type": "Point", "coordinates": [ 131.379485599999953, 31.9842369 ] } },
{ "type": "Feature", "properties": { "内容": "特別養護老人ホームリバーサイド学園木花【介護老人福祉施設】宮崎県宮崎市大字鏡洲560番地", "url": "https://www.kaigokensaku.mhlw.go.jp/45/index.php?action_kouhyou_detail_004_kani=true&JigyosyoCd=4570100984-00&ServiceCd=510&Type=search", "url2": "http://www.riverside-gk.jp/" }, "geometry": { "type": "Point", "coordinates": [ 131.399279699999965, 31.8263961 ] } },
{ "type": "Feature", "properties": { "内容": "特別養護老人ホーム栄光園【介護老人福祉施設】宮崎県宮崎市古城町柳町5157-1", "url": "https://www.kaigokensaku.mhlw.go.jp/45/index.php?action_kouhyou_detail_004_kani=true&JigyosyoCd=4570100950-00&ServiceCd=510&Type=search", "url2": "http://miyazaki-chojukai.com/" }, "geometry": { "type": "Point", "coordinates": [ 131.381443837281836, 31.894198953852328 ] } },
{ "type": "Feature", "properties": { "内容": "特別養護老人ホーム　ふじ野園【介護老人福祉施設】宮崎県宮崎市宮崎駅東三丁目9番10", "url": "https://www.kaigokensaku.mhlw.go.jp/45/index.php?action_kouhyou_detail_004_kani=true&JigyosyoCd=4570105884-00&ServiceCd=510&Type=search", "url2": "https://www.kowakai-f.jp" }, "geometry": { "type": "Point", "coordinates": [ 131.432350227647362, 31.919516075781644 ] } },
{ "type": "Feature", "properties": { "内容": "星空の都みやざき【介護老人福祉施設】宮崎県宮崎市吉村町平塚甲1820番地", "url": "https://www.kaigokensaku.mhlw.go.jp/45/index.php?action_kouhyou_detail_004_kani=true&JigyosyoCd=4570101438-00&ServiceCd=510&Type=search", "url2": "http://www.fujimoto.or.jp" }, "geometry": { "type": "Point", "coordinates": [ 131.4383748, 31.919920400000034 ] } },
{ "type": "Feature", "properties": { "内容": "特別養護老人ホーム皇寿園【介護老人福祉施設】宮崎県宮崎市阿波岐原町前浜4276番地650", "url": "https://www.kaigokensaku.mhlw.go.jp/45/index.php?action_kouhyou_detail_004_kani=true&JigyosyoCd=4570101008-00&ServiceCd=510&Type=search", "url2": "http://www.hyugakosei.jp/" }, "geometry": { "type": "Point", "coordinates": [ 131.462565300000051, 31.9398452 ] } },
{ "type": "Feature", "properties": { "内容": "特別養護老人ホーム長生園【介護老人福祉施設】宮崎県宮崎市山崎町浜川37番地", "url": "https://www.kaigokensaku.mhlw.go.jp/45/index.php?action_kouhyou_detail_004_kani=true&JigyosyoCd=4570106304-00&ServiceCd=510&Type=search", "url2": "https://www.choseien.jp" }, "geometry": { "type": "Point", "coordinates": [ 131.465259816036308, 31.957369428619582 ] } },
{ "type": "Feature", "properties": { "内容": "特別養護老人ホームわにつか荘【介護老人福祉施設】宮崎県宮崎市田野町乙１７４２番地３０", "url": "https://www.kaigokensaku.mhlw.go.jp/45/index.php?action_kouhyou_detail_004_kani=true&JigyosyoCd=4571500547-00&ServiceCd=510&Type=search", "url2": "http://www.fukushi-zenjinkai.jp/wanituka/w_index.html" }, "geometry": { "type": "Point", "coordinates": [ 131.276612399999976, 31.8379007 ] } },
{ "type": "Feature", "properties": { "内容": "特別養護老人ホームめぐみの里【介護老人福祉施設】宮崎県宮崎市佐土原町東上那珂12809-1", "url": "https://www.kaigokensaku.mhlw.go.jp/45/index.php?action_kouhyou_detail_004_kani=true&JigyosyoCd=4571500273-00&ServiceCd=510&Type=search", "url2": "https://www.megumi-village.jp" }, "geometry": { "type": "Point", "coordinates": [ 131.434124200000042, 32.0197853 ] } },
{ "type": "Feature", "properties": { "内容": "特別養護老人ホーム寿幸園【介護老人福祉施設】宮崎県宮崎市清武町木原5232番地2", "url": "https://www.kaigokensaku.mhlw.go.jp/45/index.php?action_kouhyou_detail_004_kani=true&JigyosyoCd=4571500257-00&ServiceCd=510&Type=search", "url2": "http://www.koujikai.com" }, "geometry": { "type": "Point", "coordinates": [ 131.3995625, 31.8421003 ] } },
{ "type": "Feature", "properties": { "内容": "特別養護老人ホーム裕生園【介護老人福祉施設】宮崎県宮崎市高岡町内山2407番地3", "url": "https://www.kaigokensaku.mhlw.go.jp/45/index.php?action_kouhyou_detail_004_kani=true&JigyosyoCd=4571900036-00&ServiceCd=510&Type=search", "url2": "http://www.sin-ai-kai.jp" }, "geometry": { "type": "Point", "coordinates": [ 131.2952745, 31.968258 ] } },
{ "type": "Feature", "properties": { "内容": "特別養護老人ホ－ム　住之江【介護老人福祉施設】宮崎県宮崎市大字島之内２７５２番地", "url": "https://www.kaigokensaku.mhlw.go.jp/45/index.php?action_kouhyou_detail_004_kani=true&JigyosyoCd=4570100976-00&ServiceCd=510&Type=search", "url2": "http://www.m-shinwakai.jp" }, "geometry": { "type": "Point", "coordinates": [ 131.450316499999985, 31.9937381 ] } },
{ "type": "Feature", "properties": { "内容": "特別養護老人ホームしらふじ【介護老人福祉施設】宮崎県宮崎市大字糸原400番地", "url": "https://www.kaigokensaku.mhlw.go.jp/45/index.php?action_kouhyou_detail_004_kani=true&JigyosyoCd=4570103830-00&ServiceCd=510&Type=search", "url2": "http://www.ryoundo.or.jp/" }, "geometry": { "type": "Point", "coordinates": [ 131.36863459999995, 31.95795 ] } },
{ "type": "Feature", "properties": { "内容": "特別養護老人ホーム悠楽園【介護老人福祉施設】宮崎県宮崎市大字跡江２３６６番地", "url": "https://www.kaigokensaku.mhlw.go.jp/45/index.php?action_kouhyou_detail_004_kani=true&JigyosyoCd=4570100919-00&ServiceCd=510&Type=search", "url2": "http://www.ryoundo.or.jp/" }, "geometry": { "type": "Point", "coordinates": [ 131.390806699999985, 31.9379969 ] } },
{ "type": "Feature", "properties": { "内容": "星空の都さどわら【介護老人福祉施設】宮崎県宮崎市佐土原町下那珂３１６５番地１", "url": "https://www.kaigokensaku.mhlw.go.jp/45/index.php?action_kouhyou_detail_004_kani=true&JigyosyoCd=4571500265-00&ServiceCd=510&Type=search", "url2": "sadowara.info@fujimoto.or.jp" }, "geometry": { "type": "Point", "coordinates": [ 131.466331399999945, 32.0018854 ] } },
{ "type": "Feature", "properties": { "内容": "特別養護老人ホーム六角堂【介護老人福祉施設】宮崎県宮崎市大字島之内7391番地", "url": "https://www.kaigokensaku.mhlw.go.jp/45/index.php?action_kouhyou_detail_004_kani=true&JigyosyoCd=4570108771-00&ServiceCd=510&Type=search", "url2": "http://www.dojunkai.com" }, "geometry": { "type": "Point", "coordinates": [ 131.448700499999973, 31.9837779 ] } },
{ "type": "Feature", "properties": { "内容": "特別養護老人ホーム江南よしみ園【介護老人福祉施設】宮崎県宮崎市古城町南川内６７６", "url": "https://www.kaigokensaku.mhlw.go.jp/45/index.php?action_kouhyou_detail_004_kani=true&JigyosyoCd=4570102071-00&ServiceCd=510&Type=search", "url2": "http://www.kounanyoshimi.com/" }, "geometry": { "type": "Point", "coordinates": [ 131.402257162136038, 31.885690308693857 ] } },
{ "type": "Feature", "properties": { "内容": "特別養護老人ホーム長遊園【介護老人福祉施設】宮崎県都城市高野町２９００番地", "url": "https://www.kaigokensaku.mhlw.go.jp/45/index.php?action_kouhyou_detail_004_kani=true&JigyosyoCd=4570201022-00&ServiceCd=510&Type=search", "url2": "http://www.kanjikai.or.jp/" }, "geometry": { "type": "Point", "coordinates": [ 130.95674889999998, 31.8112817 ] } },
{ "type": "Feature", "properties": { "内容": "特別養護老人ホーム高城園東館【介護老人福祉施設】宮崎県都城市高城町穂満坊3418番地1", "url": "https://www.kaigokensaku.mhlw.go.jp/45/index.php?action_kouhyou_detail_004_kani=true&JigyosyoCd=4570203283-00&ServiceCd=510&Type=search", "url2": "https://www.takajyouen.jp/" }, "geometry": { "type": "Point", "coordinates": [ 131.127988533976804, 31.818994064646297 ] } },
{ "type": "Feature", "properties": { "内容": "特別養護老人ホーム　島津乃荘【介護老人福祉施設】吉尾町２２００番地1特別養護老人ホーム　島津乃荘", "url": "https://www.kaigokensaku.mhlw.go.jp/45/index.php?action_kouhyou_detail_004_kani=true&JigyosyoCd=4570202525-00&ServiceCd=510&Type=search", "url2": "https://keiwakaigroup.com/sf/institution/" }, "geometry": { "type": "Point", "coordinates": [ 131.073373845368906, 31.751665892509141 ] } },
{ "type": "Feature", "properties": { "内容": "特別養護老人ホームわかば【介護老人福祉施設】宮崎県都城市上長飯町2687番地1", "url": "https://www.kaigokensaku.mhlw.go.jp/45/index.php?action_kouhyou_detail_004_kani=true&JigyosyoCd=4570201642-00&ServiceCd=510&Type=search", "url2": "http://www.oyd-welfare.jp" }, "geometry": { "type": "Point", "coordinates": [ 131.087786245199936, 31.716013787781662 ] } },
{ "type": "Feature", "properties": { "内容": "特別養護老人ホームほほえみの園【介護老人福祉施設】宮崎県都城市丸谷町4670番地", "url": "https://www.kaigokensaku.mhlw.go.jp/45/index.php?action_kouhyou_detail_004_kani=true&JigyosyoCd=4570200792-00&ServiceCd=510&Type=search", "url2": null }, "geometry": { "type": "Point", "coordinates": [ 131.056232899999941, 31.8114513 ] } },
{ "type": "Feature", "properties": { "内容": "特別養護老人ホーム恵寿苑【介護老人福祉施設】宮崎県都城市太郎坊５６３－１", "url": "https://www.kaigokensaku.mhlw.go.jp/45/index.php?action_kouhyou_detail_004_kani=true&JigyosyoCd=4570200446-00&ServiceCd=510&Type=search", "url2": "http://www.keijuen.net" }, "geometry": { "type": "Point", "coordinates": [ 131.093595199999982, 31.7891627 ] } },
{ "type": "Feature", "properties": { "内容": "特別養護老人ホーム白寿園【介護老人福祉施設】宮崎県都城市庄内町8673番地", "url": "https://www.kaigokensaku.mhlw.go.jp/45/index.php?action_kouhyou_detail_004_kani=true&JigyosyoCd=4570200453-00&ServiceCd=510&Type=search", "url2": "http://www.mjfj.net/hakujuen/" }, "geometry": { "type": "Point", "coordinates": [ 131.021521500000063, 31.770065 ] } },
{ "type": "Feature", "properties": { "内容": "特別養護老人ホーム豊望園【介護老人福祉施設】宮崎県都城市安久町4995番地1", "url": "https://www.kaigokensaku.mhlw.go.jp/45/index.php?action_kouhyou_detail_004_kani=true&JigyosyoCd=4570200438-00&ServiceCd=510&Type=search", "url2": "http://www.houei-group.or.jp/" }, "geometry": { "type": "Point", "coordinates": [ 131.072002, 31.70032010000001 ] } },
{ "type": "Feature", "properties": { "内容": "特別養護老人ホーム高崎苑【介護老人福祉施設】宮崎県都城市高崎町縄瀬１６２２番地17", "url": "https://www.kaigokensaku.mhlw.go.jp/45/index.php?action_kouhyou_detail_004_kani=true&JigyosyoCd=4571700378-00&ServiceCd=510&Type=search", "url2": "https://www.kenseikai-takasakien.com" }, "geometry": { "type": "Point", "coordinates": [ 131.086332099999936, 31.8526842 ] } },
{ "type": "Feature", "properties": { "内容": "特別養護老人ホーム高城園【介護老人福祉施設】宮崎県都城市高城町穂満坊3416番地", "url": "https://www.kaigokensaku.mhlw.go.jp/45/index.php?action_kouhyou_detail_004_kani=true&JigyosyoCd=4571700352-00&ServiceCd=510&Type=search", "url2": "https://www.takajyouen.jp/" }, "geometry": { "type": "Point", "coordinates": [ 131.127208399999972, 31.8192249 ] } },
{ "type": "Feature", "properties": { "内容": "特別養護老人ホーム霧島荘【介護老人福祉施設】宮崎県都城市山之口町花木2302-1", "url": "https://www.kaigokensaku.mhlw.go.jp/45/index.php?action_kouhyou_detail_004_kani=true&JigyosyoCd=4571700345-00&ServiceCd=510&Type=search", "url2": "http://www.m-sj.or.jp/kirishima/" }, "geometry": { "type": "Point", "coordinates": [ 131.155573900000036, 31.786178800000016 ] } },
{ "type": "Feature", "properties": { "内容": "星空の都なかごう【介護老人福祉施設】宮崎県都城市豊満町2647", "url": "https://www.kaigokensaku.mhlw.go.jp/45/index.php?action_kouhyou_detail_004_kani=true&JigyosyoCd=4570200420-00&ServiceCd=510&Type=search", "url2": "https://nakago.fujimoto.com/" }, "geometry": { "type": "Point", "coordinates": [ 131.094853400000034, 31.7009318 ] } },
{ "type": "Feature", "properties": { "内容": "星空の都なかごうハーモニー【介護老人福祉施設】宮崎県都城市豊満町2647", "url": "https://www.kaigokensaku.mhlw.go.jp/45/index.php?action_kouhyou_detail_004_kani=true&JigyosyoCd=4570203275-00&ServiceCd=510&Type=search", "url2": "https://nakago.fujimoto.com" }, "geometry": { "type": "Point", "coordinates": [ 131.094853400000034, 31.7009318 ] } },
{ "type": "Feature", "properties": { "内容": "特別養護老人ホームあさぎり園【介護老人福祉施設】宮崎県都城市山田町中霧島2546-6", "url": "https://www.kaigokensaku.mhlw.go.jp/45/index.php?action_kouhyou_detail_004_kani=true&JigyosyoCd=4571700360-00&ServiceCd=510&Type=search", "url2": "http//asagirien.jp" }, "geometry": { "type": "Point", "coordinates": [ 131.04584, 31.7971356 ] } },
{ "type": "Feature", "properties": { "内容": "特別養護老人ホーム水明荘【介護老人福祉施設】宮崎県延岡市鯛名町908-1", "url": "https://www.kaigokensaku.mhlw.go.jp/45/index.php?action_kouhyou_detail_004_kani=true&JigyosyoCd=4570300139-00&ServiceCd=510&Type=search", "url2": "http://kousei-kai.jp/" }, "geometry": { "type": "Point", "coordinates": [ 131.6955461, 32.5064888 ] } },
{ "type": "Feature", "properties": { "内容": "特別養護老人ホーム　水明荘ユニット館【介護老人福祉施設】宮崎県延岡市鯛名町９０８番地１", "url": "https://www.kaigokensaku.mhlw.go.jp/45/index.php?action_kouhyou_detail_004_kani=true&JigyosyoCd=4570302218-00&ServiceCd=510&Type=search", "url2": "http://kousei-kai.jp/" }, "geometry": { "type": "Point", "coordinates": [ 131.6955461, 32.5064888 ] } },
{ "type": "Feature", "properties": { "内容": "特別養護老人ホームふれあいの里【介護老人福祉施設】宮崎県延岡市沖田町2240番地1", "url": "https://www.kaigokensaku.mhlw.go.jp/45/index.php?action_kouhyou_detail_004_kani=true&JigyosyoCd=4570300337-00&ServiceCd=510&Type=search", "url2": "http://www.heart-fureai.jp" }, "geometry": { "type": "Point", "coordinates": [ 131.668551512828117, 32.541532111010326 ] } },
{ "type": "Feature", "properties": { "内容": "特別養護老人ホーム敬寿園【介護老人福祉施設】宮崎県延岡市昭和町３丁目９番地３", "url": "https://www.kaigokensaku.mhlw.go.jp/45/index.php?action_kouhyou_detail_004_kani=true&JigyosyoCd=4570300352-00&ServiceCd=510&Type=search", "url2": "//kousei-kai.jp/" }, "geometry": { "type": "Point", "coordinates": [ 131.683716199999907, 32.5891448 ] } },
{ "type": "Feature", "properties": { "内容": "特別養護老人ホーム千寿園【介護老人福祉施設】宮崎県延岡市北浦町古江２６９３", "url": "https://www.kaigokensaku.mhlw.go.jp/45/index.php?action_kouhyou_detail_004_kani=true&JigyosyoCd=4572100412-00&ServiceCd=510&Type=search", "url2": "https://www.senjuen.jp" }, "geometry": { "type": "Point", "coordinates": [ 131.816592200000059, 32.7092214 ] } },
{ "type": "Feature", "properties": { "内容": "特別養護老人ホームみのり園【介護老人福祉施設】宮崎県延岡市岡元町789番地3特別養護老人ホームみのり園", "url": "https://www.kaigokensaku.mhlw.go.jp/45/index.php?action_kouhyou_detail_004_kani=true&JigyosyoCd=4570300311-00&ServiceCd=510&Type=search", "url2": "https://www.minori-en.jp/" }, "geometry": { "type": "Point", "coordinates": [ 131.559762518356024, 32.567788046684399 ] } },
{ "type": "Feature", "properties": { "内容": "特別養護老人ホーム楓荘【介護老人福祉施設】宮崎県延岡市無鹿町１丁目２０３１番地５", "url": "https://www.kaigokensaku.mhlw.go.jp/45/index.php?action_kouhyou_detail_004_kani=true&JigyosyoCd=4570300329-00&ServiceCd=510&Type=search", "url2": "http://www.mitubakai.jp/kaedesou" }, "geometry": { "type": "Point", "coordinates": [ 131.683300899999949, 32.6144374 ] } },
{ "type": "Feature", "properties": { "内容": "特別養護老人ホームみのり園ユニット館【介護老人福祉施設】宮崎県延岡市岡元町789番地1", "url": "https://www.kaigokensaku.mhlw.go.jp/45/index.php?action_kouhyou_detail_004_kani=true&JigyosyoCd=4570301962-00&ServiceCd=510&Type=search", "url2": null }, "geometry": { "type": "Point", "coordinates": [ 131.559763188468906, 32.56779139941429 ] } },
{ "type": "Feature", "properties": { "内容": "特別養護老人ホームひえいの郷【介護老人福祉施設】宮崎県延岡市北方町川水流卯1810番地86", "url": "https://www.kaigokensaku.mhlw.go.jp/45/index.php?action_kouhyou_detail_004_kani=true&JigyosyoCd=4572100396-00&ServiceCd=510&Type=search", "url2": "http://www.kawazurufukushikai.jp/" }, "geometry": { "type": "Point", "coordinates": [ 131.5158851, 32.5726662 ] } },
{ "type": "Feature", "properties": { "内容": "特別養護老人ホームきたがわ荘【介護老人福祉施設】宮崎県延岡市北川町長井5565番地8", "url": "https://www.kaigokensaku.mhlw.go.jp/45/index.php?action_kouhyou_detail_004_kani=true&JigyosyoCd=4572100404-00&ServiceCd=510&Type=search", "url2": "https://www.kitagawa-houjukai.com" }, "geometry": { "type": "Point", "coordinates": [ 131.7046775, 32.6652781 ] } },
{ "type": "Feature", "properties": { "内容": "特別養護老人ホームはまゆうの里【介護老人福祉施設】宮崎県日南市大字楠原１８４０番地", "url": "https://www.kaigokensaku.mhlw.go.jp/45/index.php?action_kouhyou_detail_004_kani=true&JigyosyoCd=4570400145-00&ServiceCd=510&Type=search", "url2": "http://tokueikai.lar.jp" }, "geometry": { "type": "Point", "coordinates": [ 131.342676799999907, 31.6179051 ] } },
{ "type": "Feature", "properties": { "内容": "特別養護老人ホーム河鹿の里【介護老人福祉施設】宮崎県日南市北郷町大藤甲３１８６番地１", "url": "https://www.kaigokensaku.mhlw.go.jp/45/index.php?action_kouhyou_detail_004_kani=true&JigyosyoCd=4571600073-00&ServiceCd=510&Type=search", "url2": "http://www.aisenkai.jp/" }, "geometry": { "type": "Point", "coordinates": [ 131.381403800000044, 31.6577249 ] } },
{ "type": "Feature", "properties": { "内容": "特別養護老人ホーム昭寿園サンヒルズ【介護老人福祉施設】宮崎県日南市大字風田3224番地", "url": "https://www.kaigokensaku.mhlw.go.jp/45/index.php?action_kouhyou_detail_004_kani=true&JigyosyoCd=4570401242-00&ServiceCd=510&Type=search", "url2": "https://www.shojuen.jp/" }, "geometry": { "type": "Point", "coordinates": [ 131.418850300000031, 31.609199 ] } },
{ "type": "Feature", "properties": { "内容": "特別養護老人ホームくろしおの里【介護老人福祉施設】宮崎県日南市南郷町中村乙7051番地111", "url": "https://www.kaigokensaku.mhlw.go.jp/45/index.php?action_kouhyou_detail_004_kani=true&JigyosyoCd=4571600032-00&ServiceCd=510&Type=search", "url2": "https://kurosionosato.or.jp/" }, "geometry": { "type": "Point", "coordinates": [ 131.3776322, 31.5216095 ] } },
{ "type": "Feature", "properties": { "内容": "特別養護老人ホーム陽光の里【介護老人福祉施設】宮崎県小林市真方5038番地1", "url": "https://www.kaigokensaku.mhlw.go.jp/45/index.php?action_kouhyou_detail_004_kani=true&JigyosyoCd=4570500142-00&ServiceCd=510&Type=search", "url2": "https://kosumosukai.or.jp" }, "geometry": { "type": "Point", "coordinates": [ 130.995654800000011, 32.0013395 ] } },
{ "type": "Feature", "properties": { "内容": "特別養護老人ホーム美穂の里【介護老人福祉施設】宮崎県小林市北西方937-8", "url": "https://www.kaigokensaku.mhlw.go.jp/45/index.php?action_kouhyou_detail_004_kani=true&JigyosyoCd=4571800020-00&ServiceCd=510&Type=search", "url2": "http://www.souai-kobayashi.or.jp" }, "geometry": { "type": "Point", "coordinates": [ 130.938436398715254, 32.010037685453405 ] } },
{ "type": "Feature", "properties": { "内容": "ユニット型特別養護老人ホームきりしまの園【介護老人福祉施設】野尻町三ヶ野山４３３６－７４", "url": "https://www.kaigokensaku.mhlw.go.jp/45/index.php?action_kouhyou_detail_004_kani=true&JigyosyoCd=4570500894-00&ServiceCd=510&Type=search", "url2": "www.kirisimanosono.com" }, "geometry": { "type": "Point", "coordinates": [ 131.077678099999957, 31.963678 ] } },
{ "type": "Feature", "properties": { "内容": "特別養護老人ホーム陽光の里　こもれび【介護老人福祉施設】宮崎県小林市真方5038-1", "url": "https://www.kaigokensaku.mhlw.go.jp/45/index.php?action_kouhyou_detail_004_kani=true&JigyosyoCd=4570500910-00&ServiceCd=510&Type=search", "url2": null }, "geometry": { "type": "Point", "coordinates": [ 130.995654800000011, 32.0013395 ] } },
{ "type": "Feature", "properties": { "内容": "特別養護老人ホームひなもり園【介護老人福祉施設】宮崎県小林市堤4380番地", "url": "https://www.kaigokensaku.mhlw.go.jp/45/index.php?action_kouhyou_detail_004_kani=true&JigyosyoCd=4570500126-00&ServiceCd=510&Type=search", "url2": "http://www.tokiwa-kai.or.jp" }, "geometry": { "type": "Point", "coordinates": [ 131.010824800000023, 31.9622381 ] } },
{ "type": "Feature", "properties": { "内容": "特別養護老人ホームきりしまの園【介護老人福祉施設】宮崎県小林市野尻町三ヶ野山４３３６番地７４", "url": "https://www.kaigokensaku.mhlw.go.jp/45/index.php?action_kouhyou_detail_004_kani=true&JigyosyoCd=4571800053-00&ServiceCd=510&Type=search", "url2": "www.kirisimanosono.com" }, "geometry": { "type": "Point", "coordinates": [ 131.077678099999957, 31.963678 ] } },
{ "type": "Feature", "properties": { "内容": "特別養護老人ホーム永寿園ユニット館【介護老人福祉施設】宮崎県日向市大字富高５４６番地１", "url": "https://www.kaigokensaku.mhlw.go.jp/45/index.php?action_kouhyou_detail_004_kani=true&JigyosyoCd=4570601296-00&ServiceCd=510&Type=search", "url2": "https://www.himawarikai.or.jp/" }, "geometry": { "type": "Point", "coordinates": [ 131.617578889549236, 32.420797531553241 ] } },
{ "type": "Feature", "properties": { "内容": "特別養護老人ホーム伊勢の郷【介護老人福祉施設】宮崎県日向市大字日知屋字深溝622番地116", "url": "https://www.kaigokensaku.mhlw.go.jp/45/index.php?action_kouhyou_detail_004_kani=true&JigyosyoCd=4570600363-00&ServiceCd=510&Type=search", "url2": "https://hakuyou.or.jp/" }, "geometry": { "type": "Point", "coordinates": [ 131.656257048301683, 32.415566928547463 ] } },
{ "type": "Feature", "properties": { "内容": "特別養護老人ホーム永寿園【介護老人福祉施設】宮崎県日向市大字富高字岩崎５４６番地１", "url": "https://www.kaigokensaku.mhlw.go.jp/45/index.php?action_kouhyou_detail_004_kani=true&JigyosyoCd=4570600181-00&ServiceCd=510&Type=search", "url2": "www.himawarikai.or.jp/" }, "geometry": { "type": "Point", "coordinates": [ 131.617715800000042, 32.4206359 ] } },
{ "type": "Feature", "properties": { "内容": "特別養護老人ホーム立縫の里【介護老人福祉施設】宮崎県日向市美々津町4074番地", "url": "https://www.kaigokensaku.mhlw.go.jp/45/index.php?action_kouhyou_detail_004_kani=true&JigyosyoCd=4570600199-00&ServiceCd=510&Type=search", "url2": "http://www.tachinuikai.or.jp" }, "geometry": { "type": "Point", "coordinates": [ 131.597387199999957, 32.3326636 ] } },
{ "type": "Feature", "properties": { "内容": "特別養護老人ホーム牧水園【介護老人福祉施設】宮崎県日向市東郷町山陰丙１４２２－２", "url": "https://www.kaigokensaku.mhlw.go.jp/45/index.php?action_kouhyou_detail_004_kani=true&JigyosyoCd=4572100388-00&ServiceCd=510&Type=search", "url2": "http://gyokuhou-kai.or.jp/" }, "geometry": { "type": "Point", "coordinates": [ 131.5319882, 32.3941693 ] } },
{ "type": "Feature", "properties": { "内容": "特別養護老人ホームゆうゆうの森【介護老人福祉施設】宮崎県串間市大字串間１０９４", "url": "https://www.kaigokensaku.mhlw.go.jp/45/index.php?action_kouhyou_detail_004_kani=true&JigyosyoCd=4570700270-00&ServiceCd=510&Type=search", "url2": "http://www.y-mori.com" }, "geometry": { "type": "Point", "coordinates": [ 131.25090380000006, 31.496258 ] } },
{ "type": "Feature", "properties": { "内容": "特別養護老人ホーム望洋の郷【介護老人福祉施設】宮崎県串間市大字南方字金谷城4201-1", "url": "https://www.kaigokensaku.mhlw.go.jp/45/index.php?action_kouhyou_detail_004_kani=true&JigyosyoCd=4570700254-00&ServiceCd=510&Type=search", "url2": "http://www.kuroshiokai.com" }, "geometry": { "type": "Point", "coordinates": [ 131.228303200000028, 31.4645389 ] } },
{ "type": "Feature", "properties": { "内容": "特別養護老人ホーム寿楽園【介護老人福祉施設】宮崎県串間市大字西方4341-1", "url": "https://www.kaigokensaku.mhlw.go.jp/45/index.php?action_kouhyou_detail_004_kani=true&JigyosyoCd=4570700106-00&ServiceCd=510&Type=search", "url2": "https://kuroshiokai.com" }, "geometry": { "type": "Point", "coordinates": [ 131.229379784252956, 31.470106587504674 ] } },
{ "type": "Feature", "properties": { "内容": "特別養護老人ホーム幸楽荘花はな館【介護老人福祉施設】宮崎県西都市大字茶臼原字轟941番地1", "url": "https://www.kaigokensaku.mhlw.go.jp/45/index.php?action_kouhyou_detail_004_kani=true&JigyosyoCd=4570800609-00&ServiceCd=510&Type=search", "url2": "http://www.m-shinwakai.jp" }, "geometry": { "type": "Point", "coordinates": [ 131.424605271994324, 32.133536975364599 ] } },
{ "type": "Feature", "properties": { "内容": "特別養護老人ホーム三納の里【介護老人福祉施設】西都市平郡598番地1", "url": "https://www.kaigokensaku.mhlw.go.jp/45/index.php?action_kouhyou_detail_004_kani=true&JigyosyoCd=4570800351-00&ServiceCd=510&Type=search", "url2": "https://sanseikai-sw.jp" }, "geometry": { "type": "Point", "coordinates": [ 131.374949499999957, 32.0900693 ] } },
{ "type": "Feature", "properties": { "内容": "特別養護老人ホーム幸楽荘【介護老人福祉施設】宮崎県西都市大字茶臼原字轟941番地1", "url": "https://www.kaigokensaku.mhlw.go.jp/45/index.php?action_kouhyou_detail_004_kani=true&JigyosyoCd=4570800120-00&ServiceCd=510&Type=search", "url2": "http://www.m-shinwakai.jp/" }, "geometry": { "type": "Point", "coordinates": [ 131.417483113044682, 32.140135183568162 ] } },
{ "type": "Feature", "properties": { "内容": "特別養護老人ホームとのこおり荘【介護老人福祉施設】宮崎県西都市大字岩爪１６４５", "url": "https://www.kaigokensaku.mhlw.go.jp/45/index.php?action_kouhyou_detail_004_kani=true&JigyosyoCd=4570800138-00&ServiceCd=510&Type=search", "url2": null }, "geometry": { "type": "Point", "coordinates": [ 131.384021, 32.0451788 ] } },
{ "type": "Feature", "properties": { "内容": "特別養護老人ホームあけぼの園【介護老人福祉施設】宮崎県えびの市大字榎田５７９番地１０", "url": "https://www.kaigokensaku.mhlw.go.jp/45/index.php?action_kouhyou_detail_004_kani=true&JigyosyoCd=4570900011-00&ServiceCd=510&Type=search", "url2": "http://ebino-meiyukai.or.jp" }, "geometry": { "type": "Point", "coordinates": [ 130.8126896, 32.065642953975583 ] } },
{ "type": "Feature", "properties": { "内容": "特別養護老人ホームえびの涼風園【介護老人福祉施設】宮崎県えびの市大字岡松１番地", "url": "https://www.kaigokensaku.mhlw.go.jp/45/index.php?action_kouhyou_detail_004_kani=true&JigyosyoCd=4570900102-00&ServiceCd=510&Type=search", "url2": "https://ryofuen.com" }, "geometry": { "type": "Point", "coordinates": [ 130.753911409509328, 32.041460317039231 ] } },
{ "type": "Feature", "properties": { "内容": "特別養護老人ホーム八幡の里【介護老人福祉施設】宮崎県えびの市大字原田1403-27", "url": "https://www.kaigokensaku.mhlw.go.jp/45/index.php?action_kouhyou_detail_004_kani=true&JigyosyoCd=4570900425-00&ServiceCd=510&Type=search", "url2": "http://www.all-souai.or.jp/akebonoen/index.htm" }, "geometry": { "type": "Point", "coordinates": [ 130.878010672491428, 32.030957753344182 ] } },
{ "type": "Feature", "properties": { "内容": "星空の都みまた【介護老人福祉施設】宮崎県三股町大字長田1266番地1", "url": "https://www.kaigokensaku.mhlw.go.jp/45/index.php?action_kouhyou_detail_004_kani=true&JigyosyoCd=4571700337-00&ServiceCd=510&Type=search", "url2": "http://mimata.fujimoto.com" }, "geometry": { "type": "Point", "coordinates": [ 131.132191599999942, 31.7438455 ] } },
{ "type": "Feature", "properties": { "内容": "星空の都みまたハーモニー【介護老人福祉施設】宮崎県三股町大字長田1266番地1", "url": "https://www.kaigokensaku.mhlw.go.jp/45/index.php?action_kouhyou_detail_004_kani=true&JigyosyoCd=4571701012-00&ServiceCd=510&Type=search", "url2": "http：//mimata.fujimoto.com" }, "geometry": { "type": "Point", "coordinates": [ 131.13256100251624, 31.743513943572953 ] } },
{ "type": "Feature", "properties": { "内容": "特別養護老人ホーム　ミューズの虹高原【介護老人福祉施設】宮崎県西諸県郡高原町大字広原4961-7", "url": "https://www.kaigokensaku.mhlw.go.jp/45/index.php?action_kouhyou_detail_004_kani=true&JigyosyoCd=4571800152-00&ServiceCd=510&Type=search", "url2": "http://hoshakai.com/" }, "geometry": { "type": "Point", "coordinates": [ 130.994720259664774, 31.927643399913553 ] } },
{ "type": "Feature", "properties": { "内容": "特別養護老人ホームさくら苑【介護老人福祉施設】宮崎県東諸県郡国富町大字三名２６２１番地６", "url": "https://www.kaigokensaku.mhlw.go.jp/45/index.php?action_kouhyou_detail_004_kani=true&JigyosyoCd=4571900184-00&ServiceCd=510&Type=search", "url2": "http://www.keimeisw.or.jp" }, "geometry": { "type": "Point", "coordinates": [ 131.349644600000033, 32.0079701 ] } },
{ "type": "Feature", "properties": { "内容": "特別養護老人ホームやすらぎの里【介護老人福祉施設】宮崎県東諸県郡綾町大字南俣561番地", "url": "https://www.kaigokensaku.mhlw.go.jp/45/index.php?action_kouhyou_detail_004_kani=true&JigyosyoCd=4571900192-00&ServiceCd=510&Type=search", "url2": "http://yasuragi-sato.main.jp" }, "geometry": { "type": "Point", "coordinates": [ 131.255304099999989, 31.9942969 ] } },
{ "type": "Feature", "properties": { "内容": "特別養護老人ホーム鈴山荘【介護老人福祉施設】宮崎県児湯郡高鍋町大字上江6956番地2", "url": "https://www.kaigokensaku.mhlw.go.jp/45/index.php?action_kouhyou_detail_004_kani=true&JigyosyoCd=4572000596-00&ServiceCd=510&Type=search", "url2": null }, "geometry": { "type": "Point", "coordinates": [ 131.477582100000063, 32.1227847 ] } },
{ "type": "Feature", "properties": { "内容": "特別養護老人ﾎｰﾑ　しんとみ希望の里2号館【介護老人福祉施設】宮崎県児湯郡新富町大字下富田629番1", "url": "https://www.kaigokensaku.mhlw.go.jp/45/index.php?action_kouhyou_detail_004_kani=true&JigyosyoCd=4572001362-00&ServiceCd=510&Type=search", "url2": "www.kouseikai.biz/" }, "geometry": { "type": "Point", "coordinates": [ 131.50001420000001, 32.0554368 ] } },
{ "type": "Feature", "properties": { "内容": "特別養護老人ホームしんとみ希望の里【介護老人福祉施設】宮崎県児湯郡新富町大字下富田字小島江629番5", "url": "https://www.kaigokensaku.mhlw.go.jp/45/index.php?action_kouhyou_detail_004_kani=true&JigyosyoCd=4572000273-00&ServiceCd=510&Type=search", "url2": "http://www.kouseikai.biz/" }, "geometry": { "type": "Point", "coordinates": [ 131.499271649026468, 32.055374579327925 ] } },
{ "type": "Feature", "properties": { "内容": "特別養護老人ホーム天包荘【介護老人福祉施設】宮崎県児湯郡西米良村大字竹原４３２番地", "url": "https://www.kaigokensaku.mhlw.go.jp/45/index.php?action_kouhyou_detail_004_kani=true&JigyosyoCd=4572000364-00&ServiceCd=510&Type=search", "url2": "https://tenposo.net/" }, "geometry": { "type": "Point", "coordinates": [ 131.152069791401686, 32.24104027116946 ] } },
{ "type": "Feature", "properties": { "内容": "特別養護老人ホーム新納荘【介護老人福祉施設】宮崎県児湯郡木城町大字高城３０７８番地", "url": "https://www.kaigokensaku.mhlw.go.jp/45/index.php?action_kouhyou_detail_004_kani=true&JigyosyoCd=4572000281-00&ServiceCd=510&Type=search", "url2": null }, "geometry": { "type": "Point", "coordinates": [ 131.46434290000002, 32.1667023 ] } },
{ "type": "Feature", "properties": { "内容": "特別養護老人ホームフェニックス【介護老人福祉施設】宮崎県児湯郡川南町大字川南17979番地87", "url": "https://www.kaigokensaku.mhlw.go.jp/45/index.php?action_kouhyou_detail_004_kani=true&JigyosyoCd=4572001156-00&ServiceCd=510&Type=search", "url2": "kawaminami-p.or.jp" }, "geometry": { "type": "Point", "coordinates": [ 131.515785100000016, 32.2160123 ] } },
{ "type": "Feature", "properties": { "内容": "特別養護老人ホーム鈴南の里【介護老人福祉施設】宮崎県児湯郡川南町大字川南12707番地", "url": "https://www.kaigokensaku.mhlw.go.jp/45/index.php?action_kouhyou_detail_004_kani=true&JigyosyoCd=4572000299-00&ServiceCd=510&Type=search", "url2": "http://www.suzunaminosato.com/" }, "geometry": { "type": "Point", "coordinates": [ 131.538358099999982, 32.2092444 ] } },
{ "type": "Feature", "properties": { "内容": "特別養護老人ホーム尾鈴荘【介護老人福祉施設】宮崎県児湯郡都農町大字川北18912番地10", "url": "https://www.kaigokensaku.mhlw.go.jp/45/index.php?action_kouhyou_detail_004_kani=true&JigyosyoCd=4572000307-00&ServiceCd=510&Type=search", "url2": null }, "geometry": { "type": "Point", "coordinates": [ 131.56300617116392, 32.277327941889126 ] } },
{ "type": "Feature", "properties": { "内容": "特別養護老人ホーム大地【介護老人福祉施設】宮崎県東臼杵郡門川町大字庵川2596番地2ふれあい地球館ビル", "url": "https://www.kaigokensaku.mhlw.go.jp/45/index.php?action_kouhyou_detail_004_kani=true&JigyosyoCd=4572100370-00&ServiceCd=510&Type=search", "url2": "himawarikai.or.jp" }, "geometry": { "type": "Point", "coordinates": [ 131.6752229, 32.4843314 ] } },
{ "type": "Feature", "properties": { "内容": "特別養護老人ホームもろつかせせらぎの里【介護老人福祉施設】宮崎県東臼杵郡諸塚村大字七ツ山５４番地特別養護老人ホーム　もろつかせせらぎの里", "url": "https://www.kaigokensaku.mhlw.go.jp/45/index.php?action_kouhyou_detail_004_kani=true&JigyosyoCd=4572100958-00&ServiceCd=510&Type=search", "url2": "http://care-net.biz/45/seseragi/" }, "geometry": { "type": "Point", "coordinates": [ 131.326830800000039, 32.4935305 ] } },
{ "type": "Feature", "properties": { "内容": "特別養護老人ホーム平寿園【介護老人福祉施設】宮崎県東臼杵郡椎葉村大字下福良５４－３３７", "url": "https://www.kaigokensaku.mhlw.go.jp/45/index.php?action_kouhyou_detail_004_kani=true&JigyosyoCd=4572100966-00&ServiceCd=510&Type=search", "url2": null }, "geometry": { "type": "Point", "coordinates": [ 131.147573343733256, 32.454220984533919 ] } },
{ "type": "Feature", "properties": { "内容": "特別養護老人ホーム若宮荘【介護老人福祉施設】宮崎県東臼杵郡美郷町西郷田代2208番地", "url": "https://www.kaigokensaku.mhlw.go.jp/45/index.php?action_kouhyou_detail_004_kani=true&JigyosyoCd=4572100032-00&ServiceCd=510&Type=search", "url2": "http://www.wakamiyaso.jp/" }, "geometry": { "type": "Point", "coordinates": [ 131.424090200000023, 32.434251 ] } },
{ "type": "Feature", "properties": { "内容": "特別養護老人ホーム百済の園【介護老人福祉施設】宮崎県東臼杵郡美郷町南郷神門９６０番地", "url": "https://www.kaigokensaku.mhlw.go.jp/45/index.php?action_kouhyou_detail_004_kani=true&JigyosyoCd=4572100446-00&ServiceCd=510&Type=search", "url2": "http://www.nangoukai.com/" }, "geometry": { "type": "Point", "coordinates": [ 131.329100499999981, 32.3855597 ] } },
{ "type": "Feature", "properties": { "内容": "特別養護老人ホームシルバースターうなまの里【介護老人福祉施設】宮崎県東臼杵郡美郷町北郷宇納間170", "url": "https://www.kaigokensaku.mhlw.go.jp/45/index.php?action_kouhyou_detail_004_kani=true&JigyosyoCd=4572100016-00&ServiceCd=510&Type=search", "url2": "https://www.unamanosato.jp/" }, "geometry": { "type": "Point", "coordinates": [ 131.443688100000031, 32.5049572 ] } },
{ "type": "Feature", "properties": { "内容": "特別養護老人ホーム雲居都荘【介護老人福祉施設】宮崎県西臼杵郡高千穂町大字上野１７番地", "url": "https://www.kaigokensaku.mhlw.go.jp/45/index.php?action_kouhyou_detail_004_kani=true&JigyosyoCd=4572200030-00&ServiceCd=510&Type=search", "url2": "http://www.takachiho-tenjyukai.jp/" }, "geometry": { "type": "Point", "coordinates": [ 131.299825899999973, 32.742048 ] } },
{ "type": "Feature", "properties": { "内容": "特別養護老人ホーム青雲荘【介護老人福祉施設】宮崎県西臼杵郡日之影町大字七折8826", "url": "https://www.kaigokensaku.mhlw.go.jp/45/index.php?action_kouhyou_detail_004_kani=true&JigyosyoCd=4572200147-00&ServiceCd=510&Type=search", "url2": null }, "geometry": { "type": "Point", "coordinates": [ 131.382824, 32.660346 ] } },
{ "type": "Feature", "properties": { "内容": "特別養護老人ホームごかせ荘【介護老人福祉施設】宮崎県西臼杵郡五ヶ瀬町大字三ヶ所10725番地1", "url": "https://www.kaigokensaku.mhlw.go.jp/45/index.php?action_kouhyou_detail_004_kani=true&JigyosyoCd=4572200139-00&ServiceCd=510&Type=search", "url2": null }, "geometry": { "type": "Point", "coordinates": [ 131.1989201, 32.685289 ] } }
]
}
