{
"type": "FeatureCollection",
"name": "geo_45_通所リハビリテーション",
"crs": { "type": "name", "properties": { "name": "urn:ogc:def:crs:OGC:1.3:CRS84" } },
"features": [
{ "type": "Feature", "properties": { "内容": "医療法人社団尚成会近間病院【通所リハビリテーション】宮崎県宮崎市山崎町965番地6", "url": "https://www.kaigokensaku.mhlw.go.jp/45/index.php?action_kouhyou_detail_004_kani=true&JigyosyoCd=4510116413-00&ServiceCd=160&Type=search", "url2": "http://www.chikama-hp.jp/" }, "geometry": { "type": "Point", "coordinates": [ 131.458780148548868, 31.947232171969787 ] } },
{ "type": "Feature", "properties": { "内容": "介護老人保健施設エンゼルホーム【通所リハビリテーション】宮崎県宮崎市大字広原１３５０番地", "url": "https://www.kaigokensaku.mhlw.go.jp/45/index.php?action_kouhyou_detail_004_kani=true&JigyosyoCd=4550180089-00&ServiceCd=160&Type=search", "url2": null }, "geometry": { "type": "Point", "coordinates": [ 131.440174699999943, 32.0050396 ] } },
{ "type": "Feature", "properties": { "内容": "江南まつもと整形外科通所リハビリテーションセンター【通所リハビリテーション】宮崎県宮崎市恒久5890番地1", "url": "https://www.kaigokensaku.mhlw.go.jp/45/index.php?action_kouhyou_detail_004_kani=true&JigyosyoCd=4510119615-00&ServiceCd=160&Type=search", "url2": "http://www.k-m-o.jp/" }, "geometry": { "type": "Point", "coordinates": [ 131.4062487, 31.8905735 ] } },
{ "type": "Feature", "properties": { "内容": "まつばし川野整形外科【通所リハビリテーション】宮崎県宮崎市松橋2-2-13", "url": "https://www.kaigokensaku.mhlw.go.jp/45/index.php?action_kouhyou_detail_004_kani=true&JigyosyoCd=4510118245-00&ServiceCd=160&Type=search", "url2": "https://www.matsubashikawano-seikeigeka.com/" }, "geometry": { "type": "Point", "coordinates": [ 131.416338499999938, 31.9115118 ] } },
{ "type": "Feature", "properties": { "内容": "宮元整形外科医院【通所リハビリテーション】宮崎県宮崎市佐土原町大字下田島１２３７２番地", "url": "https://www.kaigokensaku.mhlw.go.jp/45/index.php?action_kouhyou_detail_004_kani=true&JigyosyoCd=4510117700-00&ServiceCd=160&Type=search", "url2": null }, "geometry": { "type": "Point", "coordinates": [ 131.4676098, 32.0356519 ] } },
{ "type": "Feature", "properties": { "内容": "医療法人常伸会亀山記念クリニック【通所リハビリテーション】宮崎県宮崎市大字熊野1番地１", "url": "https://www.kaigokensaku.mhlw.go.jp/45/index.php?action_kouhyou_detail_004_kani=true&JigyosyoCd=4510117247-00&ServiceCd=160&Type=search", "url2": null }, "geometry": { "type": "Point", "coordinates": [ 131.434865299999956, 31.8274246 ] } },
{ "type": "Feature", "properties": { "内容": "たにむら整形外科デイケア【通所リハビリテーション】宮崎県宮崎市城ケ崎4-1-8", "url": "https://www.kaigokensaku.mhlw.go.jp/45/index.php?action_kouhyou_detail_004_kani=true&JigyosyoCd=4510115225-00&ServiceCd=160&Type=search", "url2": null }, "geometry": { "type": "Point", "coordinates": [ 131.433320900000012, 31.8975389 ] } },
{ "type": "Feature", "properties": { "内容": "ケアセンターおたっしゃ倶楽部宮崎【通所リハビリテーション】宮崎県宮崎市丸山１丁目２１番地", "url": "https://www.kaigokensaku.mhlw.go.jp/45/index.php?action_kouhyou_detail_004_kani=true&JigyosyoCd=4510116926-00&ServiceCd=160&Type=search", "url2": null }, "geometry": { "type": "Point", "coordinates": [ 131.4220904, 31.9259743 ] } },
{ "type": "Feature", "properties": { "内容": "岡田整形外科医院【通所リハビリテーション】宮崎県宮崎市大字浮田3313-1", "url": "https://www.kaigokensaku.mhlw.go.jp/45/index.php?action_kouhyou_detail_004_kani=true&JigyosyoCd=4510115084-00&ServiceCd=160&Type=search", "url2": "http://www.okada-seikeigeka.com/" }, "geometry": { "type": "Point", "coordinates": [ 131.378882699999963, 31.9298556 ] } },
{ "type": "Feature", "properties": { "内容": "このはな介護老人保健施設【通所リハビリテーション】宮崎県宮崎市大字浮田1677番地3このはな介護老人保健施設", "url": "https://www.kaigokensaku.mhlw.go.jp/45/index.php?action_kouhyou_detail_004_kani=true&JigyosyoCd=4570107989-00&ServiceCd=160&Type=search", "url2": "http://kou-sin.pr.miten.jp/" }, "geometry": { "type": "Point", "coordinates": [ 131.364176408016419, 31.918956238249439 ] } },
{ "type": "Feature", "properties": { "内容": "介護老人保健施設ことぶき苑【通所リハビリテーション】宮崎県宮崎市大字本郷北方字池田４０４３－１", "url": "https://www.kaigokensaku.mhlw.go.jp/45/index.php?action_kouhyou_detail_004_kani=true&JigyosyoCd=4550180055-00&ServiceCd=160&Type=search", "url2": "www.anami-kotobukien.jp" }, "geometry": { "type": "Point", "coordinates": [ 131.425953899999968, 31.8650247 ] } },
{ "type": "Feature", "properties": { "内容": "宮崎医療センター病院【通所リハビリテーション】宮崎県宮崎市高松町２番１６号", "url": "https://www.kaigokensaku.mhlw.go.jp/45/index.php?action_kouhyou_detail_004_kani=true&JigyosyoCd=4510113113-00&ServiceCd=160&Type=search", "url2": "http://www.jojinkai.com/miyazaki/" }, "geometry": { "type": "Point", "coordinates": [ 131.418918800000029, 31.9137006 ] } },
{ "type": "Feature", "properties": { "内容": "医療法人芳明会　通所リハビリテーションあくてぃぶ【通所リハビリテーション】宮崎県宮崎市大坪町西六月2197-1", "url": "https://www.kaigokensaku.mhlw.go.jp/45/index.php?action_kouhyou_detail_004_kani=true&JigyosyoCd=4510113725-00&ServiceCd=160&Type=search", "url2": "http://houmei.or.jp/" }, "geometry": { "type": "Point", "coordinates": [ 131.406305138906163, 31.895061088477725 ] } },
{ "type": "Feature", "properties": { "内容": "介護老人保健施設ひむか苑【通所リハビリテーション】宮崎県宮崎市大字小松1158", "url": "https://www.kaigokensaku.mhlw.go.jp/45/index.php?action_kouhyou_detail_004_kani=true&JigyosyoCd=4550180097-00&ServiceCd=160&Type=search", "url2": "http://www.himukaen.junwakai.com/" }, "geometry": { "type": "Point", "coordinates": [ 131.402825200000052, 31.9338588 ] } },
{ "type": "Feature", "properties": { "内容": "介護老人保健施設　あおしまのいえ【通所リハビリテーション】宮崎県宮崎市青島4丁目6－3", "url": "https://www.kaigokensaku.mhlw.go.jp/45/index.php?action_kouhyou_detail_004_kani=true&JigyosyoCd=4550180014-00&ServiceCd=160&Type=search", "url2": null }, "geometry": { "type": "Point", "coordinates": [ 131.469258787696845, 31.795971503718771 ] } },
{ "type": "Feature", "properties": { "内容": "介護老人保健施設サンヒルきよたけ【通所リハビリテーション】宮崎県宮崎市清武町木原5886番地16", "url": "https://www.kaigokensaku.mhlw.go.jp/45/index.php?action_kouhyou_detail_004_kani=true&JigyosyoCd=4551580014-00&ServiceCd=160&Type=search", "url2": "http://www.suntaiyo.jp" }, "geometry": { "type": "Point", "coordinates": [ 131.395088100000066, 31.8381477 ] } },
{ "type": "Feature", "properties": { "内容": "学園台クリニック【通所リハビリテーション】宮崎県宮崎市大字熊野7275-1", "url": "https://www.kaigokensaku.mhlw.go.jp/45/index.php?action_kouhyou_detail_004_kani=true&JigyosyoCd=4510115019-00&ServiceCd=160&Type=search", "url2": "https://www.m-zenjin.or.jp/satellite/gakuendai/about" }, "geometry": { "type": "Point", "coordinates": [ 131.423749499999985, 31.834626600000018 ] } },
{ "type": "Feature", "properties": { "内容": "市民の森クリニック通所リハビリテーションセンター【通所リハビリテーション】宮崎県宮崎市大字塩路江良の上2783番地37", "url": "https://www.kaigokensaku.mhlw.go.jp/45/index.php?action_kouhyou_detail_004_kani=true&JigyosyoCd=4510120340-00&ServiceCd=160&Type=search", "url2": "https://www.m-zenjin.or.jp/satellite/shiminnomori-clinic/rehabilitation" }, "geometry": { "type": "Point", "coordinates": [ 131.468672910450749, 31.966655998779945 ] } },
{ "type": "Feature", "properties": { "内容": "独立行政法人地域医療機能推進機構宮崎江南病院附属介護老人保健施設【通所リハビリテーション】宮崎県宮崎市大字恒久字鳥の巣6245-1", "url": "https://www.kaigokensaku.mhlw.go.jp/45/index.php?action_kouhyou_detail_004_kani=true&JigyosyoCd=4550180105-00&ServiceCd=160&Type=search", "url2": "http://miyzaki.jcho.go.jp/rouken/" }, "geometry": { "type": "Point", "coordinates": [ 131.40497933070526, 31.895545873604423 ] } },
{ "type": "Feature", "properties": { "内容": "医療法人ごとう整形外科【通所リハビリテーション】阿波岐原町坂元2011-3ごとう整形外科", "url": "https://www.kaigokensaku.mhlw.go.jp/45/index.php?action_kouhyou_detail_004_kani=true&JigyosyoCd=4510118997-00&ServiceCd=160&Type=search", "url2": null }, "geometry": { "type": "Point", "coordinates": [ 131.4524097, 31.9298043 ] } },
{ "type": "Feature", "properties": { "内容": "医療法人社団にしぞの内科【通所リハビリテーション】宮崎県宮崎市高岡町飯田4丁目1番地8", "url": "https://www.kaigokensaku.mhlw.go.jp/45/index.php?action_kouhyou_detail_004_kani=true&JigyosyoCd=4510117874-00&ServiceCd=160&Type=search", "url2": "https://www.nishizononaika.jp/" }, "geometry": { "type": "Point", "coordinates": [ 131.303981599999986, 31.95630170000004 ] } },
{ "type": "Feature", "properties": { "内容": "いしかわ内科【通所リハビリテーション】宮崎県宮崎市神宮西１－４９－１", "url": "https://www.kaigokensaku.mhlw.go.jp/45/index.php?action_kouhyou_detail_004_kani=true&JigyosyoCd=4570100380-00&ServiceCd=160&Type=search", "url2": "https://www.sanyu-kai.or.jp/" }, "geometry": { "type": "Point", "coordinates": [ 131.417529400000035, 31.9361229 ] } },
{ "type": "Feature", "properties": { "内容": "介護老人保健施設むつみ苑【通所リハビリテーション】宮崎県宮崎市池内町伊勢領1344番地", "url": "https://www.kaigokensaku.mhlw.go.jp/45/index.php?action_kouhyou_detail_004_kani=true&JigyosyoCd=4550180030-00&ServiceCd=160&Type=search", "url2": "https://zinwakai-mutsumien.com/" }, "geometry": { "type": "Point", "coordinates": [ 131.414224296889557, 31.962820470181043 ] } },
{ "type": "Feature", "properties": { "内容": "介護老人保健施設シルバーケア野崎【通所リハビリテーション】宮崎市村角町高尊２１０５", "url": "https://www.kaigokensaku.mhlw.go.jp/45/index.php?action_kouhyou_detail_004_kani=true&JigyosyoCd=4550180022-00&ServiceCd=160&Type=search", "url2": "http://www.koujunkai.jp" }, "geometry": { "type": "Point", "coordinates": [ 131.447704499999986, 31.9583049 ] } },
{ "type": "Feature", "properties": { "内容": "通所リハビリテーションあびりんす【通所リハビリテーション】宮崎県宮崎市大字小松1119番地潤和会記念病院S館1階", "url": "https://www.kaigokensaku.mhlw.go.jp/45/index.php?action_kouhyou_detail_004_kani=true&JigyosyoCd=4570103186-00&ServiceCd=160&Type=search", "url2": "https://www.junwakai.com/" }, "geometry": { "type": "Point", "coordinates": [ 131.403031580426045, 31.934916932250601 ] } },
{ "type": "Feature", "properties": { "内容": "医療法人雅会河野整形外科医院【通所リハビリテーション】宮崎県宮崎市大字島之内７３０９番地", "url": "https://www.kaigokensaku.mhlw.go.jp/45/index.php?action_kouhyou_detail_004_kani=true&JigyosyoCd=4510114376-00&ServiceCd=160&Type=search", "url2": null }, "geometry": { "type": "Point", "coordinates": [ 131.4510725, 31.9855167 ] } },
{ "type": "Feature", "properties": { "内容": "介護老人保健施設　グリーンケア学園木花【通所リハビリテーション】宮崎市熊野４７０番地２", "url": "https://www.kaigokensaku.mhlw.go.jp/45/index.php?action_kouhyou_detail_004_kani=true&JigyosyoCd=4550180071-00&ServiceCd=160&Type=search", "url2": "http://www.green-care.net/" }, "geometry": { "type": "Point", "coordinates": [ 131.438523300000043, 31.8282468 ] } },
{ "type": "Feature", "properties": { "内容": "介護老人保健施設エンゼルホーム【通所リハビリテーション】宮崎県宮崎市大字広原1350", "url": "https://www.kaigokensaku.mhlw.go.jp/45/index.php?action_kouhyou_detail_004_kani=true&JigyosyoCd=4550180113-00&ServiceCd=160&Type=search", "url2": "http://angel-home.net" }, "geometry": { "type": "Point", "coordinates": [ 131.4403237, 32.0049711 ] } },
{ "type": "Feature", "properties": { "内容": "介護老人保健施設春草苑【通所リハビリテーション】宮崎県宮崎市池内町数太木１７４９－１", "url": "https://www.kaigokensaku.mhlw.go.jp/45/index.php?action_kouhyou_detail_004_kani=true&JigyosyoCd=4550180048-00&ServiceCd=160&Type=search", "url2": "http://www.kgh.or.jp/" }, "geometry": { "type": "Point", "coordinates": [ 131.410293574729849, 31.970731765579497 ] } },
{ "type": "Feature", "properties": { "内容": "医療法人社団栄正　慈英病院【通所リハビリテーション】宮崎県宮崎市中西町160番地", "url": "https://www.kaigokensaku.mhlw.go.jp/45/index.php?action_kouhyou_detail_004_kani=true&JigyosyoCd=4510119805-00&ServiceCd=160&Type=search", "url2": "https://www.jiei.jp" }, "geometry": { "type": "Point", "coordinates": [ 131.4457476, 31.9052232 ] } },
{ "type": "Feature", "properties": { "内容": "医療法人陽明会増田病院【通所リハビリテーション】宮崎県宮崎市大字大瀬町2176-1", "url": "https://www.kaigokensaku.mhlw.go.jp/45/index.php?action_kouhyou_detail_004_kani=true&JigyosyoCd=4510115985-00&ServiceCd=160&Type=search", "url2": "http://www.masudahp.jp" }, "geometry": { "type": "Point", "coordinates": [ 131.380322, 31.9727296 ] } },
{ "type": "Feature", "properties": { "内容": "青島リゾートクリニック【通所リハビリテーション】宮崎県宮崎市大字加江田5646番地1", "url": "https://www.kaigokensaku.mhlw.go.jp/45/index.php?action_kouhyou_detail_004_kani=true&JigyosyoCd=4510120399-00&ServiceCd=160&Type=search", "url2": "http://www.seibikai-group.or.jp/aoshima_resort_clinic/index.html" }, "geometry": { "type": "Point", "coordinates": [ 131.4457526, 31.8113105 ] } },
{ "type": "Feature", "properties": { "内容": "吉見クリニック【通所リハビリテーション】宮崎県都城市高城町穂満坊459番地1", "url": "https://www.kaigokensaku.mhlw.go.jp/45/index.php?action_kouhyou_detail_004_kani=true&JigyosyoCd=4510213202-00&ServiceCd=160&Type=search", "url2": "http://t-yoshimi,sakura,ne,jp/yoshimihp/" }, "geometry": { "type": "Point", "coordinates": [ 131.125201100000027, 31.8016931 ] } },
{ "type": "Feature", "properties": { "内容": "城南病院　通所リハビリテーション【通所リハビリテーション】都城市大王町30街区5号", "url": "https://www.kaigokensaku.mhlw.go.jp/45/index.php?action_kouhyou_detail_004_kani=true&JigyosyoCd=4510210208-00&ServiceCd=160&Type=search", "url2": "http://www.johnan-hp.or.jp/" }, "geometry": { "type": "Point", "coordinates": [ 131.0641458, 31.7333336 ] } },
{ "type": "Feature", "properties": { "内容": "介護老人保健施設すこやか苑【通所リハビリテーション】宮崎県都城市大岩田町5812番地", "url": "https://www.kaigokensaku.mhlw.go.jp/45/index.php?action_kouhyou_detail_004_kani=true&JigyosyoCd=4570205007-00&ServiceCd=160&Type=search", "url2": null }, "geometry": { "type": "Point", "coordinates": [ 131.055725699999982, 31.6914099 ] } },
{ "type": "Feature", "properties": { "内容": "藤元総合病院　通所リハビリテーションセンター【通所リハビリテーション】宮崎県都城市早鈴町17-1", "url": "https://www.kaigokensaku.mhlw.go.jp/45/index.php?action_kouhyou_detail_004_kani=true&JigyosyoCd=4510210018-00&ServiceCd=160&Type=search", "url2": "http://www.fujimoto.or.jp/" }, "geometry": { "type": "Point", "coordinates": [ 131.0663128, 31.7180017 ] } },
{ "type": "Feature", "properties": { "内容": "通所リハビリテーションひだまり園【通所リハビリテーション】宮崎県都城市庄内町8610番地", "url": "https://www.kaigokensaku.mhlw.go.jp/45/index.php?action_kouhyou_detail_004_kani=true&JigyosyoCd=4510212717-00&ServiceCd=160&Type=search", "url2": null }, "geometry": { "type": "Point", "coordinates": [ 131.02152430000001, 31.7694957 ] } },
{ "type": "Feature", "properties": { "内容": "医療法人清陵会　隅病院【通所リハビリテーション】宮崎県都城市高崎町大牟田1204", "url": "https://www.kaigokensaku.mhlw.go.jp/45/index.php?action_kouhyou_detail_004_kani=true&JigyosyoCd=4510213103-00&ServiceCd=160&Type=search", "url2": "https://www.sumihosp.com" }, "geometry": { "type": "Point", "coordinates": [ 131.064802399999962, 31.8757898 ] } },
{ "type": "Feature", "properties": { "内容": "ライフクリニック【通所リハビリテーション】宮崎県都城市安久町6337番地2", "url": "https://www.kaigokensaku.mhlw.go.jp/45/index.php?action_kouhyou_detail_004_kani=true&JigyosyoCd=4510213582-00&ServiceCd=160&Type=search", "url2": "http://lifeclinic.or.jp/" }, "geometry": { "type": "Point", "coordinates": [ 131.076618300000064, 31.7015563 ] } },
{ "type": "Feature", "properties": { "内容": "介護老人保健施設こんにちわセンター【通所リハビリテーション】宮崎県都城市牟田町4街区10号", "url": "https://www.kaigokensaku.mhlw.go.jp/45/index.php?action_kouhyou_detail_004_kani=true&JigyosyoCd=4550280012-00&ServiceCd=160&Type=search", "url2": "http://konnichiwa-center.com" }, "geometry": { "type": "Point", "coordinates": [ 131.062771099999964, 31.7273813 ] } },
{ "type": "Feature", "properties": { "内容": "介護老人保健施設ハッピーライフ高城【通所リハビリテーション】宮崎県都城市高城町穂満坊４５５－２", "url": "https://www.kaigokensaku.mhlw.go.jp/45/index.php?action_kouhyou_detail_004_kani=true&JigyosyoCd=4551780010-00&ServiceCd=160&Type=search", "url2": null }, "geometry": { "type": "Point", "coordinates": [ 131.1259205, 31.8018959 ] } },
{ "type": "Feature", "properties": { "内容": "ベテスダクリニック通所リハビリテーション【通所リハビリテーション】宮崎県都城市年見町23号12番地", "url": "https://www.kaigokensaku.mhlw.go.jp/45/index.php?action_kouhyou_detail_004_kani=true&JigyosyoCd=4510211958-00&ServiceCd=160&Type=search", "url2": "http://www.bethesda.or.jp" }, "geometry": { "type": "Point", "coordinates": [ 131.087266699999986, 31.7325149 ] } },
{ "type": "Feature", "properties": { "内容": "医療法人（社団）仮屋医院【通所リハビリテーション】宮崎県都城市上水流町２３４８番地", "url": "https://www.kaigokensaku.mhlw.go.jp/45/index.php?action_kouhyou_detail_004_kani=true&JigyosyoCd=4510211636-00&ServiceCd=160&Type=search", "url2": null }, "geometry": { "type": "Point", "coordinates": [ 131.095119299999965, 31.8118913 ] } },
{ "type": "Feature", "properties": { "内容": "橘病院通所リハビリテーション　たちばな【通所リハビリテーション】宮崎県都城市中町１５街区２４号", "url": "https://www.kaigokensaku.mhlw.go.jp/45/index.php?action_kouhyou_detail_004_kani=true&JigyosyoCd=4570201816-00&ServiceCd=160&Type=search", "url2": "http://www.tachibana-hospital.jp/" }, "geometry": { "type": "Point", "coordinates": [ 131.065793604893514, 31.726033565018923 ] } },
{ "type": "Feature", "properties": { "内容": "政所医院【通所リハビリテーション】宮崎県都城市高城町穂満坊3214番地3", "url": "https://www.kaigokensaku.mhlw.go.jp/45/index.php?action_kouhyou_detail_004_kani=true&JigyosyoCd=4510213137-00&ServiceCd=160&Type=search", "url2": "http://madokoro.o.oo7.jp/" }, "geometry": { "type": "Point", "coordinates": [ 131.125075599999946, 31.8118005 ] } },
{ "type": "Feature", "properties": { "内容": "森山内科・脳神経外科　通所リハビリテーション【通所リハビリテーション】宮崎県都城市南鷹尾町24街区20号", "url": "https://www.kaigokensaku.mhlw.go.jp/45/index.php?action_kouhyou_detail_004_kani=true&JigyosyoCd=4510212659-00&ServiceCd=160&Type=search", "url2": "http://www.mwg.or.jp/clinic.html" }, "geometry": { "type": "Point", "coordinates": [ 131.041139127122506, 31.720608183978879 ] } },
{ "type": "Feature", "properties": { "内容": "介護老人保健施設ウエルネス苑都城通所リハビリテーション【通所リハビリテーション】宮崎県都城市上東町２７－１６", "url": "https://www.kaigokensaku.mhlw.go.jp/45/index.php?action_kouhyou_detail_004_kani=true&JigyosyoCd=4550280020-00&ServiceCd=160&Type=search", "url2": null }, "geometry": { "type": "Point", "coordinates": [ 131.080964599999987, 31.7236488 ] } },
{ "type": "Feature", "properties": { "内容": "都城フォレスト・クリニック脳神経外科　通所リハビリテーション　はなえみ【通所リハビリテーション】宮崎県都城市下川東2-12-1", "url": "https://www.kaigokensaku.mhlw.go.jp/45/index.php?action_kouhyou_detail_004_kani=true&JigyosyoCd=4510213566-00&ServiceCd=160&Type=search", "url2": "m-forest-clinic.jp/" }, "geometry": { "type": "Point", "coordinates": [ 131.070117500000038, 31.7411775 ] } },
{ "type": "Feature", "properties": { "内容": "医療法人社団牧会小牧病院【通所リハビリテーション】宮崎県都城市立野町5-5-1", "url": "https://www.kaigokensaku.mhlw.go.jp/45/index.php?action_kouhyou_detail_004_kani=true&JigyosyoCd=4510211677-00&ServiceCd=160&Type=search", "url2": "http://www.makikai.com/" }, "geometry": { "type": "Point", "coordinates": [ 131.09308580000004, 31.7312179 ] } },
{ "type": "Feature", "properties": { "内容": "速見泌尿器科医院【通所リハビリテーション】宮崎県都城市妻ヶ丘町4009番5号", "url": "https://www.kaigokensaku.mhlw.go.jp/45/index.php?action_kouhyou_detail_004_kani=true&JigyosyoCd=4510212147-00&ServiceCd=160&Type=search", "url2": "https://hayami-clinic.jp/" }, "geometry": { "type": "Point", "coordinates": [ 131.074026316116374, 31.726281221717496 ] } },
{ "type": "Feature", "properties": { "内容": "宮永病院【通所リハビリテーション】宮崎県都城市松元町15街区10号宮永病院", "url": "https://www.kaigokensaku.mhlw.go.jp/45/index.php?action_kouhyou_detail_004_kani=true&JigyosyoCd=4510211842-00&ServiceCd=160&Type=search", "url2": "http://www.miyanaga.or.jp/" }, "geometry": { "type": "Point", "coordinates": [ 131.05910557857365, 31.724537876352208 ] } },
{ "type": "Feature", "properties": { "内容": "介護老人保健施設トトロみのる園　通所リハビリテーション【通所リハビリテーション】宮崎県延岡市鯛名町422番地9", "url": "https://www.kaigokensaku.mhlw.go.jp/45/index.php?action_kouhyou_detail_004_kani=true&JigyosyoCd=4550380028-00&ServiceCd=160&Type=search", "url2": "http://www.q-totoro.org/" }, "geometry": { "type": "Point", "coordinates": [ 131.692079700000022, 32.5069803 ] } },
{ "type": "Feature", "properties": { "内容": "介護老人保健施設螢邑苑【通所リハビリテーション】宮崎県延岡市北川町川内名7055番地2", "url": "https://www.kaigokensaku.mhlw.go.jp/45/index.php?action_kouhyou_detail_004_kani=true&JigyosyoCd=4552180004-00&ServiceCd=160&Type=search", "url2": "http://yuryukai.jp/" }, "geometry": { "type": "Point", "coordinates": [ 131.693803782278451, 32.68706462008943 ] } },
{ "type": "Feature", "properties": { "内容": "介護老人保健施設昭和苑【通所リハビリテーション】宮崎県延岡市構口町２丁目125-1介護老人保健施設　昭和苑", "url": "https://www.kaigokensaku.mhlw.go.jp/45/index.php?action_kouhyou_detail_004_kani=true&JigyosyoCd=4550380002-00&ServiceCd=160&Type=search", "url2": "http://www.showaen.jp/" }, "geometry": { "type": "Point", "coordinates": [ 131.67421289999993, 32.557836 ] } },
{ "type": "Feature", "properties": { "内容": "介護老人保健施設マイ・グリーンヒル【通所リハビリテーション】延岡市緑ヶ丘５丁目２番２２号", "url": "https://www.kaigokensaku.mhlw.go.jp/45/index.php?action_kouhyou_detail_004_kani=true&JigyosyoCd=4550380036-00&ServiceCd=160&Type=search", "url2": "http://www.ryuseikai.com" }, "geometry": { "type": "Point", "coordinates": [ 131.679443499999934, 32.5458347 ] } },
{ "type": "Feature", "properties": { "内容": "デイケア宮本整形外科【通所リハビリテーション】延岡市旭ヶ丘5丁目9番地7", "url": "https://www.kaigokensaku.mhlw.go.jp/45/index.php?action_kouhyou_detail_004_kani=true&JigyosyoCd=4510312251-00&ServiceCd=160&Type=search", "url2": null }, "geometry": { "type": "Point", "coordinates": [ 131.680749500000047, 32.5292196 ] } },
{ "type": "Feature", "properties": { "内容": "あたご整形外科【通所リハビリテーション】宮崎県延岡市愛宕町３丁目161", "url": "https://www.kaigokensaku.mhlw.go.jp/45/index.php?action_kouhyou_detail_004_kani=true&JigyosyoCd=4510312277-00&ServiceCd=160&Type=search", "url2": "http:/www.atago-seikei.com" }, "geometry": { "type": "Point", "coordinates": [ 131.666643499999964, 32.566543 ] } },
{ "type": "Feature", "properties": { "内容": "のべおか老健あたご【通所リハビリテーション】中島町4丁目314番地3", "url": "https://www.kaigokensaku.mhlw.go.jp/45/index.php?action_kouhyou_detail_004_kani=true&JigyosyoCd=4550380051-00&ServiceCd=160&Type=search", "url2": "WWW.roulen-atago.JP" }, "geometry": { "type": "Point", "coordinates": [ 141.0170694, 42.3483004 ] } },
{ "type": "Feature", "properties": { "内容": "医療法人伸和会　介護老人保健施設　東海園【通所リハビリテーション】宮崎県延岡市川島町１０８０番地５", "url": "https://www.kaigokensaku.mhlw.go.jp/45/index.php?action_kouhyou_detail_004_kani=true&JigyosyoCd=4550380044-00&ServiceCd=160&Type=search", "url2": "http://www.nobeoka-kyoritu.or.jp/toumien/" }, "geometry": { "type": "Point", "coordinates": [ 131.702457500000037, 32.6192766 ] } },
{ "type": "Feature", "properties": { "内容": "介護老人保健施設エクセルライフ【通所リハビリテーション】宮崎県延岡市大貫町1-2850-1", "url": "https://www.kaigokensaku.mhlw.go.jp/45/index.php?action_kouhyou_detail_004_kani=true&JigyosyoCd=4550380010-00&ServiceCd=160&Type=search", "url2": "http://www.excel-life.jp/" }, "geometry": { "type": "Point", "coordinates": [ 131.655274, 32.5796358 ] } },
{ "type": "Feature", "properties": { "内容": "延岡リハビリテーション病院　延リハデイケア【通所リハビリテーション】宮崎県延岡市長浜町1丁目１７７７番地", "url": "https://www.kaigokensaku.mhlw.go.jp/45/index.php?action_kouhyou_detail_004_kani=true&JigyosyoCd=4570301384-00&ServiceCd=160&Type=search", "url2": "https://www.nobereha.junwakai.com/" }, "geometry": { "type": "Point", "coordinates": [ 131.691088799999989, 32.5755352 ] } },
{ "type": "Feature", "properties": { "内容": "日南市立中部病院指定居宅事業所【通所リハビリテーション】宮崎県日南市大堂津５丁目10番1号", "url": "https://www.kaigokensaku.mhlw.go.jp/45/index.php?action_kouhyou_detail_004_kani=true&JigyosyoCd=4510411178-00&ServiceCd=160&Type=search", "url2": "https://chubu/city.nichinan.lg.jp/" }, "geometry": { "type": "Point", "coordinates": [ 131.37977879999994, 31.5493449 ] } },
{ "type": "Feature", "properties": { "内容": "介護老人保健施設ハイム苑【通所リハビリテーション】宮崎県日南市中央通１丁目１０番地１５", "url": "https://www.kaigokensaku.mhlw.go.jp/45/index.php?action_kouhyou_detail_004_kani=true&JigyosyoCd=4550480000-00&ServiceCd=160&Type=search", "url2": "http://aisinkai.com" }, "geometry": { "type": "Point", "coordinates": [ 131.38149169999997, 31.6004987 ] } },
{ "type": "Feature", "properties": { "内容": "川越整形外科【通所リハビリテーション】宮崎県日南市吾田東１１丁目９番１８号", "url": "https://www.kaigokensaku.mhlw.go.jp/45/index.php?action_kouhyou_detail_004_kani=true&JigyosyoCd=4510410881-00&ServiceCd=160&Type=search", "url2": "http://kawagoe-seikei.jp/" }, "geometry": { "type": "Point", "coordinates": [ 131.377547, 31.6160003 ] } },
{ "type": "Feature", "properties": { "内容": "介護老人保健施設しあわせの里【通所リハビリテーション】宮崎県日南市北郷町大藤甲3589-1", "url": "https://www.kaigokensaku.mhlw.go.jp/45/index.php?action_kouhyou_detail_004_kani=true&JigyosyoCd=4551680004-00&ServiceCd=160&Type=search", "url2": "http://siawasenosato.com/" }, "geometry": { "type": "Point", "coordinates": [ 131.385717399999976, 31.6584694 ] } },
{ "type": "Feature", "properties": { "内容": "介護老人保健施設おびの里【通所リハビリテーション】宮崎県日南市飫肥6丁目1番15号", "url": "https://www.kaigokensaku.mhlw.go.jp/45/index.php?action_kouhyou_detail_004_kani=true&JigyosyoCd=4550480034-00&ServiceCd=160&Type=search", "url2": "http://www.keimei.or.jp/obichuo/sato" }, "geometry": { "type": "Point", "coordinates": [ 131.355259199999978, 31.6245299 ] } },
{ "type": "Feature", "properties": { "内容": "介護老人保健施設みどりの丘【通所リハビリテーション】宮崎県日南市大字隈谷甲１２１８－１", "url": "https://www.kaigokensaku.mhlw.go.jp/45/index.php?action_kouhyou_detail_004_kani=true&JigyosyoCd=4550480026-00&ServiceCd=160&Type=search", "url2": "http://www.keiwakai.co.jp" }, "geometry": { "type": "Point", "coordinates": [ 131.370459699999969, 31.5768004 ] } },
{ "type": "Feature", "properties": { "内容": "介護老人保健施設相愛苑【通所リハビリテーション】宮崎県小林市北西方６６－３", "url": "https://www.kaigokensaku.mhlw.go.jp/45/index.php?action_kouhyou_detail_004_kani=true&JigyosyoCd=4550580007-00&ServiceCd=160&Type=search", "url2": "http://www.all-souai.or.jp/souaien/" }, "geometry": { "type": "Point", "coordinates": [ 130.963501700000052, 32.0083046 ] } },
{ "type": "Feature", "properties": { "内容": "医療法人養気会　池井病院【通所リハビリテーション】宮崎県小林市真方87番地", "url": "https://www.kaigokensaku.mhlw.go.jp/45/index.php?action_kouhyou_detail_004_kani=true&JigyosyoCd=4510510284-00&ServiceCd=160&Type=search", "url2": "https://yokikai.or.jp/" }, "geometry": { "type": "Point", "coordinates": [ 130.9781678, 31.9968128 ] } },
{ "type": "Feature", "properties": { "内容": "医療法人けんゆう会　介護老人保健施設さわやかセンター【通所リハビリテーション】宮崎県小林市堤3008番地1", "url": "https://www.kaigokensaku.mhlw.go.jp/45/index.php?action_kouhyou_detail_004_kani=true&JigyosyoCd=4550580049-00&ServiceCd=160&Type=search", "url2": "http://www.sawayakacenter.com" }, "geometry": { "type": "Point", "coordinates": [ 130.997730700000034, 31.9820859 ] } },
{ "type": "Feature", "properties": { "内容": "押川病院デイケア和　通所リハビリテーション事業所【通所リハビリテーション】小林市野尻町1141-2", "url": "https://www.kaigokensaku.mhlw.go.jp/45/index.php?action_kouhyou_detail_004_kani=true&JigyosyoCd=4510510920-00&ServiceCd=160&Type=search", "url2": "https://oshikawahp.com/" }, "geometry": { "type": "Point", "coordinates": [ 131.0957515, 31.9618984 ] } },
{ "type": "Feature", "properties": { "内容": "須木診療所【通所リハビリテーション】宮崎県小林市須木下田1224番地", "url": "https://www.kaigokensaku.mhlw.go.jp/45/index.php?action_kouhyou_detail_004_kani=true&JigyosyoCd=4510510862-00&ServiceCd=160&Type=search", "url2": "http://www.all-souai.or.jp/kinen/subsukiuchi.htm" }, "geometry": { "type": "Point", "coordinates": [ 131.074980699999969, 32.0719014 ] } },
{ "type": "Feature", "properties": { "内容": "介護老人保健施設すこやかセンターこばやし【通所リハビリテーション】宮崎県小林市細野2033番地", "url": "https://www.kaigokensaku.mhlw.go.jp/45/index.php?action_kouhyou_detail_004_kani=true&JigyosyoCd=4550580015-00&ServiceCd=160&Type=search", "url2": "http://www.maeharahospital.jp/" }, "geometry": { "type": "Point", "coordinates": [ 130.979848400000037, 31.989246 ] } },
{ "type": "Feature", "properties": { "内容": "介護老人保健施設みずほ【通所リハビリテーション】宮崎県小林市真方８７番地", "url": "https://www.kaigokensaku.mhlw.go.jp/45/index.php?action_kouhyou_detail_004_kani=true&JigyosyoCd=4550580031-00&ServiceCd=160&Type=search", "url2": "http://www.yokikai.or.jp/mizuho" }, "geometry": { "type": "Point", "coordinates": [ 130.978198099999986, 31.996748 ] } },
{ "type": "Feature", "properties": { "内容": "医療法人友愛会　野尻中央病院デイケアふれあい【通所リハビリテーション】宮崎県小林市野尻町東麓1207-2デイケアふれあい", "url": "https://www.kaigokensaku.mhlw.go.jp/45/index.php?action_kouhyou_detail_004_kani=true&JigyosyoCd=4510510946-00&ServiceCd=160&Type=search", "url2": "http://nojiri-ch.com" }, "geometry": { "type": "Point", "coordinates": [ 131.099290200000041, 31.9605182 ] } },
{ "type": "Feature", "properties": { "内容": "かい外科整形外科　デイケアしおさい【通所リハビリテーション】宮崎県日向市大字財光寺２２２番地", "url": "https://www.kaigokensaku.mhlw.go.jp/45/index.php?action_kouhyou_detail_004_kani=true&JigyosyoCd=4510610670-00&ServiceCd=160&Type=search", "url2": "https://www.kaiclinic.com/" }, "geometry": { "type": "Point", "coordinates": [ 131.629973348441695, 32.415675698532112 ] } },
{ "type": "Feature", "properties": { "内容": "介護老人保健施設ラポール向洋【通所リハビリテーション】宮崎県日向市財光寺１１３１－２４", "url": "https://www.kaigokensaku.mhlw.go.jp/45/index.php?action_kouhyou_detail_004_kani=true&JigyosyoCd=4550680013-00&ServiceCd=160&Type=search", "url2": "http://www.kyowahospital.jp" }, "geometry": { "type": "Point", "coordinates": [ 131.638142499999958, 32.4079404 ] } },
{ "type": "Feature", "properties": { "内容": "医療法人杏林会三股病院【通所リハビリテーション】宮崎県日向市美々津町３８７０番地", "url": "https://www.kaigokensaku.mhlw.go.jp/45/index.php?action_kouhyou_detail_004_kani=true&JigyosyoCd=4570600082-00&ServiceCd=160&Type=search", "url2": null }, "geometry": { "type": "Point", "coordinates": [ 131.604817300000036, 32.3312139 ] } },
{ "type": "Feature", "properties": { "内容": "介護老人保健施設慶穣塾【通所リハビリテーション】宮崎県日向市大字塩見１０９４７番地１", "url": "https://www.kaigokensaku.mhlw.go.jp/45/index.php?action_kouhyou_detail_004_kani=true&JigyosyoCd=4550680005-00&ServiceCd=160&Type=search", "url2": "http://takii-hospital.com/." }, "geometry": { "type": "Point", "coordinates": [ 131.5945987, 32.4106722 ] } },
{ "type": "Feature", "properties": { "内容": "介護老人保健施設メディケア盛年館【通所リハビリテーション】宮崎県日向市向江町1丁目196番地2", "url": "https://www.kaigokensaku.mhlw.go.jp/45/index.php?action_kouhyou_detail_004_kani=true&JigyosyoCd=4550680021-00&ServiceCd=160&Type=search", "url2": "http://seinenkan.jp/" }, "geometry": { "type": "Point", "coordinates": [ 131.6290285, 32.4291104 ] } },
{ "type": "Feature", "properties": { "内容": "医療法人社団とめのファミリークリニック【通所リハビリテーション】宮崎県串間市大字都井宮ノ前2179番地", "url": "https://www.kaigokensaku.mhlw.go.jp/45/index.php?action_kouhyou_detail_004_kani=true&JigyosyoCd=4510710264-00&ServiceCd=160&Type=search", "url2": null }, "geometry": { "type": "Point", "coordinates": [ 131.228303200000028, 31.4645389 ] } },
{ "type": "Feature", "properties": { "内容": "介護老人保健施設長寿の里【通所リハビリテーション】宮崎県串間市大字奈留5298番地3", "url": "https://www.kaigokensaku.mhlw.go.jp/45/index.php?action_kouhyou_detail_004_kani=true&JigyosyoCd=4550780003-00&ServiceCd=160&Type=search", "url2": "http://www.shueikai.or.jp/" }, "geometry": { "type": "Point", "coordinates": [ 131.246595, 31.5133006 ] } },
{ "type": "Feature", "properties": { "内容": "医療法人十善会県南病院　通所リハビリテーション【通所リハビリテーション】宮崎県串間市大字西方３７２８番地", "url": "https://www.kaigokensaku.mhlw.go.jp/45/index.php?action_kouhyou_detail_004_kani=true&JigyosyoCd=4510710124-00&ServiceCd=160&Type=search", "url2": "http://www.kennann-hospital.or.jp" }, "geometry": { "type": "Point", "coordinates": [ 131.233225100000027, 31.4743905 ] } },
{ "type": "Feature", "properties": { "内容": "上山医院【通所リハビリテーション】西都市妻町２－３３", "url": "https://www.kaigokensaku.mhlw.go.jp/45/index.php?action_kouhyou_detail_004_kani=true&JigyosyoCd=4510810510-00&ServiceCd=160&Type=search", "url2": null }, "geometry": { "type": "Point", "coordinates": [ 131.407166, 32.109287 ] } },
{ "type": "Feature", "properties": { "内容": "鶴田クリニック【通所リハビリテーション】宮崎県西都市御舟町１丁目５５番地", "url": "https://www.kaigokensaku.mhlw.go.jp/45/index.php?action_kouhyou_detail_004_kani=true&JigyosyoCd=4510810544-00&ServiceCd=160&Type=search", "url2": "http://www.ryutoku.or.jp" }, "geometry": { "type": "Point", "coordinates": [ 131.403566100000035, 32.1109841 ] } },
{ "type": "Feature", "properties": { "内容": "介護老人保健施設菜花園【通所リハビリテーション】宮崎県西都市大字穂北字東原5253番地4", "url": "https://www.kaigokensaku.mhlw.go.jp/45/index.php?action_kouhyou_detail_004_kani=true&JigyosyoCd=4550880019-00&ServiceCd=160&Type=search", "url2": "http://www.ryutoku.or.jp" }, "geometry": { "type": "Point", "coordinates": [ 131.442317199999934, 32.134952 ] } },
{ "type": "Feature", "properties": { "内容": "介護老人保健施設並木の里【通所リハビリテーション】宮崎県西都市大字下三財8124-8", "url": "https://www.kaigokensaku.mhlw.go.jp/45/index.php?action_kouhyou_detail_004_kani=true&JigyosyoCd=4550880001-00&ServiceCd=160&Type=search", "url2": "http://gyoseikai-med.jp" }, "geometry": { "type": "Point", "coordinates": [ 131.344759582803363, 32.069977669660545 ] } },
{ "type": "Feature", "properties": { "内容": "通所リハビリテーションふき【通所リハビリテーション】宮崎県えびの市大字向江９２９番地", "url": "https://www.kaigokensaku.mhlw.go.jp/45/index.php?action_kouhyou_detail_004_kani=true&JigyosyoCd=4570900193-00&ServiceCd=160&Type=search", "url2": null }, "geometry": { "type": "Point", "coordinates": [ 130.76528350000001, 32.0473425 ] } },
{ "type": "Feature", "properties": { "内容": "えびのせいけいげかいいん【通所リハビリテーション】宮崎県えびの市小田1169番地1", "url": "https://www.kaigokensaku.mhlw.go.jp/45/index.php?action_kouhyou_detail_004_kani=true&JigyosyoCd=4510910484-00&ServiceCd=160&Type=search", "url2": null }, "geometry": { "type": "Point", "coordinates": [ 130.819197699999989, 32.0526442 ] } },
{ "type": "Feature", "properties": { "内容": "京町温泉クリニック【通所リハビリテーション】宮崎県えびの市大字亀沢391番1号", "url": "https://www.kaigokensaku.mhlw.go.jp/45/index.php?action_kouhyou_detail_004_kani=true&JigyosyoCd=4570900268-00&ServiceCd=160&Type=search", "url2": null }, "geometry": { "type": "Point", "coordinates": [ 130.752045899999985, 32.0377265 ] } },
{ "type": "Feature", "properties": { "内容": "医療法人のなか整形外科【通所リハビリテーション】宮崎県えびの市大字原田字西谷ノ口３１８７番地", "url": "https://www.kaigokensaku.mhlw.go.jp/45/index.php?action_kouhyou_detail_004_kani=true&JigyosyoCd=4510910641-00&ServiceCd=160&Type=search", "url2": null }, "geometry": { "type": "Point", "coordinates": [ 130.872803, 32.0141608 ] } },
{ "type": "Feature", "properties": { "内容": "介護老人保健施設さくら苑【通所リハビリテーション】宮崎県えびの市大字大河平4327-37", "url": "https://www.kaigokensaku.mhlw.go.jp/45/index.php?action_kouhyou_detail_004_kani=true&JigyosyoCd=4550980009-00&ServiceCd=160&Type=search", "url2": "https://kyk.or.jp" }, "geometry": { "type": "Point", "coordinates": [ 130.912082300000066, 32.0399114 ] } },
{ "type": "Feature", "properties": { "内容": "えびの第一クリニックデイケアセンター【通所リハビリテーション】宮崎県えびの市大字原田２２３６番地", "url": "https://www.kaigokensaku.mhlw.go.jp/45/index.php?action_kouhyou_detail_004_kani=true&JigyosyoCd=4570900300-00&ServiceCd=160&Type=search", "url2": null }, "geometry": { "type": "Point", "coordinates": [ 130.870411168122956, 32.033010660314481 ] } },
{ "type": "Feature", "properties": { "内容": "大悟病院【通所リハビリテーション】宮崎県北諸県郡三股町大字長田１２７０", "url": "https://www.kaigokensaku.mhlw.go.jp/45/index.php?action_kouhyou_detail_004_kani=true&JigyosyoCd=4511710248-00&ServiceCd=160&Type=search", "url2": "https://dh.fujimoto.com/" }, "geometry": { "type": "Point", "coordinates": [ 131.133099899999934, 31.7431234 ] } },
{ "type": "Feature", "properties": { "内容": "江夏整形外科クリニック　通所リハビリテーションセンター【通所リハビリテーション】北諸県郡三股町大字宮村2841-4", "url": "https://www.kaigokensaku.mhlw.go.jp/45/index.php?action_kouhyou_detail_004_kani=true&JigyosyoCd=4511710727-00&ServiceCd=160&Type=search", "url2": "http://enatsu-seikeigeka.com" }, "geometry": { "type": "Point", "coordinates": [ 131.099883299999988, 31.719726400000042 ] } },
{ "type": "Feature", "properties": { "内容": "介護老人保健施設はまゆう【通所リハビリテーション】宮崎県北諸県郡三股町大字蓼池660番地", "url": "https://www.kaigokensaku.mhlw.go.jp/45/index.php?action_kouhyou_detail_004_kani=true&JigyosyoCd=4551780028-00&ServiceCd=160&Type=search", "url2": null }, "geometry": { "type": "Point", "coordinates": [ 131.1145368, 31.748667 ] } },
{ "type": "Feature", "properties": { "内容": "社会医療法人慶明会　けいめい記念病院　介護医療院ひまわり　通所リハビリテーション【通所リハビリテーション】宮崎県東諸県郡国富町岩知野762番地", "url": "https://www.kaigokensaku.mhlw.go.jp/45/index.php?action_kouhyou_detail_004_kani=true&JigyosyoCd=45B1900011-00&ServiceCd=160&Type=search", "url2": "https://www.keimei-kinen.com/" }, "geometry": { "type": "Point", "coordinates": [ 131.371601884655746, 31.978349723758889 ] } },
{ "type": "Feature", "properties": { "内容": "介護老人保健施設サンフローラみやざき【通所リハビリテーション】宮崎県東諸県郡国富町大字岩知野字明久355番地", "url": "https://www.kaigokensaku.mhlw.go.jp/45/index.php?action_kouhyou_detail_004_kani=true&JigyosyoCd=4551980008-00&ServiceCd=160&Type=search", "url2": "http://www.keimeisw.or.jp" }, "geometry": { "type": "Point", "coordinates": [ 131.3692115, 31.973432 ] } },
{ "type": "Feature", "properties": { "内容": "社会医療法人　慶明会　フィットデイ　エポック【通所リハビリテーション】宮崎県東諸県郡国富町大字岩知野762", "url": "https://www.kaigokensaku.mhlw.go.jp/45/index.php?action_kouhyou_detail_004_kani=true&JigyosyoCd=4571900960-00&ServiceCd=160&Type=search", "url2": "https://www.keimei-kinen.com" }, "geometry": { "type": "Point", "coordinates": [ 131.371675099999948, 31.9788177 ] } },
{ "type": "Feature", "properties": { "内容": "海老原病院【通所リハビリテーション】宮崎県東諸県郡国富町本庄４３６５", "url": "https://www.kaigokensaku.mhlw.go.jp/45/index.php?action_kouhyou_detail_004_kani=true&JigyosyoCd=4511910681-00&ServiceCd=160&Type=search", "url2": "http://www.junyoukai.or.jp" }, "geometry": { "type": "Point", "coordinates": [ 131.3313769, 31.9873744 ] } },
{ "type": "Feature", "properties": { "内容": "介護老人保健施設なでしこ園【通所リハビリテーション】宮崎県児湯郡高鍋町大字北高鍋3225番地", "url": "https://www.kaigokensaku.mhlw.go.jp/45/index.php?action_kouhyou_detail_004_kani=true&JigyosyoCd=4552080006-00&ServiceCd=160&Type=search", "url2": "http://www.sanjinkai.jp" }, "geometry": { "type": "Point", "coordinates": [ 131.521430799999962, 32.1252962 ] } },
{ "type": "Feature", "properties": { "内容": "介護老人保健施設シルバーケア新富【通所リハビリテーション】宮崎県児湯郡新富町大字新田４８１－１", "url": "https://www.kaigokensaku.mhlw.go.jp/45/index.php?action_kouhyou_detail_004_kani=true&JigyosyoCd=4552080014-00&ServiceCd=160&Type=search", "url2": "https://sites.google.com/view/silvercare-sintomi2/" }, "geometry": { "type": "Point", "coordinates": [ 131.460672599999953, 32.064423 ] } },
{ "type": "Feature", "properties": { "内容": "川南病院【通所リハビリテーション】宮崎県児湯郡川南町大字川南18150番地47", "url": "https://www.kaigokensaku.mhlw.go.jp/45/index.php?action_kouhyou_detail_004_kani=true&JigyosyoCd=4512010804-00&ServiceCd=160&Type=search", "url2": "http://www.kawaminami.or.jp/" }, "geometry": { "type": "Point", "coordinates": [ 131.517115500000045, 32.2160541 ] } },
{ "type": "Feature", "properties": { "内容": "社会医療法人善仁会尾鈴クリニック【通所リハビリテーション】宮崎県児湯郡川南町大字川南13681-1", "url": "https://www.kaigokensaku.mhlw.go.jp/45/index.php?action_kouhyou_detail_004_kani=true&JigyosyoCd=4512010739-00&ServiceCd=160&Type=search", "url2": "https://www.m-zenjin.or.jp/satellite/osuzu-clinic/about" }, "geometry": { "type": "Point", "coordinates": [ 131.525979600000028, 32.1905596 ] } },
{ "type": "Feature", "properties": { "内容": "済生会日向病院通所リハビリテーション【通所リハビリテーション】宮崎県東臼杵郡門川町南町４丁目１２８番地", "url": "https://www.kaigokensaku.mhlw.go.jp/45/index.php?action_kouhyou_detail_004_kani=true&JigyosyoCd=4518110194-00&ServiceCd=160&Type=search", "url2": "http://www.hyuga.saiseikai.or.jp" }, "geometry": { "type": "Point", "coordinates": [ 131.647597, 32.4580184 ] } },
{ "type": "Feature", "properties": { "内容": "医療法人浩洋会田中病院【通所リハビリテーション】宮崎県東臼杵郡門川町宮ケ原４丁目８０番地", "url": "https://www.kaigokensaku.mhlw.go.jp/45/index.php?action_kouhyou_detail_004_kani=true&JigyosyoCd=4512110281-00&ServiceCd=160&Type=search", "url2": "http://tanaka-hp.or.jp/" }, "geometry": { "type": "Point", "coordinates": [ 131.653799599999957, 32.4812277 ] } },
{ "type": "Feature", "properties": { "内容": "美郷町国民健康保険南郷診療所通所リハビリテーション【通所リハビリテーション】宮崎県東臼杵郡美郷町南郷神門1078番地", "url": "https://www.kaigokensaku.mhlw.go.jp/45/index.php?action_kouhyou_detail_004_kani=true&JigyosyoCd=4512110646-00&ServiceCd=160&Type=search", "url2": "https://www.town.miyazaki-misato.lg.jp/" }, "geometry": { "type": "Point", "coordinates": [ 131.328655799999979, 32.386818879745455 ] } }
]
}
