{
"type": "FeatureCollection",
"name": "geo_45_短期入所療養介護（介護老人保健施設）",
"crs": { "type": "name", "properties": { "name": "urn:ogc:def:crs:OGC:1.3:CRS84" } },
"features": [
{ "type": "Feature", "properties": { "内容": "このはな介護老人保健施設【短期入所療養介護（介護老人保健施設）】大字浮田1677番地3", "url": "https://www.kaigokensaku.mhlw.go.jp/45/index.php?action_kouhyou_detail_004_kani=true&JigyosyoCd=4570107989-00&ServiceCd=220&Type=search", "url2": "konohana8600@yahoo.co.jp" }, "geometry": { "type": "Point", "coordinates": [ 131.36447, 31.9186784 ] } },
{ "type": "Feature", "properties": { "内容": "介護老人保健施設ことぶき苑【短期入所療養介護（介護老人保健施設）】宮崎県宮崎市本郷北方字池田４０４３－１", "url": "https://www.kaigokensaku.mhlw.go.jp/45/index.php?action_kouhyou_detail_004_kani=true&JigyosyoCd=4550180055-00&ServiceCd=220&Type=search", "url2": "www.anami-kotobukien.jp" }, "geometry": { "type": "Point", "coordinates": [ 131.425948535581909, 31.865097595469049 ] } },
{ "type": "Feature", "properties": { "内容": "介護老人保健施設ひむか苑【短期入所療養介護（介護老人保健施設）】宮崎県宮崎市大字小松1158", "url": "https://www.kaigokensaku.mhlw.go.jp/45/index.php?action_kouhyou_detail_004_kani=true&JigyosyoCd=4550180097-00&ServiceCd=220&Type=search", "url2": "http://www.himukaen.junwakai.com/" }, "geometry": { "type": "Point", "coordinates": [ 131.402825200000052, 31.9338588 ] } },
{ "type": "Feature", "properties": { "内容": "介護老人保健施設　あおしまのいえ【短期入所療養介護（介護老人保健施設）】宮崎県宮崎市青島4丁目6-3", "url": "https://www.kaigokensaku.mhlw.go.jp/45/index.php?action_kouhyou_detail_004_kani=true&JigyosyoCd=4550180014-00&ServiceCd=220&Type=search", "url2": null }, "geometry": { "type": "Point", "coordinates": [ 131.469458800000012, 31.7957002 ] } },
{ "type": "Feature", "properties": { "内容": "介護老人保健施設サンヒルきよたけ【短期入所療養介護（介護老人保健施設）】宮崎県宮崎市清武町木原5886番地16", "url": "https://www.kaigokensaku.mhlw.go.jp/45/index.php?action_kouhyou_detail_004_kani=true&JigyosyoCd=4551580014-00&ServiceCd=220&Type=search", "url2": "https://www.suntaiyo.jp/sunhill/" }, "geometry": { "type": "Point", "coordinates": [ 131.395110299999942, 31.8381505 ] } },
{ "type": "Feature", "properties": { "内容": "独立行政法人地域医療機能推進機構宮崎江南病院附属介護老人保健施設【短期入所療養介護（介護老人保健施設）】宮崎県宮崎市大字恒久字鳥の巣6245-1", "url": "https://www.kaigokensaku.mhlw.go.jp/45/index.php?action_kouhyou_detail_004_kani=true&JigyosyoCd=4550180105-00&ServiceCd=220&Type=search", "url2": "http://miyazaki.jcho.go.jp/rouken/" }, "geometry": { "type": "Point", "coordinates": [ 131.404866677926634, 31.895331813765157 ] } },
{ "type": "Feature", "properties": { "内容": "介護老人保健施設むつみ苑【短期入所療養介護（介護老人保健施設）】宮崎県宮崎市池内町伊勢領1344番地", "url": "https://www.kaigokensaku.mhlw.go.jp/45/index.php?action_kouhyou_detail_004_kani=true&JigyosyoCd=4550180030-00&ServiceCd=220&Type=search", "url2": "https://zinwakai-mutsumien.com/" }, "geometry": { "type": "Point", "coordinates": [ 131.414221614680542, 31.962870532576218 ] } },
{ "type": "Feature", "properties": { "内容": "介護老人保健施設シルバーケア野崎【短期入所療養介護（介護老人保健施設）】宮崎市村角町高尊２１０５", "url": "https://www.kaigokensaku.mhlw.go.jp/45/index.php?action_kouhyou_detail_004_kani=true&JigyosyoCd=4550180022-00&ServiceCd=220&Type=search", "url2": "http://www.koujunkai.jp" }, "geometry": { "type": "Point", "coordinates": [ 131.447704499999986, 31.9583049 ] } },
{ "type": "Feature", "properties": { "内容": "介護老人保健施設グリーンケア学園木花【短期入所療養介護（介護老人保健施設）】宮崎県宮崎市熊野４７０番地２", "url": "https://www.kaigokensaku.mhlw.go.jp/45/index.php?action_kouhyou_detail_004_kani=true&JigyosyoCd=4550180071-00&ServiceCd=220&Type=search", "url2": "http://www.green-care.net/" }, "geometry": { "type": "Point", "coordinates": [ 131.438523300000043, 31.8282468 ] } },
{ "type": "Feature", "properties": { "内容": "介護老人保健施設春草苑【短期入所療養介護（介護老人保健施設）】宮崎県宮崎市池内町数太木1749-1", "url": "https://www.kaigokensaku.mhlw.go.jp/45/index.php?action_kouhyou_detail_004_kani=true&JigyosyoCd=4550180048-00&ServiceCd=220&Type=search", "url2": "http://www.kgh.or.jp/" }, "geometry": { "type": "Point", "coordinates": [ 131.410867200000013, 31.9712985 ] } },
{ "type": "Feature", "properties": { "内容": "介護老人保健施設すこやか苑【短期入所療養介護（介護老人保健施設）】宮崎県都城市大岩田町5812番地", "url": "https://www.kaigokensaku.mhlw.go.jp/45/index.php?action_kouhyou_detail_004_kani=true&JigyosyoCd=4570205007-00&ServiceCd=220&Type=search", "url2": null }, "geometry": { "type": "Point", "coordinates": [ 131.055725699999982, 31.6914099 ] } },
{ "type": "Feature", "properties": { "内容": "介護老人保健施設こんにちわセンター【短期入所療養介護（介護老人保健施設）】宮崎県都城市牟田町4街区10号", "url": "https://www.kaigokensaku.mhlw.go.jp/45/index.php?action_kouhyou_detail_004_kani=true&JigyosyoCd=4550280012-00&ServiceCd=220&Type=search", "url2": "https://konnichiwa-center.com" }, "geometry": { "type": "Point", "coordinates": [ 131.0628461, 31.7272257 ] } },
{ "type": "Feature", "properties": { "内容": "介護老人保健施設ハッピーライフ高城【短期入所療養介護（介護老人保健施設）】宮崎県都城市高城町穂満坊４５５－２", "url": "https://www.kaigokensaku.mhlw.go.jp/45/index.php?action_kouhyou_detail_004_kani=true&JigyosyoCd=4551780010-00&ServiceCd=220&Type=search", "url2": null }, "geometry": { "type": "Point", "coordinates": [ 131.125828899999988, 31.8019042 ] } },
{ "type": "Feature", "properties": { "内容": "介護老人保健施設螢邑苑【短期入所療養介護（介護老人保健施設）】宮崎県延岡市北川町川内名7055-2", "url": "https://www.kaigokensaku.mhlw.go.jp/45/index.php?action_kouhyou_detail_004_kani=true&JigyosyoCd=4552180004-00&ServiceCd=220&Type=search", "url2": "http://yuryukai.jp/" }, "geometry": { "type": "Point", "coordinates": [ 131.6933639, 32.6866944 ] } },
{ "type": "Feature", "properties": { "内容": "介護老人保健施設昭和苑【短期入所療養介護（介護老人保健施設）】宮崎県延岡市構口町２丁目１２５－１", "url": "https://www.kaigokensaku.mhlw.go.jp/45/index.php?action_kouhyou_detail_004_kani=true&JigyosyoCd=4550380002-00&ServiceCd=220&Type=search", "url2": null }, "geometry": { "type": "Point", "coordinates": [ 131.674218264417959, 32.55786312835091 ] } },
{ "type": "Feature", "properties": { "内容": "介護老人保健施設　マイ・グリーンヒル【短期入所療養介護（介護老人保健施設）】宮崎県延岡市緑ヶ丘５丁目２番２２号", "url": "https://www.kaigokensaku.mhlw.go.jp/45/index.php?action_kouhyou_detail_004_kani=true&JigyosyoCd=4550380036-00&ServiceCd=220&Type=search", "url2": "http://www.ryuseikai.com" }, "geometry": { "type": "Point", "coordinates": [ 131.679493, 32.545977 ] } },
{ "type": "Feature", "properties": { "内容": "のべおか老健あたご【短期入所療養介護（介護老人保健施設）】中島町4丁目314番地3", "url": "https://www.kaigokensaku.mhlw.go.jp/45/index.php?action_kouhyou_detail_004_kani=true&JigyosyoCd=4550380051-00&ServiceCd=220&Type=search", "url2": "www.rouken-atago.jp" }, "geometry": { "type": "Point", "coordinates": [ 141.0170694, 42.3483004 ] } },
{ "type": "Feature", "properties": { "内容": "医療法人伸和会・介護老人保健施設「東海園」【短期入所療養介護（介護老人保健施設）】宮崎県延岡市川島町1080番地5", "url": "https://www.kaigokensaku.mhlw.go.jp/45/index.php?action_kouhyou_detail_004_kani=true&JigyosyoCd=4550380044-00&ServiceCd=220&Type=search", "url2": "http://www.nobeoka-kyoritu.or.jp/toumien/" }, "geometry": { "type": "Point", "coordinates": [ 131.69285560000003, 32.6157515 ] } },
{ "type": "Feature", "properties": { "内容": "介護老人保健施設エクセルライフ【短期入所療養介護（介護老人保健施設）】宮崎県延岡市大貫町1丁目2850-1", "url": "https://www.kaigokensaku.mhlw.go.jp/45/index.php?action_kouhyou_detail_004_kani=true&JigyosyoCd=4550380010-00&ServiceCd=220&Type=search", "url2": "http://www.excel-life.jp" }, "geometry": { "type": "Point", "coordinates": [ 131.655274, 32.5796358 ] } },
{ "type": "Feature", "properties": { "内容": "介護老人保健施設トトロみのる園【短期入所療養介護（介護老人保健施設）】宮崎県延岡市鯛名町４２２－９", "url": "https://www.kaigokensaku.mhlw.go.jp/45/index.php?action_kouhyou_detail_004_kani=true&JigyosyoCd=4550380028-00&ServiceCd=220&Type=search", "url2": "http://www.q-totoro.org/minoru" }, "geometry": { "type": "Point", "coordinates": [ 131.692079700000022, 32.5069803 ] } },
{ "type": "Feature", "properties": { "内容": "介護老人保健施設しあわせの里【短期入所療養介護（介護老人保健施設）】宮崎県日南市北郷町大藤甲3589-1", "url": "https://www.kaigokensaku.mhlw.go.jp/45/index.php?action_kouhyou_detail_004_kani=true&JigyosyoCd=4551680004-00&ServiceCd=220&Type=search", "url2": "http://siawasenosato.com/" }, "geometry": { "type": "Point", "coordinates": [ 131.385717399999976, 31.6584694 ] } },
{ "type": "Feature", "properties": { "内容": "介護老人保健施設おびの里【短期入所療養介護（介護老人保健施設）】宮崎県日南市飫肥６丁目１番１５号", "url": "https://www.kaigokensaku.mhlw.go.jp/45/index.php?action_kouhyou_detail_004_kani=true&JigyosyoCd=4550480034-00&ServiceCd=220&Type=search", "url2": "http://www.keimei.or.jp/obichuo/sato/" }, "geometry": { "type": "Point", "coordinates": [ 131.355259199999978, 31.6245299 ] } },
{ "type": "Feature", "properties": { "内容": "介護老人保健施設みどりの丘【短期入所療養介護（介護老人保健施設）】宮崎県日南市大字隈谷甲１２１８－１", "url": "https://www.kaigokensaku.mhlw.go.jp/45/index.php?action_kouhyou_detail_004_kani=true&JigyosyoCd=4550480026-00&ServiceCd=220&Type=search", "url2": "http://www.keiwakai.co.jp" }, "geometry": { "type": "Point", "coordinates": [ 131.370459699999969, 31.5768004 ] } },
{ "type": "Feature", "properties": { "内容": "介護老人保健施設相愛苑【短期入所療養介護（介護老人保健施設）】宮崎県小林市大字北西方66-3", "url": "https://www.kaigokensaku.mhlw.go.jp/45/index.php?action_kouhyou_detail_004_kani=true&JigyosyoCd=4550580007-00&ServiceCd=220&Type=search", "url2": "http://www.all-souai.or.jp/souaien/index.htm" }, "geometry": { "type": "Point", "coordinates": [ 130.963501700000052, 32.0083046 ] } },
{ "type": "Feature", "properties": { "内容": "医療法人けんゆう会　介護老人保健施設さわやかセンター【短期入所療養介護（介護老人保健施設）】宮崎県小林市堤3008番地1", "url": "https://www.kaigokensaku.mhlw.go.jp/45/index.php?action_kouhyou_detail_004_kani=true&JigyosyoCd=4550580049-00&ServiceCd=220&Type=search", "url2": "http://sawayakacenter.com/" }, "geometry": { "type": "Point", "coordinates": [ 130.997730700000034, 31.9820859 ] } },
{ "type": "Feature", "properties": { "内容": "介護老人保健施設すこやかセンターこばやし【短期入所療養介護（介護老人保健施設）】宮崎県小林市細野2033番地", "url": "https://www.kaigokensaku.mhlw.go.jp/45/index.php?action_kouhyou_detail_004_kani=true&JigyosyoCd=4550580015-00&ServiceCd=220&Type=search", "url2": "http://www.maeharahospital.jp/" }, "geometry": { "type": "Point", "coordinates": [ 130.979848400000037, 31.989246 ] } },
{ "type": "Feature", "properties": { "内容": "介護老人保健施設みずほ【短期入所療養介護（介護老人保健施設）】宮崎県小林市真方８７番地", "url": "https://www.kaigokensaku.mhlw.go.jp/45/index.php?action_kouhyou_detail_004_kani=true&JigyosyoCd=4550580031-00&ServiceCd=220&Type=search", "url2": "http://www.yokikai.or.jp" }, "geometry": { "type": "Point", "coordinates": [ 130.978198099999986, 31.996748 ] } },
{ "type": "Feature", "properties": { "内容": "介護老人保健施設慶穣塾【短期入所療養介護（介護老人保健施設）】宮崎県日向市大字塩見１０９４７番地１", "url": "https://www.kaigokensaku.mhlw.go.jp/45/index.php?action_kouhyou_detail_004_kani=true&JigyosyoCd=4550680005-00&ServiceCd=220&Type=search", "url2": "http://takii-hospital.com/." }, "geometry": { "type": "Point", "coordinates": [ 131.5945987, 32.4106722 ] } },
{ "type": "Feature", "properties": { "内容": "介護老人保健施設メディケア盛年館【短期入所療養介護（介護老人保健施設）】宮崎県日向市向江町1丁目196番地2", "url": "https://www.kaigokensaku.mhlw.go.jp/45/index.php?action_kouhyou_detail_004_kani=true&JigyosyoCd=4550680021-00&ServiceCd=220&Type=search", "url2": "http://seinenkan.jp/" }, "geometry": { "type": "Point", "coordinates": [ 131.6290285, 32.4291104 ] } },
{ "type": "Feature", "properties": { "内容": "介護老人保健施設ラポール向洋【短期入所療養介護（介護老人保健施設）】宮崎県日向市大字財光寺１１３１－２４", "url": "https://www.kaigokensaku.mhlw.go.jp/45/index.php?action_kouhyou_detail_004_kani=true&JigyosyoCd=4550680013-00&ServiceCd=220&Type=search", "url2": "http://www.kyowahospital.jp/hospital/" }, "geometry": { "type": "Point", "coordinates": [ 131.637792499999932, 32.408157 ] } },
{ "type": "Feature", "properties": { "内容": "介護老人保健施設長寿の里【短期入所療養介護（介護老人保健施設）】宮崎県串間市大字奈留5298-3", "url": "https://www.kaigokensaku.mhlw.go.jp/45/index.php?action_kouhyou_detail_004_kani=true&JigyosyoCd=4550780003-00&ServiceCd=220&Type=search", "url2": "http://www.shueikai.or.jp/" }, "geometry": { "type": "Point", "coordinates": [ 131.246595, 31.5133006 ] } },
{ "type": "Feature", "properties": { "内容": "介護老人保健施設並木の里【短期入所療養介護（介護老人保健施設）】宮崎県西都市大字下三財8124番地8", "url": "https://www.kaigokensaku.mhlw.go.jp/45/index.php?action_kouhyou_detail_004_kani=true&JigyosyoCd=4550880001-00&ServiceCd=220&Type=search", "url2": "https://gyoseikai-med.jp/" }, "geometry": { "type": "Point", "coordinates": [ 131.3448002, 32.0699664 ] } },
{ "type": "Feature", "properties": { "内容": "介護老人保健施設菜花園【短期入所療養介護（介護老人保健施設）】宮崎県西都市大字穂北5253番地4", "url": "https://www.kaigokensaku.mhlw.go.jp/45/index.php?action_kouhyou_detail_004_kani=true&JigyosyoCd=4550880019-00&ServiceCd=220&Type=search", "url2": "http://www.ryutoku.or.jp" }, "geometry": { "type": "Point", "coordinates": [ 131.4399704, 32.1352309 ] } },
{ "type": "Feature", "properties": { "内容": "介護老人保健施設さくら苑【短期入所療養介護（介護老人保健施設）】宮崎県えびの市大字大河平4327-37", "url": "https://www.kaigokensaku.mhlw.go.jp/45/index.php?action_kouhyou_detail_004_kani=true&JigyosyoCd=4550980009-00&ServiceCd=220&Type=search", "url2": "https://kyk.or.jp" }, "geometry": { "type": "Point", "coordinates": [ 130.9120514, 32.0397301 ] } },
{ "type": "Feature", "properties": { "内容": "介護老人保健施設はまゆう【短期入所療養介護（介護老人保健施設）】宮崎県北諸県郡三股町大字蓼池６６０番地", "url": "https://www.kaigokensaku.mhlw.go.jp/45/index.php?action_kouhyou_detail_004_kani=true&JigyosyoCd=4551780028-00&ServiceCd=220&Type=search", "url2": null }, "geometry": { "type": "Point", "coordinates": [ 131.1145617, 31.7486824 ] } },
{ "type": "Feature", "properties": { "内容": "介護老人保健施設サンフローラみやざき【短期入所療養介護（介護老人保健施設）】宮崎県東諸県郡国富町大字岩知野字明久３５５番地", "url": "https://www.kaigokensaku.mhlw.go.jp/45/index.php?action_kouhyou_detail_004_kani=true&JigyosyoCd=4551980008-00&ServiceCd=220&Type=search", "url2": "http://www.keimeisw.or.jp" }, "geometry": { "type": "Point", "coordinates": [ 131.323535399999969, 31.9906436 ] } },
{ "type": "Feature", "properties": { "内容": "介護老人保健施設なでしこ園【短期入所療養介護（介護老人保健施設）】宮崎県児湯郡高鍋町大字北高鍋3225番地", "url": "https://www.kaigokensaku.mhlw.go.jp/45/index.php?action_kouhyou_detail_004_kani=true&JigyosyoCd=4552080006-00&ServiceCd=220&Type=search", "url2": "https://www.sanjinkai.jp" }, "geometry": { "type": "Point", "coordinates": [ 131.521430799999962, 32.1252962 ] } },
{ "type": "Feature", "properties": { "内容": "介護老人保健施設シルバーケア新富【短期入所療養介護（介護老人保健施設）】宮崎県児湯郡新富町大字新田４８１－１", "url": "https://www.kaigokensaku.mhlw.go.jp/45/index.php?action_kouhyou_detail_004_kani=true&JigyosyoCd=4552080014-00&ServiceCd=220&Type=search", "url2": "https://sites.google.com/view/silvercare-sintomi2/" }, "geometry": { "type": "Point", "coordinates": [ 131.460672599999953, 32.064423 ] } }
]
}
