{
"type": "FeatureCollection",
"name": "geo_45_訪問入浴介護",
"crs": { "type": "name", "properties": { "name": "urn:ogc:def:crs:OGC:1.3:CRS84" } },
"features": [
{ "type": "Feature", "properties": { "内容": "アースサポート宮崎【訪問入浴介護】宮崎県宮崎市高千穂通1丁目5番1号", "url": "https://www.kaigokensaku.mhlw.go.jp/45/index.php?action_kouhyou_detail_004_kani=true&JigyosyoCd=4570102469-00&ServiceCd=120&Type=search", "url2": "http://www.earthsupport.co.jp" }, "geometry": { "type": "Point", "coordinates": [ 131.426784699999985, 31.9183558 ] } },
{ "type": "Feature", "properties": { "内容": "フィジカルケア　ＳＡＫＵＲＡ【訪問入浴介護】宮崎県宮崎市大字本郷南方字上無田３４９８番地１２階", "url": "https://www.kaigokensaku.mhlw.go.jp/45/index.php?action_kouhyou_detail_004_kani=true&JigyosyoCd=4570110488-00&ServiceCd=120&Type=search", "url2": null }, "geometry": { "type": "Point", "coordinates": [ 131.432805704682693, 31.869181689894393 ] } },
{ "type": "Feature", "properties": { "内容": "介護サービスさち株式会社【訪問入浴介護】宮崎県宮崎市吉村町江田原甲314-10コーポ岩切102", "url": "https://www.kaigokensaku.mhlw.go.jp/45/index.php?action_kouhyou_detail_004_kani=true&JigyosyoCd=4570107880-00&ServiceCd=120&Type=search", "url2": "https://kaigoservicesachi.wixsite.com/my-site" }, "geometry": { "type": "Point", "coordinates": [ 131.441327900000033, 31.9231749 ] } },
{ "type": "Feature", "properties": { "内容": "株式会社サン・ルーム宮崎営業所【訪問入浴介護】宮崎県宮崎市阿波岐原町前浜４２７６－７４", "url": "https://www.kaigokensaku.mhlw.go.jp/45/index.php?action_kouhyou_detail_004_kani=true&JigyosyoCd=4570100497-00&ServiceCd=120&Type=search", "url2": "http://care-net.biz/45/sr-0105/" }, "geometry": { "type": "Point", "coordinates": [ 131.462337312233785, 31.935206323329968 ] } },
{ "type": "Feature", "properties": { "内容": "セントケア宮崎【訪問入浴介護】宮崎市祇園2丁目23-2", "url": "https://www.kaigokensaku.mhlw.go.jp/45/index.php?action_kouhyou_detail_004_kani=true&JigyosyoCd=4570106031-00&ServiceCd=120&Type=search", "url2": null }, "geometry": { "type": "Point", "coordinates": [ 131.4093834510345, 31.928672964794639 ] } },
{ "type": "Feature", "properties": { "内容": "訪問入浴ひなた【訪問入浴介護】宮崎県宮崎市田吉６１８６番地５", "url": "https://www.kaigokensaku.mhlw.go.jp/45/index.php?action_kouhyou_detail_004_kani=true&JigyosyoCd=4570109787-00&ServiceCd=120&Type=search", "url2": "https://miyazaki-houkatsu-serv.com" }, "geometry": { "type": "Point", "coordinates": [ 131.44061386355952, 31.8897365447936 ] } },
{ "type": "Feature", "properties": { "内容": "訪問入浴介護事業所ぴーなっつ【訪問入浴介護】宮崎県宮崎市大字島之内7507-1", "url": "https://www.kaigokensaku.mhlw.go.jp/45/index.php?action_kouhyou_detail_004_kani=true&JigyosyoCd=4570105934-00&ServiceCd=120&Type=search", "url2": null }, "geometry": { "type": "Point", "coordinates": [ 131.4479566, 31.9890204 ] } },
{ "type": "Feature", "properties": { "内容": "星空の都訪問入浴介護センターかみながえ【訪問入浴介護】宮崎県都城市上長飯町5111番地", "url": "https://www.kaigokensaku.mhlw.go.jp/45/index.php?action_kouhyou_detail_004_kani=true&JigyosyoCd=4570200172-00&ServiceCd=120&Type=search", "url2": "http://www.joryokukai.com/sazankaen/" }, "geometry": { "type": "Point", "coordinates": [ 131.094755599999985, 31.7167499 ] } },
{ "type": "Feature", "properties": { "内容": "豊の里訪問入浴介護事業所【訪問入浴介護】宮崎県都城市下長飯町1609番地", "url": "https://www.kaigokensaku.mhlw.go.jp/45/index.php?action_kouhyou_detail_004_kani=true&JigyosyoCd=4570204141-00&ServiceCd=120&Type=search", "url2": "http://www.houei-group.or.jp/" }, "geometry": { "type": "Point", "coordinates": [ 131.06948703439727, 31.700638483512037 ] } },
{ "type": "Feature", "properties": { "内容": "都城市社会福祉協議会　指定訪問入浴介護事業所【訪問入浴介護】宮崎県都城市上水流町１５４０番地都城市志和池福祉センター", "url": "https://www.kaigokensaku.mhlw.go.jp/45/index.php?action_kouhyou_detail_004_kani=true&JigyosyoCd=4571700402-00&ServiceCd=120&Type=search", "url2": "https://www.miyakonojoshakyo.or.jp" }, "geometry": { "type": "Point", "coordinates": [ 131.094255763093571, 31.807541815053728 ] } },
{ "type": "Feature", "properties": { "内容": "株式会社サン・ルーム延岡営業所【訪問入浴介護】宮崎県延岡市松山町１２２１－３３", "url": "https://www.kaigokensaku.mhlw.go.jp/45/index.php?action_kouhyou_detail_004_kani=true&JigyosyoCd=4570300204-00&ServiceCd=120&Type=search", "url2": "http://care-net.biz/45/sr-1237/" }, "geometry": { "type": "Point", "coordinates": [ 131.636245, 32.5830712 ] } },
{ "type": "Feature", "properties": { "内容": "南風の丘訪問入浴サービス事業所【訪問入浴介護】宮崎県日南市南郷町中村甲3528番地4", "url": "https://www.kaigokensaku.mhlw.go.jp/45/index.php?action_kouhyou_detail_004_kani=true&JigyosyoCd=4570401531-00&ServiceCd=120&Type=search", "url2": "https://www.taijukai.biz/" }, "geometry": { "type": "Point", "coordinates": [ 131.36913549999997, 31.54387560000001 ] } },
{ "type": "Feature", "properties": { "内容": "小林市社会福祉協議会【訪問入浴介護】宮崎県小林市細野367番地1小林市社会福祉センター別館", "url": "https://www.kaigokensaku.mhlw.go.jp/45/index.php?action_kouhyou_detail_004_kani=true&JigyosyoCd=4570501058-00&ServiceCd=120&Type=search", "url2": "http://kobayashi-syakyo.jimbo.com/" }, "geometry": { "type": "Point", "coordinates": [ 130.969972707930282, 31.99926512739032 ] } },
{ "type": "Feature", "properties": { "内容": "株式会社サン・ルーム　日向営業所【訪問入浴介護】宮崎県日向市大字財光寺長江４２６－１", "url": "https://www.kaigokensaku.mhlw.go.jp/45/index.php?action_kouhyou_detail_004_kani=true&JigyosyoCd=4570601148-00&ServiceCd=120&Type=search", "url2": "http://care-net.biz/45/sr-1007/index.php" }, "geometry": { "type": "Point", "coordinates": [ 131.63069301390081, 32.413011115578421 ] } },
{ "type": "Feature", "properties": { "内容": "三股町社会福祉協議会訪問入浴介護サービス【訪問入浴介護】宮崎県北諸県郡三股町大字樺山3384番地2", "url": "https://www.kaigokensaku.mhlw.go.jp/45/index.php?action_kouhyou_detail_004_kani=true&JigyosyoCd=4571701194-00&ServiceCd=120&Type=search", "url2": "http://www.mimata-syakyou.or.jp/" }, "geometry": { "type": "Point", "coordinates": [ 131.121601, 31.7288758 ] } },
{ "type": "Feature", "properties": { "内容": "株式会社サン・ルーム西臼杵営業所【訪問入浴介護】宮崎県西臼杵郡日之影町大字七折12190-1", "url": "https://www.kaigokensaku.mhlw.go.jp/45/index.php?action_kouhyou_detail_004_kani=true&JigyosyoCd=4572200105-00&ServiceCd=120&Type=search", "url2": "http://care-net.biz/45/sun-room" }, "geometry": { "type": "Point", "coordinates": [ 131.430494, 32.619977 ] } }
]
}
