{
"type": "FeatureCollection",
"name": "geo_45_地域密着型介護老人福祉施設入所者生活介護",
"crs": { "type": "name", "properties": { "name": "urn:ogc:def:crs:OGC:1.3:CRS84" } },
"features": [
{ "type": "Feature", "properties": { "内容": "地域密着型特別養護老人ホーム　ふじ野園【地域密着型介護老人福祉施設入所者生活介護】宮崎市宮崎駅東三丁目９番10", "url": "https://www.kaigokensaku.mhlw.go.jp/45/index.php?action_kouhyou_detail_004_kani=true&JigyosyoCd=4590100626-00&ServiceCd=540&Type=search", "url2": "https://www.kouwakai-f.jp" }, "geometry": { "type": "Point", "coordinates": [ 131.432366320901451, 31.919511522508341 ] } },
{ "type": "Feature", "properties": { "内容": "特別養護老人ホームまりあ【地域密着型介護老人福祉施設入所者生活介護】宮崎県都城市志比田町９５７３－１", "url": "https://www.kaigokensaku.mhlw.go.jp/45/index.php?action_kouhyou_detail_004_kani=true&JigyosyoCd=4590200038-00&ServiceCd=540&Type=search", "url2": "http://www.maria-f.jp" }, "geometry": { "type": "Point", "coordinates": [ 131.047652699999958, 31.7520203 ] } },
{ "type": "Feature", "properties": { "内容": "地域密着型特別養護老人ホームわかば【地域密着型介護老人福祉施設入所者生活介護】宮崎県都城市上長飯町2664番地地域密着型特別養護老人ホームわかば", "url": "https://www.kaigokensaku.mhlw.go.jp/45/index.php?action_kouhyou_detail_004_kani=true&JigyosyoCd=4590200152-00&ServiceCd=540&Type=search", "url2": "http://www.oyd-welfare.jp/" }, "geometry": { "type": "Point", "coordinates": [ 131.090233600000033, 31.7171636 ] } },
{ "type": "Feature", "properties": { "内容": "特別養護老人ホームミューズの虹平塚【地域密着型介護老人福祉施設入所者生活介護】宮崎県都城市平塚町3033-1", "url": "https://www.kaigokensaku.mhlw.go.jp/45/index.php?action_kouhyou_detail_004_kani=true&JigyosyoCd=4590200087-00&ServiceCd=540&Type=search", "url2": "http://hoshakai.com/" }, "geometry": { "type": "Point", "coordinates": [ 131.026400299999978, 31.7188814 ] } },
{ "type": "Feature", "properties": { "内容": "地域密着型介護老人福祉施設豊明苑【地域密着型介護老人福祉施設入所者生活介護】宮崎県都城市蓑原町1846番地1", "url": "https://www.kaigokensaku.mhlw.go.jp/45/index.php?action_kouhyou_detail_004_kani=true&JigyosyoCd=4590200046-00&ServiceCd=540&Type=search", "url2": "http://www.houei-group.or.jp/" }, "geometry": { "type": "Point", "coordinates": [ 131.0187813, 31.7351265 ] } },
{ "type": "Feature", "properties": { "内容": "特別養護老人ホーム長遊園２号館【地域密着型介護老人福祉施設入所者生活介護】宮崎県都城市高野町2900番地", "url": "https://www.kaigokensaku.mhlw.go.jp/45/index.php?action_kouhyou_detail_004_kani=true&JigyosyoCd=4590200129-00&ServiceCd=540&Type=search", "url2": "http://www.kanjikai.or.jp/" }, "geometry": { "type": "Point", "coordinates": [ 130.95674889999998, 31.8112817 ] } },
{ "type": "Feature", "properties": { "内容": "特別養護老人ホーム　千寿園　ユニット館【地域密着型介護老人福祉施設入所者生活介護】北浦町古江13番地", "url": "https://www.kaigokensaku.mhlw.go.jp/45/index.php?action_kouhyou_detail_004_kani=true&JigyosyoCd=4590300184-00&ServiceCd=540&Type=search", "url2": "https://www.senjuen.jp/" }, "geometry": { "type": "Point", "coordinates": [ 131.816716897453233, 32.709063406537766 ] } },
{ "type": "Feature", "properties": { "内容": "特別養護老人ホームユニット楓荘【地域密着型介護老人福祉施設入所者生活介護】宮崎県延岡市無鹿町１丁目２０３１番地５", "url": "https://www.kaigokensaku.mhlw.go.jp/45/index.php?action_kouhyou_detail_004_kani=true&JigyosyoCd=4590300176-00&ServiceCd=540&Type=search", "url2": "http://www.mitubakai.jp/kaedesou" }, "geometry": { "type": "Point", "coordinates": [ 131.683300899999949, 32.6144374 ] } },
{ "type": "Feature", "properties": { "内容": "地域密着型特別養護老人ホーム心の里さかたに【地域密着型介護老人福祉施設入所者生活介護】宮崎県日南市大字酒谷乙10439番地1", "url": "https://www.kaigokensaku.mhlw.go.jp/45/index.php?action_kouhyou_detail_004_kani=true&JigyosyoCd=4570401614-00&ServiceCd=540&Type=search", "url2": "https://s-seseragi.or.jp/" }, "geometry": { "type": "Point", "coordinates": [ 131.288943511879239, 31.626353095745841 ] } },
{ "type": "Feature", "properties": { "内容": "地域密着型特別養護老人ホーム　ソレイユの丘【地域密着型介護老人福祉施設入所者生活介護】宮崎県小林市堤3702-2", "url": "https://www.kaigokensaku.mhlw.go.jp/45/index.php?action_kouhyou_detail_004_kani=true&JigyosyoCd=4590500163-00&ServiceCd=540&Type=search", "url2": "https://www.tokiwa-kai.or.jp/" }, "geometry": { "type": "Point", "coordinates": [ 131.008534573536053, 31.961814033393551 ] } },
{ "type": "Feature", "properties": { "内容": "地域密着型特別養護老人ホーム妻の杜【地域密着型介護老人福祉施設入所者生活介護】宮崎県西都市妻1680-1", "url": "https://www.kaigokensaku.mhlw.go.jp/45/index.php?action_kouhyou_detail_004_kani=true&JigyosyoCd=4570800849-00&ServiceCd=540&Type=search", "url2": "https://www.tsubasa-f.or.jp/tsumanomori/" }, "geometry": { "type": "Point", "coordinates": [ 131.4003352, 32.1048877 ] } },
{ "type": "Feature", "properties": { "内容": "地域密着型特別養護老人ホームはるかぜ【地域密着型介護老人福祉施設入所者生活介護】宮崎県西諸県郡高原町大字西麓１８０番地３", "url": "https://www.kaigokensaku.mhlw.go.jp/45/index.php?action_kouhyou_detail_004_kani=true&JigyosyoCd=4591800034-00&ServiceCd=540&Type=search", "url2": "harukaze-nozomikai.com/" }, "geometry": { "type": "Point", "coordinates": [ 131.000816200000031, 31.9233981 ] } },
{ "type": "Feature", "properties": { "内容": "地域密着型特別養護老人ホーム　望み苑【地域密着型介護老人福祉施設入所者生活介護】児湯郡高鍋町大字南高鍋9118-1", "url": "https://www.kaigokensaku.mhlw.go.jp/45/index.php?action_kouhyou_detail_004_kani=true&JigyosyoCd=4592000105-00&ServiceCd=540&Type=search", "url2": "http://www.care.or.jp/nozomien.html" }, "geometry": { "type": "Point", "coordinates": [ 131.510200152778651, 32.117549295623284 ] } },
{ "type": "Feature", "properties": { "内容": "特別養護老人ホーム仁の里【地域密着型介護老人福祉施設入所者生活介護】大字椎木浦畑３９５０番地1", "url": "https://www.kaigokensaku.mhlw.go.jp/45/index.php?action_kouhyou_detail_004_kani=true&JigyosyoCd=4592000071-00&ServiceCd=540&Type=search", "url2": "jinnosato@fukushi-zenjinkai.jp" }, "geometry": { "type": "Point", "coordinates": [ 131.4674344, 32.1585837 ] } }
]
}
