{
"type": "FeatureCollection",
"name": "geo_45_介護老人保健施設",
"crs": { "type": "name", "properties": { "name": "urn:ogc:def:crs:OGC:1.3:CRS84" } },
"features": [
{ "type": "Feature", "properties": { "内容": "介護老人保健施設エンゼルホーム【介護老人保健施設】宮崎県宮崎市大字広原１３５０番地", "url": "https://www.kaigokensaku.mhlw.go.jp/45/index.php?action_kouhyou_detail_004_kani=true&JigyosyoCd=4550180089-00&ServiceCd=520&Type=search", "url2": null }, "geometry": { "type": "Point", "coordinates": [ 131.440174699999943, 32.0050396 ] } },
{ "type": "Feature", "properties": { "内容": "このはな介護老人保健施設【介護老人保健施設】宮崎県宮崎市大字浮田1677番地3", "url": "https://www.kaigokensaku.mhlw.go.jp/45/index.php?action_kouhyou_detail_004_kani=true&JigyosyoCd=4570107989-00&ServiceCd=520&Type=search", "url2": "http://kou-sin.pr.miten.jp/" }, "geometry": { "type": "Point", "coordinates": [ 131.364125599999966, 31.9189784 ] } },
{ "type": "Feature", "properties": { "内容": "介護老人保健施設ことぶき苑【介護老人保健施設】宮崎県宮崎市大字本郷北方字池田４０４３－１", "url": "https://www.kaigokensaku.mhlw.go.jp/45/index.php?action_kouhyou_detail_004_kani=true&JigyosyoCd=4550180055-00&ServiceCd=520&Type=search", "url2": "www.anami-kotobukien.jp" }, "geometry": { "type": "Point", "coordinates": [ 131.425953899999939, 31.865097595469049 ] } },
{ "type": "Feature", "properties": { "内容": "介護老人保健施設ひむか苑【介護老人保健施設】宮崎県宮崎市大字小松1158", "url": "https://www.kaigokensaku.mhlw.go.jp/45/index.php?action_kouhyou_detail_004_kani=true&JigyosyoCd=4550180097-00&ServiceCd=520&Type=search", "url2": "http://www.himukaen.net/" }, "geometry": { "type": "Point", "coordinates": [ 131.402825200000052, 31.9338588 ] } },
{ "type": "Feature", "properties": { "内容": "介護老人保健施設あおしまのいえ【介護老人保健施設】宮崎県宮崎市青島4丁目6-3", "url": "https://www.kaigokensaku.mhlw.go.jp/45/index.php?action_kouhyou_detail_004_kani=true&JigyosyoCd=4550180014-00&ServiceCd=520&Type=search", "url2": null }, "geometry": { "type": "Point", "coordinates": [ 131.469370811814969, 31.795700200691552 ] } },
{ "type": "Feature", "properties": { "内容": "介護老人保健施設サンヒルきよたけ【介護老人保健施設】宮崎県宮崎市清武町木原5886番地16", "url": "https://www.kaigokensaku.mhlw.go.jp/45/index.php?action_kouhyou_detail_004_kani=true&JigyosyoCd=4551580014-00&ServiceCd=520&Type=search", "url2": "http://www.suntaiyo.jp/sunhill/" }, "geometry": { "type": "Point", "coordinates": [ 131.395088100000066, 31.8381477 ] } },
{ "type": "Feature", "properties": { "内容": "独立行政法人地域医療機能推進機構宮崎江南病院附属介護老人保健施設【介護老人保健施設】宮崎県宮崎市大字恒久字鳥の巣6245-1", "url": "https://www.kaigokensaku.mhlw.go.jp/45/index.php?action_kouhyou_detail_004_kani=true&JigyosyoCd=4550180105-00&ServiceCd=520&Type=search", "url2": "http://miyazaki.jcho.go.jp/rouken/" }, "geometry": { "type": "Point", "coordinates": [ 131.405006152795409, 31.8953090414138 ] } },
{ "type": "Feature", "properties": { "内容": "介護老人保健施設むつみ苑【介護老人保健施設】宮崎県宮崎市池内町伊勢領1344番地", "url": "https://www.kaigokensaku.mhlw.go.jp/45/index.php?action_kouhyou_detail_004_kani=true&JigyosyoCd=4550180030-00&ServiceCd=520&Type=search", "url2": "https://zinwakai-mutsumien.com/" }, "geometry": { "type": "Point", "coordinates": [ 131.414334267459168, 31.962865981450761 ] } },
{ "type": "Feature", "properties": { "内容": "介護老人保健施設シルバーケア野崎【介護老人保健施設】宮崎市村角町高尊２１０５", "url": "https://www.kaigokensaku.mhlw.go.jp/45/index.php?action_kouhyou_detail_004_kani=true&JigyosyoCd=4550180022-00&ServiceCd=520&Type=search", "url2": "http://www.koujunkai.jp" }, "geometry": { "type": "Point", "coordinates": [ 131.447704499999986, 31.9583049 ] } },
{ "type": "Feature", "properties": { "内容": "介護老人保健施設グリーンケア学園木花【介護老人保健施設】宮崎県宮崎市熊野４７０番地２", "url": "https://www.kaigokensaku.mhlw.go.jp/45/index.php?action_kouhyou_detail_004_kani=true&JigyosyoCd=4550180071-00&ServiceCd=520&Type=search", "url2": "http://www.green-care.net/" }, "geometry": { "type": "Point", "coordinates": [ 131.438523300000043, 31.8282468 ] } },
{ "type": "Feature", "properties": { "内容": "介護老人保健施設エンゼルホーム【介護老人保健施設】宮崎県宮崎市大字広原1350", "url": "https://www.kaigokensaku.mhlw.go.jp/45/index.php?action_kouhyou_detail_004_kani=true&JigyosyoCd=4550180113-00&ServiceCd=520&Type=search", "url2": "http://angel-home.net" }, "geometry": { "type": "Point", "coordinates": [ 131.4403237, 32.0049711 ] } },
{ "type": "Feature", "properties": { "内容": "介護老人保健施設春草苑【介護老人保健施設】宮崎県宮崎市池内町数太木１７４９－１", "url": "https://www.kaigokensaku.mhlw.go.jp/45/index.php?action_kouhyou_detail_004_kani=true&JigyosyoCd=4550180048-00&ServiceCd=520&Type=search", "url2": "http://www.kgh.or.jp/" }, "geometry": { "type": "Point", "coordinates": [ 131.410304303565937, 31.970690808946376 ] } },
{ "type": "Feature", "properties": { "内容": "介護老人保健施設すこやか苑【介護老人保健施設】宮崎県都城市大岩田町5812番地", "url": "https://www.kaigokensaku.mhlw.go.jp/45/index.php?action_kouhyou_detail_004_kani=true&JigyosyoCd=4570205007-00&ServiceCd=520&Type=search", "url2": "https://hayamizu-park-clinic.com" }, "geometry": { "type": "Point", "coordinates": [ 131.055725700000011, 31.6914099 ] } },
{ "type": "Feature", "properties": { "内容": "介護老人保健施設こんにちわセンター【介護老人保健施設】宮崎県都城市牟田町4街区10号", "url": "https://www.kaigokensaku.mhlw.go.jp/45/index.php?action_kouhyou_detail_004_kani=true&JigyosyoCd=4550280012-00&ServiceCd=520&Type=search", "url2": "http://konnichiwa-center.com" }, "geometry": { "type": "Point", "coordinates": [ 131.062771099999964, 31.7273813 ] } },
{ "type": "Feature", "properties": { "内容": "介護老人保健施設ハッピーライフ高城【介護老人保健施設】宮崎県都城市高城町穂満坊４５５－２", "url": "https://www.kaigokensaku.mhlw.go.jp/45/index.php?action_kouhyou_detail_004_kani=true&JigyosyoCd=4551780010-00&ServiceCd=520&Type=search", "url2": "https://t-yoshimi.sakura.ne.jp/yoshimihp/" }, "geometry": { "type": "Point", "coordinates": [ 131.125828899999988, 31.8019042 ] } },
{ "type": "Feature", "properties": { "内容": "介護老人保健施設ウエルネス苑都城【介護老人保健施設】宮崎県都城市上東町２７街区１６号", "url": "https://www.kaigokensaku.mhlw.go.jp/45/index.php?action_kouhyou_detail_004_kani=true&JigyosyoCd=4550280020-00&ServiceCd=520&Type=search", "url2": null }, "geometry": { "type": "Point", "coordinates": [ 131.074606600000038, 31.7234348 ] } },
{ "type": "Feature", "properties": { "内容": "介護老人保健施設螢邑苑【介護老人保健施設】宮崎県延岡市北川町川内名7055番地2", "url": "https://www.kaigokensaku.mhlw.go.jp/45/index.php?action_kouhyou_detail_004_kani=true&JigyosyoCd=4552180004-00&ServiceCd=520&Type=search", "url2": "http://yuryukai.jp" }, "geometry": { "type": "Point", "coordinates": [ 131.69357311230317, 32.687023986252186 ] } },
{ "type": "Feature", "properties": { "内容": "介護老人保健施設昭和苑【介護老人保健施設】宮崎県延岡市構口町２丁目125-1", "url": "https://www.kaigokensaku.mhlw.go.jp/45/index.php?action_kouhyou_detail_004_kani=true&JigyosyoCd=4550380002-00&ServiceCd=520&Type=search", "url2": null }, "geometry": { "type": "Point", "coordinates": [ 131.67421289999993, 32.557836 ] } },
{ "type": "Feature", "properties": { "内容": "介護老人保健施設　マイ・グリーンヒル【介護老人保健施設】宮崎県延岡市緑ヶ丘５丁目２番２２号", "url": "https://www.kaigokensaku.mhlw.go.jp/45/index.php?action_kouhyou_detail_004_kani=true&JigyosyoCd=4550380036-00&ServiceCd=520&Type=search", "url2": "http://www.ryuseikai.com" }, "geometry": { "type": "Point", "coordinates": [ 131.679443499999934, 32.545834700000043 ] } },
{ "type": "Feature", "properties": { "内容": "のべおか老健あたご【介護老人保健施設】宮崎県延岡市中島町4丁目314番地3", "url": "https://www.kaigokensaku.mhlw.go.jp/45/index.php?action_kouhyou_detail_004_kani=true&JigyosyoCd=4550380051-00&ServiceCd=520&Type=search", "url2": "www.rouken-atago.jp" }, "geometry": { "type": "Point", "coordinates": [ 131.67563395024797, 32.576261762671784 ] } },
{ "type": "Feature", "properties": { "内容": "医療法人伸和会・介護老人保健施設「東海園」【介護老人保健施設】宮崎県延岡市川島町1080番地5", "url": "https://www.kaigokensaku.mhlw.go.jp/45/index.php?action_kouhyou_detail_004_kani=true&JigyosyoCd=4550380044-00&ServiceCd=520&Type=search", "url2": "http://www.nobeoka-kyoritu.or.jp/toumien/" }, "geometry": { "type": "Point", "coordinates": [ 131.702457500000037, 32.6192766 ] } },
{ "type": "Feature", "properties": { "内容": "介護老人保健施設エクセルライフ【介護老人保健施設】宮崎県延岡市大貫町1丁目2850-1", "url": "https://www.kaigokensaku.mhlw.go.jp/45/index.php?action_kouhyou_detail_004_kani=true&JigyosyoCd=4550380010-00&ServiceCd=520&Type=search", "url2": "http://www.excel-life.jp/" }, "geometry": { "type": "Point", "coordinates": [ 131.655349100000024, 32.5795178 ] } },
{ "type": "Feature", "properties": { "内容": "医療法人久康会　介護老人保健施設トトロみのる園【介護老人保健施設】宮崎県延岡市鯛名町４２２番地９", "url": "https://www.kaigokensaku.mhlw.go.jp/45/index.php?action_kouhyou_detail_004_kani=true&JigyosyoCd=4550380028-00&ServiceCd=520&Type=search", "url2": "http://www.q-totoro.org/minoru" }, "geometry": { "type": "Point", "coordinates": [ 131.692079700000022, 32.5069803 ] } },
{ "type": "Feature", "properties": { "内容": "介護老人保健施設ハイム苑【介護老人保健施設】宮崎県日南市中央通１丁目１０番地１５", "url": "https://www.kaigokensaku.mhlw.go.jp/45/index.php?action_kouhyou_detail_004_kani=true&JigyosyoCd=4550480000-00&ServiceCd=520&Type=search", "url2": "http://aisinkai.com" }, "geometry": { "type": "Point", "coordinates": [ 131.381452807969254, 31.600801395417328 ] } },
{ "type": "Feature", "properties": { "内容": "介護老人保健施設しあわせの里【介護老人保健施設】宮崎県日南市北郷町大藤甲3589-1", "url": "https://www.kaigokensaku.mhlw.go.jp/45/index.php?action_kouhyou_detail_004_kani=true&JigyosyoCd=4551680004-00&ServiceCd=520&Type=search", "url2": "http://siawasenosato.com/" }, "geometry": { "type": "Point", "coordinates": [ 131.385717399999976, 31.6584694 ] } },
{ "type": "Feature", "properties": { "内容": "介護老人保健施設　おびの里【介護老人保健施設】宮崎県日南市飫肥6丁目1番15号", "url": "https://www.kaigokensaku.mhlw.go.jp/45/index.php?action_kouhyou_detail_004_kani=true&JigyosyoCd=4550480034-00&ServiceCd=520&Type=search", "url2": "http://www.keimei.or.jp/obichuo/sato/" }, "geometry": { "type": "Point", "coordinates": [ 131.355259199999978, 31.6245299 ] } },
{ "type": "Feature", "properties": { "内容": "介護老人保健施設みどりの丘【介護老人保健施設】宮崎県日南市大字隈谷甲１２１８－１", "url": "https://www.kaigokensaku.mhlw.go.jp/45/index.php?action_kouhyou_detail_004_kani=true&JigyosyoCd=4550480026-00&ServiceCd=520&Type=search", "url2": "http://www.keiwakai.co.jp" }, "geometry": { "type": "Point", "coordinates": [ 131.370459699999969, 31.5768004 ] } },
{ "type": "Feature", "properties": { "内容": "介護老人保健施設相愛苑【介護老人保健施設】宮崎県小林市北西方66-3", "url": "https://www.kaigokensaku.mhlw.go.jp/45/index.php?action_kouhyou_detail_004_kani=true&JigyosyoCd=4550580007-00&ServiceCd=520&Type=search", "url2": "http://www.all-souai.or.jp/souaien/" }, "geometry": { "type": "Point", "coordinates": [ 130.963501700000052, 32.008304600000017 ] } },
{ "type": "Feature", "properties": { "内容": "医療法人けんゆう会　介護老人保健施設さわやかセンター【介護老人保健施設】宮崎県小林市堤3008番地1", "url": "https://www.kaigokensaku.mhlw.go.jp/45/index.php?action_kouhyou_detail_004_kani=true&JigyosyoCd=4550580049-00&ServiceCd=520&Type=search", "url2": "http://www.sawayakacenter.com/" }, "geometry": { "type": "Point", "coordinates": [ 130.997730700000034, 31.9820859 ] } },
{ "type": "Feature", "properties": { "内容": "介護老人保健施設すこやかセンターこばやし【介護老人保健施設】宮崎県小林市細野2033番地", "url": "https://www.kaigokensaku.mhlw.go.jp/45/index.php?action_kouhyou_detail_004_kani=true&JigyosyoCd=4550580015-00&ServiceCd=520&Type=search", "url2": "http://www.maeharahospital.jp/" }, "geometry": { "type": "Point", "coordinates": [ 130.979848400000037, 31.989246 ] } },
{ "type": "Feature", "properties": { "内容": "介護老人保健施設みずほ【介護老人保健施設】宮崎県小林市真方８７番地", "url": "https://www.kaigokensaku.mhlw.go.jp/45/index.php?action_kouhyou_detail_004_kani=true&JigyosyoCd=4550580031-00&ServiceCd=520&Type=search", "url2": "http://www.yokikai.or.jp" }, "geometry": { "type": "Point", "coordinates": [ 130.978198099999986, 31.996748 ] } },
{ "type": "Feature", "properties": { "内容": "介護老人保健施設慶穣塾【介護老人保健施設】宮崎県日向市大字塩見１０９４７番地１", "url": "https://www.kaigokensaku.mhlw.go.jp/45/index.php?action_kouhyou_detail_004_kani=true&JigyosyoCd=4550680005-00&ServiceCd=520&Type=search", "url2": "http://takii-hospital.com/." }, "geometry": { "type": "Point", "coordinates": [ 131.5945987, 32.4106722 ] } },
{ "type": "Feature", "properties": { "内容": "介護老人保健施設メディケア盛年館【介護老人保健施設】宮崎県日向市向江町1丁目196番地2", "url": "https://www.kaigokensaku.mhlw.go.jp/45/index.php?action_kouhyou_detail_004_kani=true&JigyosyoCd=4550680021-00&ServiceCd=520&Type=search", "url2": "http://seinenkan.jp/" }, "geometry": { "type": "Point", "coordinates": [ 131.6290285, 32.4291104 ] } },
{ "type": "Feature", "properties": { "内容": "介護老人保健施設ラポール向洋【介護老人保健施設】宮崎県日向市大字財光寺１１３１－２４", "url": "https://www.kaigokensaku.mhlw.go.jp/45/index.php?action_kouhyou_detail_004_kani=true&JigyosyoCd=4550680013-00&ServiceCd=520&Type=search", "url2": "www.kyowahospital.jp/" }, "geometry": { "type": "Point", "coordinates": [ 131.638142499999958, 32.4079404 ] } },
{ "type": "Feature", "properties": { "内容": "介護老人保健施設長寿の里【介護老人保健施設】宮崎県串間市大字奈留５２９８-３", "url": "https://www.kaigokensaku.mhlw.go.jp/45/index.php?action_kouhyou_detail_004_kani=true&JigyosyoCd=4550780003-00&ServiceCd=520&Type=search", "url2": "http://www.shueikai.or.jp/" }, "geometry": { "type": "Point", "coordinates": [ 131.246595, 31.5133006 ] } },
{ "type": "Feature", "properties": { "内容": "介護老人保健施設菜花園【介護老人保健施設】宮崎県西都市大字穂北5253番地4", "url": "https://www.kaigokensaku.mhlw.go.jp/45/index.php?action_kouhyou_detail_004_kani=true&JigyosyoCd=4550880019-00&ServiceCd=520&Type=search", "url2": "http://www.ryutoku.or.jp" }, "geometry": { "type": "Point", "coordinates": [ 131.442329903625478, 32.135012650657124 ] } },
{ "type": "Feature", "properties": { "内容": "介護老人保健施設並木の里【介護老人保健施設】宮崎県西都市大字下三財8124番地8", "url": "https://www.kaigokensaku.mhlw.go.jp/45/index.php?action_kouhyou_detail_004_kani=true&JigyosyoCd=4550880001-00&ServiceCd=520&Type=search", "url2": "https://gyoseikai-med.jp/" }, "geometry": { "type": "Point", "coordinates": [ 131.344759582803363, 32.06994130317964 ] } },
{ "type": "Feature", "properties": { "内容": "介護老人保健施設さくら苑【介護老人保健施設】宮崎県えびの市大字大河平4327-37", "url": "https://www.kaigokensaku.mhlw.go.jp/45/index.php?action_kouhyou_detail_004_kani=true&JigyosyoCd=4550980009-00&ServiceCd=520&Type=search", "url2": "https://kyk.or.jp" }, "geometry": { "type": "Point", "coordinates": [ 130.912082300000094, 32.0399114 ] } },
{ "type": "Feature", "properties": { "内容": "介護老人保健施設グリーンホーム【介護老人保健施設】宮崎県北諸県郡三股町大字長田1270番地", "url": "https://www.kaigokensaku.mhlw.go.jp/45/index.php?action_kouhyou_detail_004_kani=true&JigyosyoCd=4551780002-00&ServiceCd=520&Type=search", "url2": "http://www.fujimoto.com/" }, "geometry": { "type": "Point", "coordinates": [ 131.133099899999934, 31.7431234 ] } },
{ "type": "Feature", "properties": { "内容": "介護老人保健施設はまゆう【介護老人保健施設】宮崎県北諸県郡三股町大字蓼池660番地", "url": "https://www.kaigokensaku.mhlw.go.jp/45/index.php?action_kouhyou_detail_004_kani=true&JigyosyoCd=4551780028-00&ServiceCd=520&Type=search", "url2": null }, "geometry": { "type": "Point", "coordinates": [ 131.1145368, 31.748667 ] } },
{ "type": "Feature", "properties": { "内容": "介護老人保健施設サンフローラみやざき【介護老人保健施設】宮崎県東諸県郡国富町大字岩知野字明久３５５番地", "url": "https://www.kaigokensaku.mhlw.go.jp/45/index.php?action_kouhyou_detail_004_kani=true&JigyosyoCd=4551980008-00&ServiceCd=520&Type=search", "url2": "http://www.keimeisw.or.jp" }, "geometry": { "type": "Point", "coordinates": [ 131.323535399999969, 31.9906436 ] } },
{ "type": "Feature", "properties": { "内容": "介護老人保健施設なでしこ園【介護老人保健施設】宮崎県児湯郡高鍋町大字北高鍋3225番地", "url": "https://www.kaigokensaku.mhlw.go.jp/45/index.php?action_kouhyou_detail_004_kani=true&JigyosyoCd=4552080006-00&ServiceCd=520&Type=search", "url2": "https://www.sanjinkai.jp" }, "geometry": { "type": "Point", "coordinates": [ 131.521430799999962, 32.1252962 ] } },
{ "type": "Feature", "properties": { "内容": "介護老人保健施設シルバーケア新富【介護老人保健施設】宮崎県児湯郡新富町大字新田４８１－１", "url": "https://www.kaigokensaku.mhlw.go.jp/45/index.php?action_kouhyou_detail_004_kani=true&JigyosyoCd=4552080014-00&ServiceCd=520&Type=search", "url2": "htttps://sites.google.com/view/silvercare-sintomi2/" }, "geometry": { "type": "Point", "coordinates": [ 131.460672599999953, 32.064423 ] } }
]
}
