{
"type": "FeatureCollection",
"name": "geo_45_特定施設入居者生活介護（軽費老人ホーム）",
"crs": { "type": "name", "properties": { "name": "urn:ogc:def:crs:OGC:1.3:CRS84" } },
"features": [
{ "type": "Feature", "properties": { "内容": "ケアハウス・エバグリーン【特定施設入居者生活介護（軽費老人ホーム）】宮崎県宮崎市大字加江田４５１４－２", "url": "https://www.kaigokensaku.mhlw.go.jp/45/index.php?action_kouhyou_detail_004_kani=true&JigyosyoCd=4570105272-00&ServiceCd=332&Type=search", "url2": "www.aisinfukusikai.jp/" }, "geometry": { "type": "Point", "coordinates": [ 131.44461672388752, 31.812780286603527 ] } },
{ "type": "Feature", "properties": { "内容": "ケアハウスシャトル【特定施設入居者生活介護（軽費老人ホーム）】高岡町内山2407番地3", "url": "https://www.kaigokensaku.mhlw.go.jp/45/index.php?action_kouhyou_detail_004_kani=true&JigyosyoCd=4570105058-00&ServiceCd=332&Type=search", "url2": "http://www.sin-ai-kai.jp" }, "geometry": { "type": "Point", "coordinates": [ 131.2952745, 31.968258 ] } },
{ "type": "Feature", "properties": { "内容": "ケアハウス生目の郷【特定施設入居者生活介護（軽費老人ホーム）】宮崎県宮崎市大字小松字口ノ坪2872番地1", "url": "https://www.kaigokensaku.mhlw.go.jp/45/index.php?action_kouhyou_detail_004_kani=true&JigyosyoCd=4570102402-00&ServiceCd=332&Type=search", "url2": "http://www.umigikukai.jp/" }, "geometry": { "type": "Point", "coordinates": [ 131.382057172463988, 31.925759751381104 ] } },
{ "type": "Feature", "properties": { "内容": "ケアトピアみやざき特定施設入居者生活介護事業所【特定施設入居者生活介護（軽費老人ホーム）】宮崎県宮崎市大字郡司分丙9273", "url": "https://www.kaigokensaku.mhlw.go.jp/45/index.php?action_kouhyou_detail_004_kani=true&JigyosyoCd=4570104945-00&ServiceCd=332&Type=search", "url2": "http://www.care.or.jp" }, "geometry": { "type": "Point", "coordinates": [ 131.415896400000065, 31.86443 ] } },
{ "type": "Feature", "properties": { "内容": "ケアハウス芳生ヴィラ【特定施設入居者生活介護（軽費老人ホーム）】大字大瀬町3190", "url": "https://www.kaigokensaku.mhlw.go.jp/45/index.php?action_kouhyou_detail_004_kani=true&JigyosyoCd=4570105165-00&ServiceCd=332&Type=search", "url2": "http://www.houseien.jp/" }, "geometry": { "type": "Point", "coordinates": [ 131.379485599999953, 31.9842369 ] } },
{ "type": "Feature", "properties": { "内容": "ケアハウス島之内【特定施設入居者生活介護（軽費老人ホーム）】宮崎県宮崎市大字島之内2345番地3", "url": "https://www.kaigokensaku.mhlw.go.jp/45/index.php?action_kouhyou_detail_004_kani=true&JigyosyoCd=4570102147-00&ServiceCd=332&Type=search", "url2": "http://www.dojunkai.com" }, "geometry": { "type": "Point", "coordinates": [ 131.4543969, 31.9913857 ] } },
{ "type": "Feature", "properties": { "内容": "ケアハウスわかば【特定施設入居者生活介護（軽費老人ホーム）】宮崎県都城市上長飯町2683番地3", "url": "https://www.kaigokensaku.mhlw.go.jp/45/index.php?action_kouhyou_detail_004_kani=true&JigyosyoCd=4570201428-00&ServiceCd=332&Type=search", "url2": "http://www.oyd-welfare.jp" }, "geometry": { "type": "Point", "coordinates": [ 131.087172729360987, 31.715879473350402 ] } },
{ "type": "Feature", "properties": { "内容": "社会福祉法人清風会ケアハウスれいめい館【特定施設入居者生活介護（軽費老人ホーム）】宮崎県日向市大字塩見１１０８９番地６", "url": "https://www.kaigokensaku.mhlw.go.jp/45/index.php?action_kouhyou_detail_004_kani=true&JigyosyoCd=4570600264-00&ServiceCd=332&Type=search", "url2": "http://wakamiyaso.jp/" }, "geometry": { "type": "Point", "coordinates": [ 131.598526200000038, 32.4109334 ] } },
{ "type": "Feature", "properties": { "内容": "ケアハウスさくらの杜【特定施設入居者生活介護（軽費老人ホーム）】宮崎県えびの市大河平4327-26", "url": "https://www.kaigokensaku.mhlw.go.jp/45/index.php?action_kouhyou_detail_004_kani=true&JigyosyoCd=4570900219-00&ServiceCd=332&Type=search", "url2": "https://kyk.or.jp" }, "geometry": { "type": "Point", "coordinates": [ 130.915965300000039, 32.0398088 ] } },
{ "type": "Feature", "properties": { "内容": "社会福祉法人慶明会　ケアハウス　サン・グラン【特定施設入居者生活介護（軽費老人ホーム）】宮崎県東諸県郡国富町大字岩知野字明久357", "url": "https://www.kaigokensaku.mhlw.go.jp/45/index.php?action_kouhyou_detail_004_kani=true&JigyosyoCd=4571901174-00&ServiceCd=332&Type=search", "url2": "https://www.keimeisw.or.jp/" }, "geometry": { "type": "Point", "coordinates": [ 131.370023384397882, 31.973111932624313 ] } }
]
}
