{
"type": "FeatureCollection",
"name": "geo_45_地域密着型通所介護",
"crs": { "type": "name", "properties": { "name": "urn:ogc:def:crs:OGC:1.3:CRS84" } },
"features": [
{ "type": "Feature", "properties": { "内容": "デイサービスひとつば【地域密着型通所介護】宮崎県宮崎市吉村町今村甲4119番地１", "url": "https://www.kaigokensaku.mhlw.go.jp/45/index.php?action_kouhyou_detail_004_kani=true&JigyosyoCd=4570103558-00&ServiceCd=780&Type=search", "url2": "http://hitotuba1280.wixsite.com/dayservice-hitotuba" }, "geometry": { "type": "Point", "coordinates": [ 131.448164058782936, 31.911822248926477 ] } },
{ "type": "Feature", "properties": { "内容": "デイサービスセンタ－ひだまり柳丸館【地域密着型通所介護】宮崎市柳丸町32番地ひだまり柳丸館", "url": "https://www.kaigokensaku.mhlw.go.jp/45/index.php?action_kouhyou_detail_004_kani=true&JigyosyoCd=4590100980-00&ServiceCd=780&Type=search", "url2": "E-mail:hidamari-y@meisyo-wa.jp" }, "geometry": { "type": "Point", "coordinates": [ 131.433989500000052, 31.9285157 ] } },
{ "type": "Feature", "properties": { "内容": "デイサービスひいらぎ【地域密着型通所介護】宮崎県宮崎市高洲町137-7", "url": "https://www.kaigokensaku.mhlw.go.jp/45/index.php?action_kouhyou_detail_004_kani=true&JigyosyoCd=4590101053-00&ServiceCd=780&Type=search", "url2": "https://www.np-k.co.jp/day3/hiiragi/" }, "geometry": { "type": "Point", "coordinates": [ 131.4459822, 31.9002029 ] } },
{ "type": "Feature", "properties": { "内容": "高松ケアセンター【地域密着型通所介護】宮崎県宮崎市高松町１番３３号", "url": "https://www.kaigokensaku.mhlw.go.jp/45/index.php?action_kouhyou_detail_004_kani=true&JigyosyoCd=4570101230-00&ServiceCd=780&Type=search", "url2": null }, "geometry": { "type": "Point", "coordinates": [ 131.420343699999989, 31.9134396 ] } },
{ "type": "Feature", "properties": { "内容": "デイサービス　アーモンド【地域密着型通所介護】宮崎県宮崎市高岡町五町278番地3", "url": "https://www.kaigokensaku.mhlw.go.jp/45/index.php?action_kouhyou_detail_004_kani=true&JigyosyoCd=4590101327-00&ServiceCd=780&Type=search", "url2": "https://www．blendhill.jp" }, "geometry": { "type": "Point", "coordinates": [ 131.299549300000024, 31.9559163 ] } },
{ "type": "Feature", "properties": { "内容": "デイサービスセンターグジブランド【地域密着型通所介護】宮崎県宮崎市大字郡司分乙799-1", "url": "https://www.kaigokensaku.mhlw.go.jp/45/index.php?action_kouhyou_detail_004_kani=true&JigyosyoCd=4570103491-00&ServiceCd=780&Type=search", "url2": "tatsumoto@brown.plala.or.jp" }, "geometry": { "type": "Point", "coordinates": [ 131.410561, 31.8550387 ] } },
{ "type": "Feature", "properties": { "内容": "デイサービス　ゆうしん【地域密着型通所介護】大塚町八所3633-1", "url": "https://www.kaigokensaku.mhlw.go.jp/45/index.php?action_kouhyou_detail_004_kani=true&JigyosyoCd=4570106817-00&ServiceCd=780&Type=search", "url2": "https://yushin-wd.co.jp/company/" }, "geometry": { "type": "Point", "coordinates": [ 131.389458, 31.9133568 ] } },
{ "type": "Feature", "properties": { "内容": "アットホームデイサービスようこそ【地域密着型通所介護】宮崎県宮崎市恒久3丁目5番19", "url": "https://www.kaigokensaku.mhlw.go.jp/45/index.php?action_kouhyou_detail_004_kani=true&JigyosyoCd=4570106916-00&ServiceCd=780&Type=search", "url2": "https://www.np-k.co.jp/day3/" }, "geometry": { "type": "Point", "coordinates": [ 131.4294102, 31.8956084 ] } },
{ "type": "Feature", "properties": { "内容": "地域密着型通所介護事業所　　　二ツ山安寿【地域密着型通所介護】宮崎県宮崎市田野町甲5740番地", "url": "https://www.kaigokensaku.mhlw.go.jp/45/index.php?action_kouhyou_detail_004_kani=true&JigyosyoCd=4570107120-00&ServiceCd=780&Type=search", "url2": "https://www.minnanokaigo.com/facility/000-2079642163/" }, "geometry": { "type": "Point", "coordinates": [ 131.328486800000064, 31.835927300000023 ] } },
{ "type": "Feature", "properties": { "内容": "デイホームすずの木【地域密着型通所介護】宮崎県宮崎市大字島之内9293番地1デイホームすずの木", "url": "https://www.kaigokensaku.mhlw.go.jp/45/index.php?action_kouhyou_detail_004_kani=true&JigyosyoCd=4570102857-00&ServiceCd=780&Type=search", "url2": null }, "geometry": { "type": "Point", "coordinates": [ 131.453645, 31.9818576 ] } },
{ "type": "Feature", "properties": { "内容": "デイサービスみやこや【地域密着型通所介護】宮崎県宮崎市曽師町111番地3", "url": "https://www.kaigokensaku.mhlw.go.jp/45/index.php?action_kouhyou_detail_004_kani=true&JigyosyoCd=4590100949-00&ServiceCd=780&Type=search", "url2": "https://naturalb.net/" }, "geometry": { "type": "Point", "coordinates": [ 131.440652300000011, 31.9123359 ] } },
{ "type": "Feature", "properties": { "内容": "デイサービスゲスト・ハウス【地域密着型通所介護】宮崎市佐土原町下田島１２２３３番地３", "url": "https://www.kaigokensaku.mhlw.go.jp/45/index.php?action_kouhyou_detail_004_kani=true&JigyosyoCd=4590101426-00&ServiceCd=780&Type=search", "url2": null }, "geometry": { "type": "Point", "coordinates": [ 131.469659583289911, 32.03676451705379 ] } },
{ "type": "Feature", "properties": { "内容": "小規模デイサービスcatlife【地域密着型通所介護】宮崎県宮崎市大字糸原3487番地", "url": "https://www.kaigokensaku.mhlw.go.jp/45/index.php?action_kouhyou_detail_004_kani=true&JigyosyoCd=4590101459-00&ServiceCd=780&Type=search", "url2": "https://www.catlife-miyazaki.com/" }, "geometry": { "type": "Point", "coordinates": [ 131.358373300000011, 31.9549346 ] } },
{ "type": "Feature", "properties": { "内容": "まなび野デイサービスセンター【地域密着型通所介護】宮崎県宮崎市まなび野2-39-1", "url": "https://www.kaigokensaku.mhlw.go.jp/45/index.php?action_kouhyou_detail_004_kani=true&JigyosyoCd=4570103889-00&ServiceCd=780&Type=search", "url2": null }, "geometry": { "type": "Point", "coordinates": [ 131.420082399999956, 31.8597083 ] } },
{ "type": "Feature", "properties": { "内容": "デイサービスセンター太平洋【地域密着型通所介護】青島6丁目14番33号", "url": "https://www.kaigokensaku.mhlw.go.jp/45/index.php?action_kouhyou_detail_004_kani=true&JigyosyoCd=4570106072-00&ServiceCd=780&Type=search", "url2": "http://www.miyazaki-catv.ne.jp/~taiheiyo-1433/index.html" }, "geometry": { "type": "Point", "coordinates": [ 131.473192899999958, 31.7925323 ] } },
{ "type": "Feature", "properties": { "内容": "宮崎保健福祉専門学校附属デイサービスセンター健康【地域密着型通所介護】宮崎県宮崎市清武町木原5705番地", "url": "https://www.kaigokensaku.mhlw.go.jp/45/index.php?action_kouhyou_detail_004_kani=true&JigyosyoCd=4571500703-00&ServiceCd=780&Type=search", "url2": null }, "geometry": { "type": "Point", "coordinates": [ 131.394313199999942, 31.8373867 ] } },
{ "type": "Feature", "properties": { "内容": "ミック健康の森宮崎【地域密着型通所介護】宮崎県宮崎市清武町加納甲1357-5ミック健康の森宮崎", "url": "https://www.kaigokensaku.mhlw.go.jp/45/index.php?action_kouhyou_detail_004_kani=true&JigyosyoCd=4590101376-00&ServiceCd=780&Type=search", "url2": "https://best-care-group.co.jp" }, "geometry": { "type": "Point", "coordinates": [ 131.393162262026948, 31.872340722196537 ] } },
{ "type": "Feature", "properties": { "内容": "デイサービスそう・けん・びあお【地域密着型通所介護】大字恒久1969-1", "url": "https://www.kaigokensaku.mhlw.go.jp/45/index.php?action_kouhyou_detail_004_kani=true&JigyosyoCd=4590101533-00&ServiceCd=780&Type=search", "url2": null }, "geometry": { "type": "Point", "coordinates": [ 131.423928900000021, 31.8875889 ] } },
{ "type": "Feature", "properties": { "内容": "リハスタジオIchiRin【地域密着型通所介護】桜町13-18", "url": "https://www.kaigokensaku.mhlw.go.jp/45/index.php?action_kouhyou_detail_004_kani=true&JigyosyoCd=4590101541-00&ServiceCd=780&Type=search", "url2": "https://ringo-ichigo.jp/" }, "geometry": { "type": "Point", "coordinates": [ 130.7028645, 32.8008402 ] } },
{ "type": "Feature", "properties": { "内容": "デイサービスオアシスケア宮崎【地域密着型通所介護】宮崎県宮崎市末広1丁目4番35号", "url": "https://www.kaigokensaku.mhlw.go.jp/45/index.php?action_kouhyou_detail_004_kani=true&JigyosyoCd=4570107765-00&ServiceCd=780&Type=search", "url2": "http://oasiscare.jp" }, "geometry": { "type": "Point", "coordinates": [ 131.419143800000029, 31.911659200000013 ] } },
{ "type": "Feature", "properties": { "内容": "はまゆう大塚ステーション【地域密着型通所介護】宮崎市大塚町八所3657番地1", "url": "https://www.kaigokensaku.mhlw.go.jp/45/index.php?action_kouhyou_detail_004_kani=true&JigyosyoCd=4570106403-00&ServiceCd=780&Type=search", "url2": null }, "geometry": { "type": "Point", "coordinates": [ 131.387341152456685, 31.913405948695701 ] } },
{ "type": "Feature", "properties": { "内容": "デイサービスそう･けん･びハナ【地域密着型通所介護】宮崎県宮崎市花山手東2-9-1デイサービスそう･けん･びハナ", "url": "https://www.kaigokensaku.mhlw.go.jp/45/index.php?action_kouhyou_detail_004_kani=true&JigyosyoCd=4590101061-00&ServiceCd=780&Type=search", "url2": "http://sou-ken-bi.com/" }, "geometry": { "type": "Point", "coordinates": [ 131.403001399257079, 31.904910408453961 ] } },
{ "type": "Feature", "properties": { "内容": "株式会社　介護サポート宮崎【地域密着型通所介護】宮崎県宮崎市大字新名爪３２３-２", "url": "https://www.kaigokensaku.mhlw.go.jp/45/index.php?action_kouhyou_detail_004_kani=true&JigyosyoCd=4570106494-00&ServiceCd=780&Type=search", "url2": null }, "geometry": { "type": "Point", "coordinates": [ 131.44277360000001, 31.9743591 ] } },
{ "type": "Feature", "properties": { "内容": "にこっとディ【地域密着型通所介護】宮崎県宮崎市清武町加納甲３００４番地１６６", "url": "https://www.kaigokensaku.mhlw.go.jp/45/index.php?action_kouhyou_detail_004_kani=true&JigyosyoCd=4570107724-00&ServiceCd=780&Type=search", "url2": "https://www.nicottoday.co.jp/" }, "geometry": { "type": "Point", "coordinates": [ 131.3922033, 31.8668812 ] } },
{ "type": "Feature", "properties": { "内容": "TMリハサービス【地域密着型通所介護】宮崎県宮崎市大字瓜生野3684番地1", "url": "https://www.kaigokensaku.mhlw.go.jp/45/index.php?action_kouhyou_detail_004_kani=true&JigyosyoCd=4570108094-00&ServiceCd=780&Type=search", "url2": "http://www.tm-reha.co.jp" }, "geometry": { "type": "Point", "coordinates": [ 131.385933, 31.9620481 ] } },
{ "type": "Feature", "properties": { "内容": "春生倶楽部【地域密着型通所介護】宮崎県宮崎市希望ヶ丘4丁目83", "url": "https://www.kaigokensaku.mhlw.go.jp/45/index.php?action_kouhyou_detail_004_kani=true&JigyosyoCd=4570101776-00&ServiceCd=780&Type=search", "url2": "http://www.kudomi.com" }, "geometry": { "type": "Point", "coordinates": [ 131.420454981070463, 31.856242688255087 ] } },
{ "type": "Feature", "properties": { "内容": "デイ＆ジム歩【地域密着型通所介護】宮崎県宮崎市大字島之内1615", "url": "https://www.kaigokensaku.mhlw.go.jp/45/index.php?action_kouhyou_detail_004_kani=true&JigyosyoCd=4590101079-00&ServiceCd=780&Type=search", "url2": null }, "geometry": { "type": "Point", "coordinates": [ 131.4584023747299, 31.992702079370329 ] } },
{ "type": "Feature", "properties": { "内容": "Blue【地域密着型通所介護】宮崎県宮崎市大字恒久1963番地1　1F", "url": "https://www.kaigokensaku.mhlw.go.jp/45/index.php?action_kouhyou_detail_004_kani=true&JigyosyoCd=4570109209-00&ServiceCd=780&Type=search", "url2": null }, "geometry": { "type": "Point", "coordinates": [ 131.4240239, 31.8875111 ] } },
{ "type": "Feature", "properties": { "内容": "ホームケアセンターめぐみ【地域密着型通所介護】宮崎県宮崎市城ケ崎４丁目２－１１", "url": "https://www.kaigokensaku.mhlw.go.jp/45/index.php?action_kouhyou_detail_004_kani=true&JigyosyoCd=4570106858-00&ServiceCd=780&Type=search", "url2": "https://carejapan-miyazaki.com/" }, "geometry": { "type": "Point", "coordinates": [ 131.4348374, 31.8968307 ] } },
{ "type": "Feature", "properties": { "内容": "デイサービス雁ケ音【地域密着型通所介護】宮崎県宮崎市東大宮4丁目20-15", "url": "https://www.kaigokensaku.mhlw.go.jp/45/index.php?action_kouhyou_detail_004_kani=true&JigyosyoCd=4570101834-00&ServiceCd=780&Type=search", "url2": "http://syunkoukai.com" }, "geometry": { "type": "Point", "coordinates": [ 131.4391776, 31.9455168 ] } },
{ "type": "Feature", "properties": { "内容": "デイサービス　ゆずり葉【地域密着型通所介護】宮崎県宮崎市大字新名爪4452-1", "url": "https://www.kaigokensaku.mhlw.go.jp/45/index.php?action_kouhyou_detail_004_kani=true&JigyosyoCd=4570108151-00&ServiceCd=780&Type=search", "url2": "http://www.yuzuriha-n.jp/" }, "geometry": { "type": "Point", "coordinates": [ 131.437629600000037, 31.9729257 ] } },
{ "type": "Feature", "properties": { "内容": "デイサービスセンターこのはなガーデン2号館【地域密着型通所介護】学園木花台桜1丁目23番地7オーパーツ", "url": "https://www.kaigokensaku.mhlw.go.jp/45/index.php?action_kouhyou_detail_004_kani=true&JigyosyoCd=4570108318-00&ServiceCd=780&Type=search", "url2": "http://konohana-garden.com/" }, "geometry": { "type": "Point", "coordinates": [ 131.41891929999997, 31.8247544 ] } },
{ "type": "Feature", "properties": { "内容": "ほんわかデイサービス・恒久南【地域密着型通所介護】宮崎県宮崎市恒久南4-172-27", "url": "https://www.kaigokensaku.mhlw.go.jp/45/index.php?action_kouhyou_detail_004_kani=true&JigyosyoCd=4570105025-00&ServiceCd=780&Type=search", "url2": null }, "geometry": { "type": "Point", "coordinates": [ 131.432571300000063, 31.8909811 ] } },
{ "type": "Feature", "properties": { "内容": "デイサービスこのはな【地域密着型通所介護】宮崎県宮崎市熊野１６１３", "url": "https://www.kaigokensaku.mhlw.go.jp/45/index.php?action_kouhyou_detail_004_kani=true&JigyosyoCd=4570103582-00&ServiceCd=780&Type=search", "url2": "https://www.miyazaki-iryou.coop/" }, "geometry": { "type": "Point", "coordinates": [ 131.439775899999972, 31.8321103 ] } },
{ "type": "Feature", "properties": { "内容": "デイハウスみずたま【地域密着型通所介護】宮崎県宮崎市大字有田３１７番地１", "url": "https://www.kaigokensaku.mhlw.go.jp/45/index.php?action_kouhyou_detail_004_kani=true&JigyosyoCd=4570108219-00&ServiceCd=780&Type=search", "url2": "https://www.mizutama/link" }, "geometry": { "type": "Point", "coordinates": [ 131.377245600000037, 31.9521508 ] } },
{ "type": "Feature", "properties": { "内容": "デイサービスアットホーム【地域密着型通所介護】宮崎県宮崎市大塚町宮田２８９１番地", "url": "https://www.kaigokensaku.mhlw.go.jp/45/index.php?action_kouhyou_detail_004_kani=true&JigyosyoCd=4570105207-00&ServiceCd=780&Type=search", "url2": null }, "geometry": { "type": "Point", "coordinates": [ 131.396893, 31.914991 ] } },
{ "type": "Feature", "properties": { "内容": "ミューズの星新別府町デイサービスセンター【地域密着型通所介護】宮崎県宮崎市新別府町薦藁1955－1", "url": "https://www.kaigokensaku.mhlw.go.jp/45/index.php?action_kouhyou_detail_004_kani=true&JigyosyoCd=4570107369-00&ServiceCd=780&Type=search", "url2": "http://hoshakai.com" }, "geometry": { "type": "Point", "coordinates": [ 131.4585879, 31.9264412 ] } },
{ "type": "Feature", "properties": { "内容": "サザンクロスデイサービスセンター【地域密着型通所介護】宮崎県宮崎市本郷北方2717番地15", "url": "https://www.kaigokensaku.mhlw.go.jp/45/index.php?action_kouhyou_detail_004_kani=true&JigyosyoCd=4570102873-00&ServiceCd=780&Type=search", "url2": "http://villa-southern.jp/" }, "geometry": { "type": "Point", "coordinates": [ 131.409435199999962, 31.8747732 ] } },
{ "type": "Feature", "properties": { "内容": "ひだまりデイサービスセンター【地域密着型通所介護】宮崎県宮崎市佐土原町下田島7823番地22", "url": "https://www.kaigokensaku.mhlw.go.jp/45/index.php?action_kouhyou_detail_004_kani=true&JigyosyoCd=4570103343-00&ServiceCd=780&Type=search", "url2": "http://www.meisyo-wa.jp/index.html" }, "geometry": { "type": "Point", "coordinates": [ 131.4656043, 32.0376044 ] } },
{ "type": "Feature", "properties": { "内容": "学園木花デイサービスセンター【地域密着型通所介護】宮崎県宮崎市鏡洲560番地", "url": "https://www.kaigokensaku.mhlw.go.jp/45/index.php?action_kouhyou_detail_004_kani=true&JigyosyoCd=4570100760-00&ServiceCd=780&Type=search", "url2": "http://www.riverside-gk.jp/" }, "geometry": { "type": "Point", "coordinates": [ 131.399279699999965, 31.8263961 ] } },
{ "type": "Feature", "properties": { "内容": "有限会社ケアセンター彩【地域密着型通所介護】宮崎県宮崎市大字糸原2６１１番地３", "url": "https://www.kaigokensaku.mhlw.go.jp/45/index.php?action_kouhyou_detail_004_kani=true&JigyosyoCd=4570103632-00&ServiceCd=780&Type=search", "url2": null }, "geometry": { "type": "Point", "coordinates": [ 131.365612700000042, 31.9563556 ] } },
{ "type": "Feature", "properties": { "内容": "有限会社介護支援ホームれんげ荘【地域密着型通所介護】宮崎県宮崎市大字金崎2537番地1", "url": "https://www.kaigokensaku.mhlw.go.jp/45/index.php?action_kouhyou_detail_004_kani=true&JigyosyoCd=4570102253-00&ServiceCd=780&Type=search", "url2": "so-renge@miyazaki-catv.ne.jp" }, "geometry": { "type": "Point", "coordinates": [ 131.358378799999969, 31.9740927 ] } },
{ "type": "Feature", "properties": { "内容": "デイサービス未来図神宮店【地域密着型通所介護】宮崎市大島町山田ケ窪1926－1", "url": "https://www.kaigokensaku.mhlw.go.jp/45/index.php?action_kouhyou_detail_004_kani=true&JigyosyoCd=4570107856-00&ServiceCd=780&Type=search", "url2": "http://www.me-rise-labo.com/" }, "geometry": { "type": "Point", "coordinates": [ 131.43275494044525, 31.938600072908041 ] } },
{ "type": "Feature", "properties": { "内容": "ほんわかデイサービス楽生【地域密着型通所介護】宮崎県宮崎市月見ケ丘1丁目21-29", "url": "https://www.kaigokensaku.mhlw.go.jp/45/index.php?action_kouhyou_detail_004_kani=true&JigyosyoCd=4570106395-00&ServiceCd=780&Type=search", "url2": null }, "geometry": { "type": "Point", "coordinates": [ 131.420886900000028, 31.8809234 ] } },
{ "type": "Feature", "properties": { "内容": "デイサービスほんごう【地域密着型通所介護】宮崎県宮崎市大字本郷南方4016番地ほんごうマンション１F", "url": "https://www.kaigokensaku.mhlw.go.jp/45/index.php?action_kouhyou_detail_004_kani=true&JigyosyoCd=4570103384-00&ServiceCd=780&Type=search", "url2": "https://www.hongou-miyazaki.com.jp" }, "geometry": { "type": "Point", "coordinates": [ 131.431197699999984, 31.864480300000025 ] } },
{ "type": "Feature", "properties": { "内容": "有限会社デイ・サービス誠心【地域密着型通所介護】宮崎県宮崎市青葉町11番地1", "url": "https://www.kaigokensaku.mhlw.go.jp/45/index.php?action_kouhyou_detail_004_kani=true&JigyosyoCd=4570102568-00&ServiceCd=780&Type=search", "url2": null }, "geometry": { "type": "Point", "coordinates": [ 131.432419322090141, 31.920788716975281 ] } },
{ "type": "Feature", "properties": { "内容": "リハビリデイサービスLocomo【地域密着型通所介護】宮崎県宮崎市恒久953-1", "url": "https://www.kaigokensaku.mhlw.go.jp/45/index.php?action_kouhyou_detail_004_kani=true&JigyosyoCd=4570106569-00&ServiceCd=780&Type=search", "url2": "https://www.locomo-cs.com/" }, "geometry": { "type": "Point", "coordinates": [ 131.426730562565552, 31.880241479133858 ] } },
{ "type": "Feature", "properties": { "内容": "デイサービスなな草【地域密着型通所介護】宮崎県宮崎市大字赤江字飛江田1357-1", "url": "https://www.kaigokensaku.mhlw.go.jp/45/index.php?action_kouhyou_detail_004_kani=true&JigyosyoCd=4570102832-00&ServiceCd=780&Type=search", "url2": "http://www" }, "geometry": { "type": "Point", "coordinates": [ 131.44820408327044, 31.884662678153585 ] } },
{ "type": "Feature", "properties": { "内容": "デイサービスひまわりの杜【地域密着型通所介護】宮崎県宮崎市潮見町50番地１", "url": "https://www.kaigokensaku.mhlw.go.jp/45/index.php?action_kouhyou_detail_004_kani=true&JigyosyoCd=4570102600-00&ServiceCd=780&Type=search", "url2": null }, "geometry": { "type": "Point", "coordinates": [ 131.437889600000062, 31.9060382 ] } },
{ "type": "Feature", "properties": { "内容": "デイサービスせせらぎ【地域密着型通所介護】宮崎県宮崎市田野町甲2019", "url": "https://www.kaigokensaku.mhlw.go.jp/45/index.php?action_kouhyou_detail_004_kani=true&JigyosyoCd=4590100915-00&ServiceCd=780&Type=search", "url2": null }, "geometry": { "type": "Point", "coordinates": [ 131.306940899999972, 31.8348547 ] } },
{ "type": "Feature", "properties": { "内容": "お家deデイサービスリハビリLab小松台【地域密着型通所介護】宮崎市小松台東３丁目２番地２１", "url": "https://www.kaigokensaku.mhlw.go.jp/45/index.php?action_kouhyou_detail_004_kani=true&JigyosyoCd=4590100899-00&ServiceCd=780&Type=search", "url2": "http://www.rehabili-lab.co.jp" }, "geometry": { "type": "Point", "coordinates": [ 131.39434, 31.928273 ] } },
{ "type": "Feature", "properties": { "内容": "トラストデイサービス【地域密着型通所介護】宮崎県宮崎市大王町75−３", "url": "https://www.kaigokensaku.mhlw.go.jp/45/index.php?action_kouhyou_detail_004_kani=true&JigyosyoCd=4590101434-00&ServiceCd=780&Type=search", "url2": "trustdays1551@gmail.com" }, "geometry": { "type": "Point", "coordinates": [ 131.440817086377166, 31.907048800134312 ] } },
{ "type": "Feature", "properties": { "内容": "三ツ星の家　江南【地域密着型通所介護】江南1丁目19-6", "url": "https://www.kaigokensaku.mhlw.go.jp/45/index.php?action_kouhyou_detail_004_kani=true&JigyosyoCd=4590101400-00&ServiceCd=780&Type=search", "url2": "http://vivid-homehelp.com/" }, "geometry": { "type": "Point", "coordinates": [ 131.402434199999988, 31.9062084 ] } },
{ "type": "Feature", "properties": { "内容": "コモン広瀬【地域密着型通所介護】宮崎県宮崎市佐土原町下田島20031-1グレートロック104号", "url": "https://www.kaigokensaku.mhlw.go.jp/45/index.php?action_kouhyou_detail_004_kani=true&JigyosyoCd=4590101087-00&ServiceCd=780&Type=search", "url2": "https://commons-company.jimdofree.com" }, "geometry": { "type": "Point", "coordinates": [ 131.476796400000012, 32.019698 ] } },
{ "type": "Feature", "properties": { "内容": "健康支援ハウス　デイサービスゆう【地域密着型通所介護】宮崎県宮崎市大塚町乱橋4549番地", "url": "https://www.kaigokensaku.mhlw.go.jp/45/index.php?action_kouhyou_detail_004_kani=true&JigyosyoCd=4590101129-00&ServiceCd=780&Type=search", "url2": null }, "geometry": { "type": "Point", "coordinates": [ 131.39289, 31.9067718 ] } },
{ "type": "Feature", "properties": { "内容": "デイサービスひいらぎ【地域密着型通所介護】宮崎県宮崎市高洲町137-7", "url": "https://www.kaigokensaku.mhlw.go.jp/45/index.php?action_kouhyou_detail_004_kani=true&JigyosyoCd=4590101368-00&ServiceCd=780&Type=search", "url2": null }, "geometry": { "type": "Point", "coordinates": [ 131.4459813, 31.9002062 ] } },
{ "type": "Feature", "properties": { "内容": "デイサービスあくた生目店【地域密着型通所介護】宮崎県宮崎市大字跡江字城平1973-1デイサービスあくた生目店", "url": "https://www.kaigokensaku.mhlw.go.jp/45/index.php?action_kouhyou_detail_004_kani=true&JigyosyoCd=4590101228-00&ServiceCd=780&Type=search", "url2": "https://kaihou-g.jp" }, "geometry": { "type": "Point", "coordinates": [ 131.392542099999986, 31.9473739 ] } },
{ "type": "Feature", "properties": { "内容": "コンパスウォーク宮崎恒久【地域密着型通所介護】宮崎県宮崎市恒久5丁目12番地21", "url": "https://www.kaigokensaku.mhlw.go.jp/45/index.php?action_kouhyou_detail_004_kani=true&JigyosyoCd=4590101046-00&ServiceCd=780&Type=search", "url2": "kinoukaifuku.com" }, "geometry": { "type": "Point", "coordinates": [ 131.436060199999986, 31.8906139 ] } },
{ "type": "Feature", "properties": { "内容": "デイサービスセンターみどり【地域密着型通所介護】宮崎県　宮崎市　高岡町　五町　358-2", "url": "https://www.kaigokensaku.mhlw.go.jp/45/index.php?action_kouhyou_detail_004_kani=true&JigyosyoCd=4590100931-00&ServiceCd=780&Type=search", "url2": null }, "geometry": { "type": "Point", "coordinates": [ 131.297490311045095, 31.95615836989716 ] } },
{ "type": "Feature", "properties": { "内容": "デイサービス未来図東大宮店【地域密着型通所介護】宮崎市大島町前田３２３－７", "url": "https://www.kaigokensaku.mhlw.go.jp/45/index.php?action_kouhyou_detail_004_kani=true&JigyosyoCd=4590100907-00&ServiceCd=780&Type=search", "url2": "https://www.me-rise-labo.com/" }, "geometry": { "type": "Point", "coordinates": [ 131.44214263414608, 31.943101369907435 ] } },
{ "type": "Feature", "properties": { "内容": "フィットネス未来図　加納店【地域密着型通所介護】宮崎県宮崎市清武町大字加納甲2677-1", "url": "https://www.kaigokensaku.mhlw.go.jp/45/index.php?action_kouhyou_detail_004_kani=true&JigyosyoCd=4590101152-00&ServiceCd=780&Type=search", "url2": null }, "geometry": { "type": "Point", "coordinates": [ 131.393545499999988, 31.87153 ] } },
{ "type": "Feature", "properties": { "内容": "デイサービスLIFESPACEつづく【地域密着型通所介護】佐土原町上田島1885", "url": "https://www.kaigokensaku.mhlw.go.jp/45/index.php?action_kouhyou_detail_004_kani=true&JigyosyoCd=4590101293-00&ServiceCd=780&Type=search", "url2": null }, "geometry": { "type": "Point", "coordinates": [ 131.434075299999989, 32.0509248 ] } },
{ "type": "Feature", "properties": { "内容": "まちなかデイサービスくじら【地域密着型通所介護】宮崎県宮崎市霧島2丁目125番地住宅型有料老人ホーム霧島", "url": "https://www.kaigokensaku.mhlw.go.jp/45/index.php?action_kouhyou_detail_004_kani=true&JigyosyoCd=4590100998-00&ServiceCd=780&Type=search", "url2": null }, "geometry": { "type": "Point", "coordinates": [ 131.416004929123091, 31.928978465787168 ] } },
{ "type": "Feature", "properties": { "内容": "デイサービスセンターOLDWAYS【地域密着型通所介護】宮崎市吉村町西田甲667番地32デイサービスセンターOLDWAYS", "url": "https://www.kaigokensaku.mhlw.go.jp/45/index.php?action_kouhyou_detail_004_kani=true&JigyosyoCd=4570107542-00&ServiceCd=780&Type=search", "url2": null }, "geometry": { "type": "Point", "coordinates": [ 131.441147399999977, 31.9229416 ] } },
{ "type": "Feature", "properties": { "内容": "ほっとすてーしょん　翼　通所介護事業所【地域密着型通所介護】宮崎県宮崎市大字跡江528番地ハ号BeFine１階", "url": "https://www.kaigokensaku.mhlw.go.jp/45/index.php?action_kouhyou_detail_004_kani=true&JigyosyoCd=4570106767-00&ServiceCd=780&Type=search", "url2": null }, "geometry": { "type": "Point", "coordinates": [ 131.386825074977082, 31.952397574370146 ] } },
{ "type": "Feature", "properties": { "内容": "有限会社デイサービスセンター前田家【地域密着型通所介護】宮崎県宮崎市田野町甲６１７８番地イ号", "url": "https://www.kaigokensaku.mhlw.go.jp/45/index.php?action_kouhyou_detail_004_kani=true&JigyosyoCd=4571500414-00&ServiceCd=780&Type=search", "url2": null }, "geometry": { "type": "Point", "coordinates": [ 131.339302500000031, 31.8405797 ] } },
{ "type": "Feature", "properties": { "内容": "デイサービスセンター竜のおんがえし【地域密着型通所介護】宮崎県宮崎市大字恒久字働馬寄6634番地2", "url": "https://www.kaigokensaku.mhlw.go.jp/45/index.php?action_kouhyou_detail_004_kani=true&JigyosyoCd=4590101202-00&ServiceCd=780&Type=search", "url2": null }, "geometry": { "type": "Point", "coordinates": [ 131.413087, 31.893838 ] } },
{ "type": "Feature", "properties": { "内容": "デイサービスセンター竜のおんがえし赤江店【地域密着型通所介護】宮崎市恒久777番地6", "url": "https://www.kaigokensaku.mhlw.go.jp/45/index.php?action_kouhyou_detail_004_kani=true&JigyosyoCd=4590101467-00&ServiceCd=780&Type=search", "url2": null }, "geometry": { "type": "Point", "coordinates": [ 131.408708600000011, 31.8912351 ] } },
{ "type": "Feature", "properties": { "内容": "デイホーム　なかしま【地域密着型通所介護】生目台東１丁目２２番地２号", "url": "https://www.kaigokensaku.mhlw.go.jp/45/index.php?action_kouhyou_detail_004_kani=true&JigyosyoCd=4570104416-00&ServiceCd=780&Type=search", "url2": "http://nakashima-kaigo.jp/home.html" }, "geometry": { "type": "Point", "coordinates": [ 131.3823793, 31.9043402 ] } },
{ "type": "Feature", "properties": { "内容": "デイサービスセンターFine宮崎【地域密着型通所介護】宮崎県宮崎市大字本郷南方3884-1", "url": "https://www.kaigokensaku.mhlw.go.jp/45/index.php?action_kouhyou_detail_004_kani=true&JigyosyoCd=4590101244-00&ServiceCd=780&Type=search", "url2": "https://fine-miyazaki.jimdofree.com" }, "geometry": { "type": "Point", "coordinates": [ 131.4315219, 31.8698168 ] } },
{ "type": "Feature", "properties": { "内容": "新城デイサービス【地域密着型通所介護】新城町23番3サンジェルマンⅡ1階", "url": "https://www.kaigokensaku.mhlw.go.jp/45/index.php?action_kouhyou_detail_004_kani=true&JigyosyoCd=4590101269-00&ServiceCd=780&Type=search", "url2": null }, "geometry": { "type": "Point", "coordinates": [ 131.4410279, 31.9256662 ] } },
{ "type": "Feature", "properties": { "内容": "デイサービスきらら【地域密着型通所介護】宮崎市高岡町高浜827番地", "url": "https://www.kaigokensaku.mhlw.go.jp/45/index.php?action_kouhyou_detail_004_kani=true&JigyosyoCd=4590101483-00&ServiceCd=780&Type=search", "url2": null }, "geometry": { "type": "Point", "coordinates": [ 131.3011018, 31.9523505 ] } },
{ "type": "Feature", "properties": { "内容": "デイサービス暖家【地域密着型通所介護】宮崎県宮崎市清武町今泉乙2866-2", "url": "https://www.kaigokensaku.mhlw.go.jp/45/index.php?action_kouhyou_detail_004_kani=true&JigyosyoCd=4590101004-00&ServiceCd=780&Type=search", "url2": null }, "geometry": { "type": "Point", "coordinates": [ 131.3744092, 31.8395298 ] } },
{ "type": "Feature", "properties": { "内容": "デイサービス　ひばり【地域密着型通所介護】宮崎県宮崎市清武町今泉甲3674-2", "url": "https://www.kaigokensaku.mhlw.go.jp/45/index.php?action_kouhyou_detail_004_kani=true&JigyosyoCd=4570107633-00&ServiceCd=780&Type=search", "url2": null }, "geometry": { "type": "Point", "coordinates": [ 131.348046100000033, 31.8467263 ] } },
{ "type": "Feature", "properties": { "内容": "民家型デイサービス夢家【地域密着型通所介護】宮崎県宮崎市田野町乙５６４２－１", "url": "https://www.kaigokensaku.mhlw.go.jp/45/index.php?action_kouhyou_detail_004_kani=true&JigyosyoCd=4570105850-00&ServiceCd=780&Type=search", "url2": null }, "geometry": { "type": "Point", "coordinates": [ 131.2752438, 31.8260212 ] } },
{ "type": "Feature", "properties": { "内容": "デイサービス自由ヶ丘【地域密着型通所介護】宮崎市吉村町井手ノ中甲793‐1", "url": "https://www.kaigokensaku.mhlw.go.jp/45/index.php?action_kouhyou_detail_004_kani=true&JigyosyoCd=4590101582-00&ServiceCd=780&Type=search", "url2": null }, "geometry": { "type": "Point", "coordinates": [ 131.4437127, 31.9231649 ] } },
{ "type": "Feature", "properties": { "内容": "巴スクール【地域密着型通所介護】大字恒久寺ノ前５９９６番地１", "url": "https://www.kaigokensaku.mhlw.go.jp/45/index.php?action_kouhyou_detail_004_kani=true&JigyosyoCd=4570107351-00&ServiceCd=780&Type=search", "url2": null }, "geometry": { "type": "Point", "coordinates": [ 131.421933500000023, 31.8907531 ] } },
{ "type": "Feature", "properties": { "内容": "希望ヶ丘リハデイサービス【地域密着型通所介護】宮崎県宮崎市希望ヶ丘3丁目18-1", "url": "https://www.kaigokensaku.mhlw.go.jp/45/index.php?action_kouhyou_detail_004_kani=true&JigyosyoCd=4570108268-00&ServiceCd=780&Type=search", "url2": "https://resocie.com/" }, "geometry": { "type": "Point", "coordinates": [ 131.426221308598315, 31.859966231886784 ] } },
{ "type": "Feature", "properties": { "内容": "江南よしみデイサービスセンター【地域密着型通所介護】宮崎県宮崎市古城町南川内676", "url": "https://www.kaigokensaku.mhlw.go.jp/45/index.php?action_kouhyou_detail_004_kani=true&JigyosyoCd=4570102063-00&ServiceCd=780&Type=search", "url2": "http://www.kounanyoshimi.com/" }, "geometry": { "type": "Point", "coordinates": [ 131.402204799999936, 31.8855941 ] } },
{ "type": "Feature", "properties": { "内容": "デイサービスセンターすけっと【地域密着型通所介護】宮崎県宮崎市吉村町引土甲555-3", "url": "https://www.kaigokensaku.mhlw.go.jp/45/index.php?action_kouhyou_detail_004_kani=true&JigyosyoCd=4590101590-00&ServiceCd=780&Type=search", "url2": "https://www.suketto.biz" }, "geometry": { "type": "Point", "coordinates": [ 131.4408405, 31.923217300000044 ] } },
{ "type": "Feature", "properties": { "内容": "地域密着型デイサービス柚【地域密着型通所介護】宮崎県宮崎市大字芳士894", "url": "https://www.kaigokensaku.mhlw.go.jp/45/index.php?action_kouhyou_detail_004_kani=true&JigyosyoCd=4590101616-00&ServiceCd=780&Type=search", "url2": "https://withcare2025.com/" }, "geometry": { "type": "Point", "coordinates": [ 131.4404347, 31.9680042 ] } },
{ "type": "Feature", "properties": { "内容": "自立支援運動型デイサービスオレンジNEO【地域密着型通所介護】上川東1丁目21号16番地", "url": "https://www.kaigokensaku.mhlw.go.jp/45/index.php?action_kouhyou_detail_004_kani=true&JigyosyoCd=4590200277-00&ServiceCd=780&Type=search", "url2": "orenji.neo@btvm.ne.jp" }, "geometry": { "type": "Point", "coordinates": [ 131.074049699999989, 31.7389109 ] } },
{ "type": "Feature", "properties": { "内容": "コンパスウォーク高城【地域密着型通所介護】宮崎県都城市高城町穂満坊3077-1", "url": "https://www.kaigokensaku.mhlw.go.jp/45/index.php?action_kouhyou_detail_004_kani=true&JigyosyoCd=4590200384-00&ServiceCd=780&Type=search", "url2": null }, "geometry": { "type": "Point", "coordinates": [ 131.1264718, 31.8089097 ] } },
{ "type": "Feature", "properties": { "内容": "にこにこデイサービス【地域密着型通所介護】宮崎県都城市南鷹尾８街区１２の３号にこにこデイサービス", "url": "https://www.kaigokensaku.mhlw.go.jp/45/index.php?action_kouhyou_detail_004_kani=true&JigyosyoCd=4570202103-00&ServiceCd=780&Type=search", "url2": null }, "geometry": { "type": "Point", "coordinates": [ 131.043193312125368, 31.716685701495209 ] } },
{ "type": "Feature", "properties": { "内容": "デイサービスセンターはづき【地域密着型通所介護】宮崎県都城市下長飯町1751番地36", "url": "https://www.kaigokensaku.mhlw.go.jp/45/index.php?action_kouhyou_detail_004_kani=true&JigyosyoCd=4570202228-00&ServiceCd=780&Type=search", "url2": null }, "geometry": { "type": "Point", "coordinates": [ 131.063112969528248, 31.695251932772912 ] } },
{ "type": "Feature", "properties": { "内容": "デイストーリー【地域密着型通所介護】宮崎県都城市吉尾町１９５８番2", "url": "https://www.kaigokensaku.mhlw.go.jp/45/index.php?action_kouhyou_detail_004_kani=true&JigyosyoCd=4590200269-00&ServiceCd=780&Type=search", "url2": null }, "geometry": { "type": "Point", "coordinates": [ 131.075526302997133, 31.758460776242032 ] } },
{ "type": "Feature", "properties": { "内容": "デイサービス和【地域密着型通所介護】宮崎県都城市庄内町12547-1民家", "url": "https://www.kaigokensaku.mhlw.go.jp/45/index.php?action_kouhyou_detail_004_kani=true&JigyosyoCd=4570203481-00&ServiceCd=780&Type=search", "url2": null }, "geometry": { "type": "Point", "coordinates": [ 131.020021300000053, 31.7759589 ] } },
{ "type": "Feature", "properties": { "内容": "デイサービスセンターあさひ【地域密着型通所介護】宮崎県都城市太郎坊町1905-2", "url": "https://www.kaigokensaku.mhlw.go.jp/45/index.php?action_kouhyou_detail_004_kani=true&JigyosyoCd=4570203549-00&ServiceCd=780&Type=search", "url2": "http://asahi.pinoko.jp/index.html" }, "geometry": { "type": "Point", "coordinates": [ 131.093014899999957, 31.779608 ] } },
{ "type": "Feature", "properties": { "内容": "デイサービスセンターくつろぎ【地域密着型通所介護】宮崎県都城市太郎坊町1905-2", "url": "https://www.kaigokensaku.mhlw.go.jp/45/index.php?action_kouhyou_detail_004_kani=true&JigyosyoCd=4590200400-00&ServiceCd=780&Type=search", "url2": null }, "geometry": { "type": "Point", "coordinates": [ 131.0930162, 31.7796001 ] } },
{ "type": "Feature", "properties": { "内容": "デイサービスリオン【地域密着型通所介護】宮崎県都城市鷹尾2丁目3-13リッツハウスTKO1F", "url": "https://www.kaigokensaku.mhlw.go.jp/45/index.php?action_kouhyou_detail_004_kani=true&JigyosyoCd=4570202467-00&ServiceCd=780&Type=search", "url2": null }, "geometry": { "type": "Point", "coordinates": [ 131.043531571128369, 31.721053450248483 ] } },
{ "type": "Feature", "properties": { "内容": "デイサービスＣＡＮ【地域密着型通所介護】宮崎県都城市南横市町1989番地5", "url": "https://www.kaigokensaku.mhlw.go.jp/45/index.php?action_kouhyou_detail_004_kani=true&JigyosyoCd=4570202087-00&ServiceCd=780&Type=search", "url2": null }, "geometry": { "type": "Point", "coordinates": [ 131.026547736537907, 31.742225872450938 ] } },
{ "type": "Feature", "properties": { "内容": "デイサービス庄内の杜【地域密着型通所介護】宮崎県都城市庄内町8610番地", "url": "https://www.kaigokensaku.mhlw.go.jp/45/index.php?action_kouhyou_detail_004_kani=true&JigyosyoCd=4590200244-00&ServiceCd=780&Type=search", "url2": null }, "geometry": { "type": "Point", "coordinates": [ 131.020978526319794, 31.769560275084601 ] } },
{ "type": "Feature", "properties": { "内容": "デイサービスセンター円卓【地域密着型通所介護】宮崎県都城市野々美谷町3505-3", "url": "https://www.kaigokensaku.mhlw.go.jp/45/index.php?action_kouhyou_detail_004_kani=true&JigyosyoCd=4570203085-00&ServiceCd=780&Type=search", "url2": null }, "geometry": { "type": "Point", "coordinates": [ 131.087230775463127, 31.796479020323439 ] } },
{ "type": "Feature", "properties": { "内容": "デイサービス　ゆきひら【地域密着型通所介護】宮崎県都城市北原町12-14", "url": "https://www.kaigokensaku.mhlw.go.jp/45/index.php?action_kouhyou_detail_004_kani=true&JigyosyoCd=4570204612-00&ServiceCd=780&Type=search", "url2": null }, "geometry": { "type": "Point", "coordinates": [ 131.0761554, 31.7329347 ] } },
{ "type": "Feature", "properties": { "内容": "ナーシングデイ志比田【地域密着型通所介護】宮崎県都城市志比田町5264-5", "url": "https://www.kaigokensaku.mhlw.go.jp/45/index.php?action_kouhyou_detail_004_kani=true&JigyosyoCd=4570203077-00&ServiceCd=780&Type=search", "url2": "https://slow-life-corp.jimdosite.com/" }, "geometry": { "type": "Point", "coordinates": [ 131.056876914819327, 31.738759388120503 ] } },
{ "type": "Feature", "properties": { "内容": "デイサービスリオン　安久事業所【地域密着型通所介護】宮崎県都城市安久町4657番地4", "url": "https://www.kaigokensaku.mhlw.go.jp/45/index.php?action_kouhyou_detail_004_kani=true&JigyosyoCd=4570202632-00&ServiceCd=780&Type=search", "url2": null }, "geometry": { "type": "Point", "coordinates": [ 131.0856827, 31.6845081 ] } },
{ "type": "Feature", "properties": { "内容": "デイサービス　あい【地域密着型通所介護】宮崎県都城市早水町２５号９番1", "url": "https://www.kaigokensaku.mhlw.go.jp/45/index.php?action_kouhyou_detail_004_kani=true&JigyosyoCd=4570203440-00&ServiceCd=780&Type=search", "url2": null }, "geometry": { "type": "Point", "coordinates": [ 131.09720219999997, 31.73434 ] } },
{ "type": "Feature", "properties": { "内容": "さくら咲くデイサービスセンター【地域密着型通所介護】宮崎県都城市高城町桜木８５７番地3", "url": "https://www.kaigokensaku.mhlw.go.jp/45/index.php?action_kouhyou_detail_004_kani=true&JigyosyoCd=4570202814-00&ServiceCd=780&Type=search", "url2": null }, "geometry": { "type": "Point", "coordinates": [ 131.121037900000033, 31.7905384 ] } },
{ "type": "Feature", "properties": { "内容": "デイサービス　サルビア【地域密着型通所介護】宮崎県都城市太郎坊町２００１番地１", "url": "https://www.kaigokensaku.mhlw.go.jp/45/index.php?action_kouhyou_detail_004_kani=true&JigyosyoCd=4570203259-00&ServiceCd=780&Type=search", "url2": null }, "geometry": { "type": "Point", "coordinates": [ 131.0921846, 31.7736752 ] } },
{ "type": "Feature", "properties": { "内容": "ライフデイサービス丸谷【地域密着型通所介護】宮崎県都城市丸谷町６５３－２", "url": "https://www.kaigokensaku.mhlw.go.jp/45/index.php?action_kouhyou_detail_004_kani=true&JigyosyoCd=4570204661-00&ServiceCd=780&Type=search", "url2": null }, "geometry": { "type": "Point", "coordinates": [ 131.0584759, 31.8056291 ] } },
{ "type": "Feature", "properties": { "内容": "デイサービス　暖かい風【地域密着型通所介護】宮崎県都城市年見町　17-4-3", "url": "https://www.kaigokensaku.mhlw.go.jp/45/index.php?action_kouhyou_detail_004_kani=true&JigyosyoCd=4570203309-00&ServiceCd=780&Type=search", "url2": null }, "geometry": { "type": "Point", "coordinates": [ 131.086214, 31.7323232 ] } },
{ "type": "Feature", "properties": { "内容": "デイサービス　ひなたば【地域密着型通所介護】宮崎県都城市高崎町大牟田1999-22デイサービスひなたば", "url": "https://www.kaigokensaku.mhlw.go.jp/45/index.php?action_kouhyou_detail_004_kani=true&JigyosyoCd=4570203580-00&ServiceCd=780&Type=search", "url2": null }, "geometry": { "type": "Point", "coordinates": [ 131.075280209262019, 31.864803375298138 ] } },
{ "type": "Feature", "properties": { "内容": "デイサービスセンター絆愛【地域密着型通所介護】宮崎県都城市鷹尾３丁目１２街区２２号", "url": "https://www.kaigokensaku.mhlw.go.jp/45/index.php?action_kouhyou_detail_004_kani=true&JigyosyoCd=4570203846-00&ServiceCd=780&Type=search", "url2": null }, "geometry": { "type": "Point", "coordinates": [ 131.04324861599116, 31.723067929561381 ] } },
{ "type": "Feature", "properties": { "内容": "デイサービス雄大【地域密着型通所介護】宮崎県都城市志比田町4816番地1", "url": "https://www.kaigokensaku.mhlw.go.jp/45/index.php?action_kouhyou_detail_004_kani=true&JigyosyoCd=4570203721-00&ServiceCd=780&Type=search", "url2": null }, "geometry": { "type": "Point", "coordinates": [ 131.0567767, 31.7563757 ] } },
{ "type": "Feature", "properties": { "内容": "デイサービスセンター福さんの家【地域密着型通所介護】宮崎県都城市郡元町3310番地1", "url": "https://www.kaigokensaku.mhlw.go.jp/45/index.php?action_kouhyou_detail_004_kani=true&JigyosyoCd=4570203937-00&ServiceCd=780&Type=search", "url2": "http://www.maria-f.jp" }, "geometry": { "type": "Point", "coordinates": [ 131.0895941, 31.7406864 ] } },
{ "type": "Feature", "properties": { "内容": "霧島荘デイサービスセンター【地域密着型通所介護】宮崎県都城市山之口町花木２３０２－１", "url": "https://www.kaigokensaku.mhlw.go.jp/45/index.php?action_kouhyou_detail_004_kani=true&JigyosyoCd=4570201824-00&ServiceCd=780&Type=search", "url2": "http://www.m-sj.or.jp/kirishima/" }, "geometry": { "type": "Point", "coordinates": [ 131.155573900000036, 31.786178800000016 ] } },
{ "type": "Feature", "properties": { "内容": "デイサービスセンターわかば【地域密着型通所介護】宮崎県都城市上長飯町2683番地３", "url": "https://www.kaigokensaku.mhlw.go.jp/45/index.php?action_kouhyou_detail_004_kani=true&JigyosyoCd=4570201477-00&ServiceCd=780&Type=search", "url2": "http://www.oyd-welfare.jp" }, "geometry": { "type": "Point", "coordinates": [ 131.087446314680506, 31.715947923200943 ] } },
{ "type": "Feature", "properties": { "内容": "デイサービス　ひなた【地域密着型通所介護】志比田町４５３６番地", "url": "https://www.kaigokensaku.mhlw.go.jp/45/index.php?action_kouhyou_detail_004_kani=true&JigyosyoCd=4570203648-00&ServiceCd=780&Type=search", "url2": "http://www.hidamarinosato.net/" }, "geometry": { "type": "Point", "coordinates": [ 131.052071699999942, 31.7414602 ] } },
{ "type": "Feature", "properties": { "内容": "デイサービスセンター絆【地域密着型通所介護】宮崎県都城市平塚町９９６４番地５", "url": "https://www.kaigokensaku.mhlw.go.jp/45/index.php?action_kouhyou_detail_004_kani=true&JigyosyoCd=4570201865-00&ServiceCd=780&Type=search", "url2": null }, "geometry": { "type": "Point", "coordinates": [ 131.021481499999936, 31.7157262 ] } },
{ "type": "Feature", "properties": { "内容": "デイサービスセンターわらいの村【地域密着型通所介護】宮崎県都城市豊満町1440番地1", "url": "https://www.kaigokensaku.mhlw.go.jp/45/index.php?action_kouhyou_detail_004_kani=true&JigyosyoCd=4570203531-00&ServiceCd=780&Type=search", "url2": "https://www.warainomura.com/" }, "geometry": { "type": "Point", "coordinates": [ 131.101717336770662, 31.696903840589968 ] } },
{ "type": "Feature", "properties": { "内容": "デイサービス　かなで【地域密着型通所介護】宮崎県都城市太郎坊町2065番地2", "url": "https://www.kaigokensaku.mhlw.go.jp/45/index.php?action_kouhyou_detail_004_kani=true&JigyosyoCd=4590200376-00&ServiceCd=780&Type=search", "url2": "bloominglabinc.0901@gmail.com" }, "geometry": { "type": "Point", "coordinates": [ 131.0955162, 31.7816461 ] } },
{ "type": "Feature", "properties": { "内容": "ライフデイサービス　香禅寺【地域密着型通所介護】宮崎県都城市高城町石山3236番地13", "url": "https://www.kaigokensaku.mhlw.go.jp/45/index.php?action_kouhyou_detail_004_kani=true&JigyosyoCd=4590200301-00&ServiceCd=780&Type=search", "url2": null }, "geometry": { "type": "Point", "coordinates": [ 131.1290583, 31.842801 ] } },
{ "type": "Feature", "properties": { "内容": "くつろぎ【地域密着型通所介護】宮崎県都城市立野町3655-2", "url": "https://www.kaigokensaku.mhlw.go.jp/45/index.php?action_kouhyou_detail_004_kani=true&JigyosyoCd=4571700675-00&ServiceCd=780&Type=search", "url2": "http://www.fukushitateno.jp" }, "geometry": { "type": "Point", "coordinates": [ 131.103617488360555, 31.729484547700224 ] } },
{ "type": "Feature", "properties": { "内容": "デイサービスホーム　ゆいまある【地域密着型通所介護】一万城町１０６号11番1", "url": "https://www.kaigokensaku.mhlw.go.jp/45/index.php?action_kouhyou_detail_004_kani=true&JigyosyoCd=4590200319-00&ServiceCd=780&Type=search", "url2": null }, "geometry": { "type": "Point", "coordinates": [ 131.094319700000028, 31.7188052 ] } },
{ "type": "Feature", "properties": { "内容": "リハビリデイサービス希望【地域密着型通所介護】宮崎県都城市一万城町27-19", "url": "https://www.kaigokensaku.mhlw.go.jp/45/index.php?action_kouhyou_detail_004_kani=true&JigyosyoCd=4590200285-00&ServiceCd=780&Type=search", "url2": "https://day.riha-kibou.com/" }, "geometry": { "type": "Point", "coordinates": [ 131.092663600000037, 31.7208984 ] } },
{ "type": "Feature", "properties": { "内容": "星空の都デイサービスセンターかみながえ【地域密着型通所介護】上長飯町５１１１番地", "url": "https://www.kaigokensaku.mhlw.go.jp/45/index.php?action_kouhyou_detail_004_kani=true&JigyosyoCd=4590200186-00&ServiceCd=780&Type=search", "url2": "http://www.joryokukai.com/" }, "geometry": { "type": "Point", "coordinates": [ 131.095295784130826, 31.716376389804594 ] } },
{ "type": "Feature", "properties": { "内容": "ステラ☆リハステーション【地域密着型通所介護】宮崎県都城市早水町4503-142", "url": "https://www.kaigokensaku.mhlw.go.jp/45/index.php?action_kouhyou_detail_004_kani=true&JigyosyoCd=4590200202-00&ServiceCd=780&Type=search", "url2": null }, "geometry": { "type": "Point", "coordinates": [ 131.090785800000049, 31.7376867 ] } },
{ "type": "Feature", "properties": { "内容": "星空の都デイサービスセンターなかごう【地域密着型通所介護】宮崎県都城市豊満町2647", "url": "https://www.kaigokensaku.mhlw.go.jp/45/index.php?action_kouhyou_detail_004_kani=true&JigyosyoCd=4570200370-00&ServiceCd=780&Type=search", "url2": "https://nakago.fujimoto.com/" }, "geometry": { "type": "Point", "coordinates": [ 131.094853400000034, 31.7009318 ] } },
{ "type": "Feature", "properties": { "内容": "デイサービスあおい羽根【地域密着型通所介護】宮崎県都城市横市町77-2", "url": "https://www.kaigokensaku.mhlw.go.jp/45/index.php?action_kouhyou_detail_004_kani=true&JigyosyoCd=4570202756-00&ServiceCd=780&Type=search", "url2": null }, "geometry": { "type": "Point", "coordinates": [ 131.026368899999966, 31.749803199999988 ] } },
{ "type": "Feature", "properties": { "内容": "竹ん子【地域密着型通所介護】宮崎県都城市乙房町3772番地", "url": "https://www.kaigokensaku.mhlw.go.jp/45/index.php?action_kouhyou_detail_004_kani=true&JigyosyoCd=4570202830-00&ServiceCd=780&Type=search", "url2": null }, "geometry": { "type": "Point", "coordinates": [ 131.0336591, 31.7678991 ] } },
{ "type": "Feature", "properties": { "内容": "デイサービス　リハ処　匠【地域密着型通所介護】宮崎県都城市吉尾町6215番地", "url": "https://www.kaigokensaku.mhlw.go.jp/45/index.php?action_kouhyou_detail_004_kani=true&JigyosyoCd=4570203200-00&ServiceCd=780&Type=search", "url2": "http://kotohira.miyakonojo.com/" }, "geometry": { "type": "Point", "coordinates": [ 131.083979020237706, 31.758723932714354 ] } },
{ "type": "Feature", "properties": { "内容": "デイサービスすずらん【地域密着型通所介護】宮崎県都城市下川東4丁目2-2-1", "url": "https://www.kaigokensaku.mhlw.go.jp/45/index.php?action_kouhyou_detail_004_kani=true&JigyosyoCd=4570203820-00&ServiceCd=780&Type=search", "url2": null }, "geometry": { "type": "Point", "coordinates": [ 131.067284781614774, 31.74694121461452 ] } },
{ "type": "Feature", "properties": { "内容": "リハビリ特化型デイサービス　enjoylife【地域密着型通所介護】宮崎県都城市都原町7614-8", "url": "https://www.kaigokensaku.mhlw.go.jp/45/index.php?action_kouhyou_detail_004_kani=true&JigyosyoCd=4590200350-00&ServiceCd=780&Type=search", "url2": null }, "geometry": { "type": "Point", "coordinates": [ 131.0396982, 31.737938 ] } },
{ "type": "Feature", "properties": { "内容": "デイサービスこよみ【地域密着型通所介護】梅北町11829番地", "url": "https://www.kaigokensaku.mhlw.go.jp/45/index.php?action_kouhyou_detail_004_kani=true&JigyosyoCd=4570203135-00&ServiceCd=780&Type=search", "url2": null }, "geometry": { "type": "Point", "coordinates": [ 131.0588139, 31.6735831 ] } },
{ "type": "Feature", "properties": { "内容": "デイサービスセンター・クレア【地域密着型通所介護】宮崎県都城市平江町7街区2号", "url": "https://www.kaigokensaku.mhlw.go.jp/45/index.php?action_kouhyou_detail_004_kani=true&JigyosyoCd=4570202590-00&ServiceCd=780&Type=search", "url2": null }, "geometry": { "type": "Point", "coordinates": [ 131.065945029258728, 31.733970744279041 ] } },
{ "type": "Feature", "properties": { "内容": "リハビリデイサービス暮らシャキッ2号館【地域密着型通所介護】宮崎県都城市上水流町1182番地8-1棟", "url": "https://www.kaigokensaku.mhlw.go.jp/45/index.php?action_kouhyou_detail_004_kani=true&JigyosyoCd=4590200343-00&ServiceCd=780&Type=search", "url2": null }, "geometry": { "type": "Point", "coordinates": [ 131.0986009, 31.8084692 ] } },
{ "type": "Feature", "properties": { "内容": "通所介護事業所ふくふく【地域密着型通所介護】宮崎県都城市大岩田町５３２０番地", "url": "https://www.kaigokensaku.mhlw.go.jp/45/index.php?action_kouhyou_detail_004_kani=true&JigyosyoCd=4570203861-00&ServiceCd=780&Type=search", "url2": null }, "geometry": { "type": "Point", "coordinates": [ 131.050997700000039, 31.7080439 ] } },
{ "type": "Feature", "properties": { "内容": "特別養護老人ホーム長遊園２号館デイサービス【地域密着型通所介護】宮崎県都城市高野町2900番地", "url": "https://www.kaigokensaku.mhlw.go.jp/45/index.php?action_kouhyou_detail_004_kani=true&JigyosyoCd=4590200129-00&ServiceCd=780&Type=search", "url2": "https://kanjikai.or.jp" }, "geometry": { "type": "Point", "coordinates": [ 130.9572123, 31.8110923 ] } },
{ "type": "Feature", "properties": { "内容": "いきいきわくわく健康増進クラブ【地域密着型通所介護】宮崎県都城市志比田町４９３０番地３", "url": "https://www.kaigokensaku.mhlw.go.jp/45/index.php?action_kouhyou_detail_004_kani=true&JigyosyoCd=4570202509-00&ServiceCd=780&Type=search", "url2": null }, "geometry": { "type": "Point", "coordinates": [ 131.0513135, 31.7340192 ] } },
{ "type": "Feature", "properties": { "内容": "デイサービス　すずの音【地域密着型通所介護】宮崎県都城市都原町24番地8", "url": "https://www.kaigokensaku.mhlw.go.jp/45/index.php?action_kouhyou_detail_004_kani=true&JigyosyoCd=4570203556-00&ServiceCd=780&Type=search", "url2": null }, "geometry": { "type": "Point", "coordinates": [ 131.039525899999944, 31.7383518 ] } },
{ "type": "Feature", "properties": { "内容": "デイサービスセンターきぼう【地域密着型通所介護】宮崎県都城市山田町中霧島３９４０番地１", "url": "https://www.kaigokensaku.mhlw.go.jp/45/index.php?action_kouhyou_detail_004_kani=true&JigyosyoCd=4590200160-00&ServiceCd=780&Type=search", "url2": null }, "geometry": { "type": "Point", "coordinates": [ 131.028484, 31.7945721 ] } },
{ "type": "Feature", "properties": { "内容": "デイサービスわんわん【地域密着型通所介護】宮崎県都城市北原町１２－１４", "url": "https://www.kaigokensaku.mhlw.go.jp/45/index.php?action_kouhyou_detail_004_kani=true&JigyosyoCd=4590200426-00&ServiceCd=780&Type=search", "url2": null }, "geometry": { "type": "Point", "coordinates": [ 131.076131699999962, 31.732937 ] } },
{ "type": "Feature", "properties": { "内容": "リハケアセンター上長飯【地域密着型通所介護】都城市上長飯町３８号１番地", "url": "https://www.kaigokensaku.mhlw.go.jp/45/index.php?action_kouhyou_detail_004_kani=true&JigyosyoCd=4570202491-00&ServiceCd=780&Type=search", "url2": "http://rehacare-will.jp" }, "geometry": { "type": "Point", "coordinates": [ 131.089867876057497, 31.718288703029888 ] } },
{ "type": "Feature", "properties": { "内容": "デイサービスげんき【地域密着型通所介護】宮崎県延岡市旭ヶ丘５丁目１番８号", "url": "https://www.kaigokensaku.mhlw.go.jp/45/index.php?action_kouhyou_detail_004_kani=true&JigyosyoCd=4570302317-00&ServiceCd=780&Type=search", "url2": null }, "geometry": { "type": "Point", "coordinates": [ 131.6801036, 32.5300561 ] } },
{ "type": "Feature", "properties": { "内容": "鶴ヶ丘デイサービスセンター【地域密着型通所介護】宮崎県延岡市鶴ヶ丘１丁目１９８８番地３１", "url": "https://www.kaigokensaku.mhlw.go.jp/45/index.php?action_kouhyou_detail_004_kani=true&JigyosyoCd=4570301269-00&ServiceCd=780&Type=search", "url2": null }, "geometry": { "type": "Point", "coordinates": [ 131.672873900000013, 32.5460944 ] } },
{ "type": "Feature", "properties": { "内容": "デイサービス　すこやか【地域密着型通所介護】宮崎県延岡市博労町3-4", "url": "https://www.kaigokensaku.mhlw.go.jp/45/index.php?action_kouhyou_detail_004_kani=true&JigyosyoCd=4570301756-00&ServiceCd=780&Type=search", "url2": "http://yuryukai.or.jp/" }, "geometry": { "type": "Point", "coordinates": [ 131.6698116, 32.5863222 ] } },
{ "type": "Feature", "properties": { "内容": "デイサービスセンター　おはな【地域密着型通所介護】片田町３１３９番地７", "url": "https://www.kaigokensaku.mhlw.go.jp/45/index.php?action_kouhyou_detail_004_kani=true&JigyosyoCd=4570301905-00&ServiceCd=780&Type=search", "url2": null }, "geometry": { "type": "Point", "coordinates": [ 131.659661699999987, 32.5478087 ] } },
{ "type": "Feature", "properties": { "内容": "デイサービス　なつだ【地域密着型通所介護】夏田町450番地1", "url": "https://www.kaigokensaku.mhlw.go.jp/45/index.php?action_kouhyou_detail_004_kani=true&JigyosyoCd=4570302259-00&ServiceCd=780&Type=search", "url2": "http://yuryukai.jp/" }, "geometry": { "type": "Point", "coordinates": [ 131.671828685844389, 32.608586266886363 ] } },
{ "type": "Feature", "properties": { "内容": "いきいきデイサービス茶屋【地域密着型通所介護】宮崎県延岡市北一ヶ岡４丁目１０番４号", "url": "https://www.kaigokensaku.mhlw.go.jp/45/index.php?action_kouhyou_detail_004_kani=true&JigyosyoCd=4570302093-00&ServiceCd=780&Type=search", "url2": null }, "geometry": { "type": "Point", "coordinates": [ 131.677666499999987, 32.5243782 ] } },
{ "type": "Feature", "properties": { "内容": "ナチュラルテラスネクスト【地域密着型通所介護】宮崎県延岡市伊形町４７４２番地３", "url": "https://www.kaigokensaku.mhlw.go.jp/45/index.php?action_kouhyou_detail_004_kani=true&JigyosyoCd=4590300358-00&ServiceCd=780&Type=search", "url2": null }, "geometry": { "type": "Point", "coordinates": [ 131.670362399999988, 32.5300078 ] } },
{ "type": "Feature", "properties": { "内容": "デイサービスセンターたたらの郷【地域密着型通所介護】宮崎県延岡市岡富町８１番地", "url": "https://www.kaigokensaku.mhlw.go.jp/45/index.php?action_kouhyou_detail_004_kani=true&JigyosyoCd=4590300499-00&ServiceCd=780&Type=search", "url2": "https://www.adoniskaigo.com/" }, "geometry": { "type": "Point", "coordinates": [ 131.6586598, 32.590332799999977 ] } },
{ "type": "Feature", "properties": { "内容": "恒富東デイサービスセンター【地域密着型通所介護】宮崎県延岡市長浜町１丁目１７６５番地１", "url": "https://www.kaigokensaku.mhlw.go.jp/45/index.php?action_kouhyou_detail_004_kani=true&JigyosyoCd=4570300477-00&ServiceCd=780&Type=search", "url2": "shinryuukai.or.jp" }, "geometry": { "type": "Point", "coordinates": [ 131.691319300000032, 32.5758602 ] } },
{ "type": "Feature", "properties": { "内容": "真南風【地域密着型通所介護】宮崎県延岡市北川町川内名７０５５番地１", "url": "https://www.kaigokensaku.mhlw.go.jp/45/index.php?action_kouhyou_detail_004_kani=true&JigyosyoCd=4590300473-00&ServiceCd=780&Type=search", "url2": null }, "geometry": { "type": "Point", "coordinates": [ 131.694225242327917, 32.686953791011952 ] } },
{ "type": "Feature", "properties": { "内容": "自立支援歩行クラブ　ワンウォーク【地域密着型通所介護】宮崎県延岡市伊形町5216-13", "url": "https://www.kaigokensaku.mhlw.go.jp/45/index.php?action_kouhyou_detail_004_kani=true&JigyosyoCd=4590300507-00&ServiceCd=780&Type=search", "url2": "https://onewalk-ds.com" }, "geometry": { "type": "Point", "coordinates": [ 131.6749792, 32.5311093 ] } },
{ "type": "Feature", "properties": { "内容": "湧く沸くデイサービス【地域密着型通所介護】宮崎県延岡市中ノ瀬1丁目5935番地1", "url": "https://www.kaigokensaku.mhlw.go.jp/45/index.php?action_kouhyou_detail_004_kani=true&JigyosyoCd=4570301749-00&ServiceCd=780&Type=search", "url2": null }, "geometry": { "type": "Point", "coordinates": [ 131.679091314527113, 32.598106190197782 ] } },
{ "type": "Feature", "properties": { "内容": "デイ・イキル【地域密着型通所介護】宮崎県延岡市北川町川内名７０５５番地１３", "url": "https://www.kaigokensaku.mhlw.go.jp/45/index.php?action_kouhyou_detail_004_kani=true&JigyosyoCd=4570302481-00&ServiceCd=780&Type=search", "url2": null }, "geometry": { "type": "Point", "coordinates": [ 131.693883300000039, 32.686416600000015 ] } },
{ "type": "Feature", "properties": { "内容": "デイサービスくりの樹【地域密着型通所介護】恒富町三丁目5-6", "url": "https://www.kaigokensaku.mhlw.go.jp/45/index.php?action_kouhyou_detail_004_kani=true&JigyosyoCd=4590300366-00&ServiceCd=780&Type=search", "url2": "http://www.kurinoki.co.jp" }, "geometry": { "type": "Point", "coordinates": [ 131.662490042922201, 32.568342587089546 ] } },
{ "type": "Feature", "properties": { "内容": "さくらんぼデイサービスセンター【地域密着型通所介護】宮崎県延岡市夏田町418-1", "url": "https://www.kaigokensaku.mhlw.go.jp/45/index.php?action_kouhyou_detail_004_kani=true&JigyosyoCd=4570300436-00&ServiceCd=780&Type=search", "url2": null }, "geometry": { "type": "Point", "coordinates": [ 131.6720186, 32.6076125 ] } },
{ "type": "Feature", "properties": { "内容": "デイサービス　エクセル【地域密着型通所介護】宮崎県延岡市大貫町1丁目2850番地1", "url": "https://www.kaigokensaku.mhlw.go.jp/45/index.php?action_kouhyou_detail_004_kani=true&JigyosyoCd=4570301863-00&ServiceCd=780&Type=search", "url2": "http://www.excel-life.jp/" }, "geometry": { "type": "Point", "coordinates": [ 131.655274, 32.5796358 ] } },
{ "type": "Feature", "properties": { "内容": "生協クリニックのべおか　ディサービスそれいゆ【地域密着型通所介護】宮崎県延岡市浜砂1丁目5-17", "url": "https://www.kaigokensaku.mhlw.go.jp/45/index.php?action_kouhyou_detail_004_kani=true&JigyosyoCd=4570301467-00&ServiceCd=780&Type=search", "url2": "https://www.miyazaki-iryou.coop/" }, "geometry": { "type": "Point", "coordinates": [ 131.680764100000033, 32.5799316 ] } },
{ "type": "Feature", "properties": { "内容": "あおぞらデイサービスセンター【地域密着型通所介護】宮崎県延岡市旭ヶ丘6丁目2-1", "url": "https://www.kaigokensaku.mhlw.go.jp/45/index.php?action_kouhyou_detail_004_kani=true&JigyosyoCd=4570301855-00&ServiceCd=780&Type=search", "url2": "http://www.rakino812.com/" }, "geometry": { "type": "Point", "coordinates": [ 131.680371700000023, 32.5286557 ] } },
{ "type": "Feature", "properties": { "内容": "島浦デイサービスセンター【地域密着型通所介護】宮崎県延岡市島浦町４６８番地68", "url": "https://www.kaigokensaku.mhlw.go.jp/45/index.php?action_kouhyou_detail_004_kani=true&JigyosyoCd=4570300444-00&ServiceCd=780&Type=search", "url2": "https://www.senjuen.jp/" }, "geometry": { "type": "Point", "coordinates": [ 131.808807900000033, 32.6659861 ] } },
{ "type": "Feature", "properties": { "内容": "つわぶきの家【地域密着型通所介護】宮崎県延岡市石田町４１７４番地２", "url": "https://www.kaigokensaku.mhlw.go.jp/45/index.php?action_kouhyou_detail_004_kani=true&JigyosyoCd=4570301343-00&ServiceCd=780&Type=search", "url2": "https://www.big-advance.site/c/184/1692" }, "geometry": { "type": "Point", "coordinates": [ 131.662648200000035, 32.5365045 ] } },
{ "type": "Feature", "properties": { "内容": "デイサービスよりみち【地域密着型通所介護】宮崎県延岡市古川町58－8", "url": "https://www.kaigokensaku.mhlw.go.jp/45/index.php?action_kouhyou_detail_004_kani=true&JigyosyoCd=4570300790-00&ServiceCd=780&Type=search", "url2": null }, "geometry": { "type": "Point", "coordinates": [ 131.643974599999979, 32.5868434 ] } },
{ "type": "Feature", "properties": { "内容": "あらひらデイサービス【地域密着型通所介護】宮崎県延岡市川島町899番地12", "url": "https://www.kaigokensaku.mhlw.go.jp/45/index.php?action_kouhyou_detail_004_kani=true&JigyosyoCd=4570302135-00&ServiceCd=780&Type=search", "url2": null }, "geometry": { "type": "Point", "coordinates": [ 131.701143699999989, 32.619832 ] } },
{ "type": "Feature", "properties": { "内容": "デイサービスナラティブ【地域密着型通所介護】宮崎県延岡市大貫町5丁目2082デイサービスナラティブ", "url": "https://www.kaigokensaku.mhlw.go.jp/45/index.php?action_kouhyou_detail_004_kani=true&JigyosyoCd=4570302309-00&ServiceCd=780&Type=search", "url2": "http://narrative-nbok.jp/" }, "geometry": { "type": "Point", "coordinates": [ 131.649051672074847, 32.572211834337203 ] } },
{ "type": "Feature", "properties": { "内容": "リハ健康の森【地域密着型通所介護】宮崎県延岡市稲葉崎町１－２５７１－１", "url": "https://www.kaigokensaku.mhlw.go.jp/45/index.php?action_kouhyou_detail_004_kani=true&JigyosyoCd=4590300416-00&ServiceCd=780&Type=search", "url2": null }, "geometry": { "type": "Point", "coordinates": [ 131.6789284, 32.6086495 ] } },
{ "type": "Feature", "properties": { "内容": "デイサービス　ポテトの家【地域密着型通所介護】緑ヶ丘４丁目５－２３", "url": "https://www.kaigokensaku.mhlw.go.jp/45/index.php?action_kouhyou_detail_004_kani=true&JigyosyoCd=4590300465-00&ServiceCd=780&Type=search", "url2": null }, "geometry": { "type": "Point", "coordinates": [ 141.1417142, 39.7367594 ] } },
{ "type": "Feature", "properties": { "内容": "社会福祉法人千寿会北浦町デイサービスセンター【地域密着型通所介護】宮崎県延岡市北浦町古江２６９３番地", "url": "https://www.kaigokensaku.mhlw.go.jp/45/index.php?action_kouhyou_detail_004_kani=true&JigyosyoCd=4572100438-00&ServiceCd=780&Type=search", "url2": null }, "geometry": { "type": "Point", "coordinates": [ 131.816592200000059, 32.7092214 ] } },
{ "type": "Feature", "properties": { "内容": "デイサービス　青葉ずく【地域密着型通所介護】宮崎県延岡市平原町3丁目1233-7", "url": "https://www.kaigokensaku.mhlw.go.jp/45/index.php?action_kouhyou_detail_004_kani=true&JigyosyoCd=4590300390-00&ServiceCd=780&Type=search", "url2": null }, "geometry": { "type": "Point", "coordinates": [ 131.6743428, 32.5496053 ] } },
{ "type": "Feature", "properties": { "内容": "ふくろうデイサービス【地域密着型通所介護】宮崎県延岡市別府町4421番地", "url": "https://www.kaigokensaku.mhlw.go.jp/45/index.php?action_kouhyou_detail_004_kani=true&JigyosyoCd=4590300333-00&ServiceCd=780&Type=search", "url2": "http://www.haradagr-dp.co.jp/" }, "geometry": { "type": "Point", "coordinates": [ 131.6822182, 32.5662602 ] } },
{ "type": "Feature", "properties": { "内容": "医療法人　明石会　デイサービス　ひなた【地域密着型通所介護】宮崎県延岡市古川町260番地1", "url": "https://www.kaigokensaku.mhlw.go.jp/45/index.php?action_kouhyou_detail_004_kani=true&JigyosyoCd=4590300424-00&ServiceCd=780&Type=search", "url2": null }, "geometry": { "type": "Point", "coordinates": [ 131.649836099999987, 32.587815 ] } },
{ "type": "Feature", "properties": { "内容": "社会福祉法人愛育福祉会　地域密着型通所介護事業所　いこい【地域密着型通所介護】宮崎県延岡市大武町4615-2", "url": "https://www.kaigokensaku.mhlw.go.jp/45/index.php?action_kouhyou_detail_004_kani=true&JigyosyoCd=4590300341-00&ServiceCd=780&Type=search", "url2": "http://www.aiiku.in/yawaraginosato.html" }, "geometry": { "type": "Point", "coordinates": [ 131.68822873187716, 32.598298332340526 ] } },
{ "type": "Feature", "properties": { "内容": "デイサービスなつだ【地域密着型通所介護】宮崎県延岡市夏田町450番地1", "url": "https://www.kaigokensaku.mhlw.go.jp/45/index.php?action_kouhyou_detail_004_kani=true&JigyosyoCd=4590300515-00&ServiceCd=780&Type=search", "url2": "http://shinga.or.jp" }, "geometry": { "type": "Point", "coordinates": [ 131.6716793, 32.6086444 ] } },
{ "type": "Feature", "properties": { "内容": "デイサービス暖の家【地域密着型通所介護】宮崎県延岡市北一ヶ岡2丁目8-8", "url": "https://www.kaigokensaku.mhlw.go.jp/45/index.php?action_kouhyou_detail_004_kani=true&JigyosyoCd=4590300325-00&ServiceCd=780&Type=search", "url2": null }, "geometry": { "type": "Point", "coordinates": [ 131.676777098919644, 32.526047115785474 ] } },
{ "type": "Feature", "properties": { "内容": "CARE　SPIRIT　けあすぴ【地域密着型通所介護】幸町1丁目58番地中村マンション1F", "url": "https://www.kaigokensaku.mhlw.go.jp/45/index.php?action_kouhyou_detail_004_kani=true&JigyosyoCd=4590300382-00&ServiceCd=780&Type=search", "url2": "https://www.carespirit.co.jp/" }, "geometry": { "type": "Point", "coordinates": [ 131.6716279, 32.588635 ] } },
{ "type": "Feature", "properties": { "内容": "デイサービスセンター　カンナ【地域密着型通所介護】宮崎県延岡市博労町３番地4", "url": "https://www.kaigokensaku.mhlw.go.jp/45/index.php?action_kouhyou_detail_004_kani=true&JigyosyoCd=4590300523-00&ServiceCd=780&Type=search", "url2": null }, "geometry": { "type": "Point", "coordinates": [ 131.6698251, 32.5863666 ] } },
{ "type": "Feature", "properties": { "内容": "株式会社サン・ルーム　朴ノ木の里【地域密着型通所介護】宮崎県延岡市平田町2408", "url": "https://www.kaigokensaku.mhlw.go.jp/45/index.php?action_kouhyou_detail_004_kani=true&JigyosyoCd=4590300556-00&ServiceCd=780&Type=search", "url2": null }, "geometry": { "type": "Point", "coordinates": [ 131.603537125131254, 32.587394720886117 ] } },
{ "type": "Feature", "properties": { "内容": "デイサービス　スタイル【地域密着型通所介護】日南市大字板敷７６１４－１", "url": "https://www.kaigokensaku.mhlw.go.jp/45/index.php?action_kouhyou_detail_004_kani=true&JigyosyoCd=4570400582-00&ServiceCd=780&Type=search", "url2": null }, "geometry": { "type": "Point", "coordinates": [ 131.350553699999978, 31.6314624 ] } },
{ "type": "Feature", "properties": { "内容": "合同会社ほほえみの里【地域密着型通所介護】宮崎県日南市大字東弁分2153番地", "url": "https://www.kaigokensaku.mhlw.go.jp/45/index.php?action_kouhyou_detail_004_kani=true&JigyosyoCd=4570401309-00&ServiceCd=780&Type=search", "url2": null }, "geometry": { "type": "Point", "coordinates": [ 131.3986916, 31.6312088 ] } },
{ "type": "Feature", "properties": { "内容": "みなとデイサービス【地域密着型通所介護】宮崎県日南市大字吉野方98番地", "url": "https://www.kaigokensaku.mhlw.go.jp/45/index.php?action_kouhyou_detail_004_kani=true&JigyosyoCd=4570400814-00&ServiceCd=780&Type=search", "url2": null }, "geometry": { "type": "Point", "coordinates": [ 131.380574900000056, 31.6063899 ] } },
{ "type": "Feature", "properties": { "内容": "デイサービス　フルール【地域密着型通所介護】宮崎県日南市大字東弁分甲２５４６－３", "url": "https://www.kaigokensaku.mhlw.go.jp/45/index.php?action_kouhyou_detail_004_kani=true&JigyosyoCd=4570401218-00&ServiceCd=780&Type=search", "url2": null }, "geometry": { "type": "Point", "coordinates": [ 131.404331140005525, 31.623625453685769 ] } },
{ "type": "Feature", "properties": { "内容": "デイサービス心の芽【地域密着型通所介護】宮崎県日南市大字殿所８１番地４", "url": "https://www.kaigokensaku.mhlw.go.jp/45/index.php?action_kouhyou_detail_004_kani=true&JigyosyoCd=4570400640-00&ServiceCd=780&Type=search", "url2": null }, "geometry": { "type": "Point", "coordinates": [ 131.375763399999983, 31.6291605 ] } },
{ "type": "Feature", "properties": { "内容": "デイサービス来見遊【地域密着型通所介護】宮崎県日南市大字平野4195-3", "url": "https://www.kaigokensaku.mhlw.go.jp/45/index.php?action_kouhyou_detail_004_kani=true&JigyosyoCd=4570400616-00&ServiceCd=780&Type=search", "url2": null }, "geometry": { "type": "Point", "coordinates": [ 131.394766198147636, 31.587291201842039 ] } },
{ "type": "Feature", "properties": { "内容": "デイサービス和【地域密着型通所介護】宮崎県日南市大字西弁分137番地", "url": "https://www.kaigokensaku.mhlw.go.jp/45/index.php?action_kouhyou_detail_004_kani=true&JigyosyoCd=4570400467-00&ServiceCd=780&Type=search", "url2": "http://nagomi-service.sakura.ne.jp/" }, "geometry": { "type": "Point", "coordinates": [ 131.372603499999968, 31.5938353 ] } },
{ "type": "Feature", "properties": { "内容": "デイサービスコウセイ【地域密着型通所介護】日南市北郷町大藤乙402-1", "url": "https://www.kaigokensaku.mhlw.go.jp/45/index.php?action_kouhyou_detail_004_kani=true&JigyosyoCd=4571600164-00&ServiceCd=780&Type=search", "url2": null }, "geometry": { "type": "Point", "coordinates": [ 131.371430099999969, 31.6414236 ] } },
{ "type": "Feature", "properties": { "内容": "恵老園デイサービスセンター【地域密着型通所介護】日南市南郷町津屋野2458番地１", "url": "https://www.kaigokensaku.mhlw.go.jp/45/index.php?action_kouhyou_detail_004_kani=true&JigyosyoCd=4570400574-00&ServiceCd=780&Type=search", "url2": "http://www.takigahira.com" }, "geometry": { "type": "Point", "coordinates": [ 131.34518950000006, 31.5362156 ] } },
{ "type": "Feature", "properties": { "内容": "デイサービスセンター心の里【地域密着型通所介護】宮崎県日南市大字平野１４９８番地８", "url": "https://www.kaigokensaku.mhlw.go.jp/45/index.php?action_kouhyou_detail_004_kani=true&JigyosyoCd=4570400970-00&ServiceCd=780&Type=search", "url2": null }, "geometry": { "type": "Point", "coordinates": [ 131.382024600000022, 31.6136255 ] } },
{ "type": "Feature", "properties": { "内容": "デイサービスセンターひだまり【地域密着型通所介護】宮崎県日南市大字楠原１７番地", "url": "https://www.kaigokensaku.mhlw.go.jp/45/index.php?action_kouhyou_detail_004_kani=true&JigyosyoCd=4570401135-00&ServiceCd=780&Type=search", "url2": null }, "geometry": { "type": "Point", "coordinates": [ 131.348086968261697, 31.625610632497047 ] } },
{ "type": "Feature", "properties": { "内容": "地域密着型通所介護せんだんの樹【地域密着型通所介護】宮崎県日南市大字吉野方7363番地1", "url": "https://www.kaigokensaku.mhlw.go.jp/45/index.php?action_kouhyou_detail_004_kani=true&JigyosyoCd=4570401176-00&ServiceCd=780&Type=search", "url2": null }, "geometry": { "type": "Point", "coordinates": [ 131.318614, 31.6314169 ] } },
{ "type": "Feature", "properties": { "内容": "社会福祉法人大樹会　SocialWork日南　南風の丘デイサービスセンター【地域密着型通所介護】宮崎県日南市南郷町中村甲3528番地2", "url": "https://www.kaigokensaku.mhlw.go.jp/45/index.php?action_kouhyou_detail_004_kani=true&JigyosyoCd=4570401184-00&ServiceCd=780&Type=search", "url2": "https://www.taijukai.biz/" }, "geometry": { "type": "Point", "coordinates": [ 131.365971299999956, 31.5428871 ] } },
{ "type": "Feature", "properties": { "内容": "デイサービス　茶の実【地域密着型通所介護】宮崎県日南市南郷町潟上356-4", "url": "https://www.kaigokensaku.mhlw.go.jp/45/index.php?action_kouhyou_detail_004_kani=true&JigyosyoCd=4570400889-00&ServiceCd=780&Type=search", "url2": null }, "geometry": { "type": "Point", "coordinates": [ 131.358754099317053, 31.517467940160675 ] } },
{ "type": "Feature", "properties": { "内容": "デイサービスセンターゆるり【地域密着型通所介護】宮崎県小林市細野3268番地1", "url": "https://www.kaigokensaku.mhlw.go.jp/45/index.php?action_kouhyou_detail_004_kani=true&JigyosyoCd=4570500662-00&ServiceCd=780&Type=search", "url2": null }, "geometry": { "type": "Point", "coordinates": [ 130.9587474, 31.9841934 ] } },
{ "type": "Feature", "properties": { "内容": "デイサービス幸ちゃんの家　りんどう【地域密着型通所介護】宮崎県小林市野尻町東麓2658-86", "url": "https://www.kaigokensaku.mhlw.go.jp/45/index.php?action_kouhyou_detail_004_kani=true&JigyosyoCd=4590500213-00&ServiceCd=780&Type=search", "url2": "https://yukichannoie.info" }, "geometry": { "type": "Point", "coordinates": [ 131.0830656, 31.9573058 ] } },
{ "type": "Feature", "properties": { "内容": "野尻湖の里デイサービス【地域密着型通所介護】宮崎県小林市野尻町三ケ野山２１８０－１１", "url": "https://www.kaigokensaku.mhlw.go.jp/45/index.php?action_kouhyou_detail_004_kani=true&JigyosyoCd=4570500902-00&ServiceCd=780&Type=search", "url2": null }, "geometry": { "type": "Point", "coordinates": [ 131.052682399999981, 31.9788203 ] } },
{ "type": "Feature", "properties": { "内容": "上町デイサービスセンター【地域密着型通所介護】宮崎県小林市堤２９１６番地５", "url": "https://www.kaigokensaku.mhlw.go.jp/45/index.php?action_kouhyou_detail_004_kani=true&JigyosyoCd=4570500571-00&ServiceCd=780&Type=search", "url2": null }, "geometry": { "type": "Point", "coordinates": [ 130.990328399999953, 31.9838356 ] } },
{ "type": "Feature", "properties": { "内容": "デイサービスセンター和【地域密着型通所介護】宮崎県小林市南西方6257番地33", "url": "https://www.kaigokensaku.mhlw.go.jp/45/index.php?action_kouhyou_detail_004_kani=true&JigyosyoCd=4570500605-00&ServiceCd=780&Type=search", "url2": "nagomiwelfare@vanilla.ocn.ne.jp" }, "geometry": { "type": "Point", "coordinates": [ 130.906136400000037, 32.0110084 ] } },
{ "type": "Feature", "properties": { "内容": "デイサービスセンター　笑和【地域密着型通所介護】宮崎県小林市真方528番地3", "url": "https://www.kaigokensaku.mhlw.go.jp/45/index.php?action_kouhyou_detail_004_kani=true&JigyosyoCd=4590500130-00&ServiceCd=780&Type=search", "url2": "https://www.showa.space" }, "geometry": { "type": "Point", "coordinates": [ -8.24389, 53.41291 ] } },
{ "type": "Feature", "properties": { "内容": "内山デイサービスセンター【地域密着型通所介護】須木内山5203-41", "url": "https://www.kaigokensaku.mhlw.go.jp/45/index.php?action_kouhyou_detail_004_kani=true&JigyosyoCd=4571800178-00&ServiceCd=780&Type=search", "url2": "http://www.souai-kobayashi.or.jp" }, "geometry": { "type": "Point", "coordinates": [ 131.115900882803317, 32.002775498373936 ] } },
{ "type": "Feature", "properties": { "内容": "デイサービスセンターぶんぶん【地域密着型通所介護】宮崎県小林市東方３０５２番地１６", "url": "https://www.kaigokensaku.mhlw.go.jp/45/index.php?action_kouhyou_detail_004_kani=true&JigyosyoCd=4590500122-00&ServiceCd=780&Type=search", "url2": null }, "geometry": { "type": "Point", "coordinates": [ 131.010351376650874, 32.01440483241857 ] } },
{ "type": "Feature", "properties": { "内容": "デイサービスセンター花みずき【地域密着型通所介護】宮崎県小林市大字真方242番地", "url": "https://www.kaigokensaku.mhlw.go.jp/45/index.php?action_kouhyou_detail_004_kani=true&JigyosyoCd=4570500290-00&ServiceCd=780&Type=search", "url2": null }, "geometry": { "type": "Point", "coordinates": [ 130.980175700000018, 31.9972619 ] } },
{ "type": "Feature", "properties": { "内容": "デイサービスセンターパワーリハ倶楽部【地域密着型通所介護】宮崎県小林市須木中原1741番地1須木総合ふるさとセンター", "url": "https://www.kaigokensaku.mhlw.go.jp/45/index.php?action_kouhyou_detail_004_kani=true&JigyosyoCd=4570500431-00&ServiceCd=780&Type=search", "url2": "https://kobayashi-syakyo.jimdofree.com/事-業-所/須木支所/デイサービスセンター-パワーリハ倶楽部/" }, "geometry": { "type": "Point", "coordinates": [ 131.072786299999962, 32.0755927 ] } },
{ "type": "Feature", "properties": { "内容": "デイサービスセンター悠【地域密着型通所介護】宮崎県小林市東方1407番地1", "url": "https://www.kaigokensaku.mhlw.go.jp/45/index.php?action_kouhyou_detail_004_kani=true&JigyosyoCd=4570500498-00&ServiceCd=780&Type=search", "url2": "https://www.haruka-fukushi.com" }, "geometry": { "type": "Point", "coordinates": [ 131.019045299999959, 31.9970993 ] } },
{ "type": "Feature", "properties": { "内容": "デイサービス　恵【地域密着型通所介護】宮崎県小林市南西方2054番地1", "url": "https://www.kaigokensaku.mhlw.go.jp/45/index.php?action_kouhyou_detail_004_kani=true&JigyosyoCd=4570500761-00&ServiceCd=780&Type=search", "url2": null }, "geometry": { "type": "Point", "coordinates": [ 130.954236371163915, 32.00369405269759 ] } },
{ "type": "Feature", "properties": { "内容": "マイハート・ＫＯＫＯ【地域密着型通所介護】宮崎県日向市大字財光寺字大原2993番地3", "url": "https://www.kaigokensaku.mhlw.go.jp/45/index.php?action_kouhyou_detail_004_kani=true&JigyosyoCd=4570601205-00&ServiceCd=780&Type=search", "url2": "lovelove55.jp" }, "geometry": { "type": "Point", "coordinates": [ 131.629329694412235, 32.402666227311016 ] } },
{ "type": "Feature", "properties": { "内容": "デイサービスあおぞら【地域密着型通所介護】宮崎県日向市東郷町山陰辛７５３－１", "url": "https://www.kaigokensaku.mhlw.go.jp/45/index.php?action_kouhyou_detail_004_kani=true&JigyosyoCd=4570601155-00&ServiceCd=780&Type=search", "url2": null }, "geometry": { "type": "Point", "coordinates": [ 131.508060633135187, 32.395615479119705 ] } },
{ "type": "Feature", "properties": { "内容": "デイサービス陽春【地域密着型通所介護】宮崎県日向市梶木町１丁目５番地２デイサービス陽春", "url": "https://www.kaigokensaku.mhlw.go.jp/45/index.php?action_kouhyou_detail_004_kani=true&JigyosyoCd=4570601304-00&ServiceCd=780&Type=search", "url2": "http://www.plusone-hyuga.jp" }, "geometry": { "type": "Point", "coordinates": [ 131.640866581614659, 32.45126819871372 ] } },
{ "type": "Feature", "properties": { "内容": "デイサービス心愛【地域密着型通所介護】宮崎県日向市亀崎西２丁目１５７番地", "url": "https://www.kaigokensaku.mhlw.go.jp/45/index.php?action_kouhyou_detail_004_kani=true&JigyosyoCd=4570600454-00&ServiceCd=780&Type=search", "url2": "http://kokoa2004skyhome.jimdo.com/" }, "geometry": { "type": "Point", "coordinates": [ 131.63036969999996, 32.4371431 ] } },
{ "type": "Feature", "properties": { "内容": "特定非営利活動法人　日向さつき会【地域密着型通所介護】宮崎県　日向市　浜町１丁目６５番地", "url": "https://www.kaigokensaku.mhlw.go.jp/45/index.php?action_kouhyou_detail_004_kani=true&JigyosyoCd=4570600900-00&ServiceCd=780&Type=search", "url2": null }, "geometry": { "type": "Point", "coordinates": [ 131.647996799999987, 32.4206534 ] } },
{ "type": "Feature", "properties": { "内容": "デイサービス笑夢【地域密着型通所介護】宮崎県日向市比良町２丁目９６番地", "url": "https://www.kaigokensaku.mhlw.go.jp/45/index.php?action_kouhyou_detail_004_kani=true&JigyosyoCd=4590600120-00&ServiceCd=780&Type=search", "url2": null }, "geometry": { "type": "Point", "coordinates": [ 131.621435100000014, 32.413881 ] } },
{ "type": "Feature", "properties": { "内容": "デイサービスえん【地域密着型通所介護】宮崎県日向市伊勢ヶ浜119番地", "url": "https://www.kaigokensaku.mhlw.go.jp/45/index.php?action_kouhyou_detail_004_kani=true&JigyosyoCd=4590600153-00&ServiceCd=780&Type=search", "url2": "http://www.haradagr-dp.co.jp/" }, "geometry": { "type": "Point", "coordinates": [ 131.649719018109067, 32.412882099424358 ] } },
{ "type": "Feature", "properties": { "内容": "デイサービス　よつ葉【地域密着型通所介護】宮崎県日向市大字財光寺中ノ原1158番地7", "url": "https://www.kaigokensaku.mhlw.go.jp/45/index.php?action_kouhyou_detail_004_kani=true&JigyosyoCd=4570601056-00&ServiceCd=780&Type=search", "url2": "ds.yotsuba.com" }, "geometry": { "type": "Point", "coordinates": [ 131.629659984055706, 32.403119012031794 ] } },
{ "type": "Feature", "properties": { "内容": "デイサービスセンター　きずな【地域密着型通所介護】宮崎県日向市大字財光寺５３１７番地３", "url": "https://www.kaigokensaku.mhlw.go.jp/45/index.php?action_kouhyou_detail_004_kani=true&JigyosyoCd=4570601171-00&ServiceCd=780&Type=search", "url2": null }, "geometry": { "type": "Point", "coordinates": [ 131.623045285844455, 32.408318267853936 ] } },
{ "type": "Feature", "properties": { "内容": "デイサービス凛【地域密着型通所介護】宮崎県日向市大字財光寺字中ノ原1164-1", "url": "https://www.kaigokensaku.mhlw.go.jp/45/index.php?action_kouhyou_detail_004_kani=true&JigyosyoCd=4570601320-00&ServiceCd=780&Type=search", "url2": "lovelove55@eco.ocn.ne.jp" }, "geometry": { "type": "Point", "coordinates": [ 131.629937700000028, 32.403135 ] } },
{ "type": "Feature", "properties": { "内容": "みほこがうらデイサービス【地域密着型通所介護】細島91‐1", "url": "https://www.kaigokensaku.mhlw.go.jp/45/index.php?action_kouhyou_detail_004_kani=true&JigyosyoCd=4570600462-00&ServiceCd=780&Type=search", "url2": "https://mihokogaura-dsc.jp" }, "geometry": { "type": "Point", "coordinates": [ 131.674812240091796, 32.421632539126421 ] } },
{ "type": "Feature", "properties": { "内容": "デイサービスセンター　おくらがはま【地域密着型通所介護】財光寺2740-6", "url": "https://www.kaigokensaku.mhlw.go.jp/45/index.php?action_kouhyou_detail_004_kani=true&JigyosyoCd=4590600112-00&ServiceCd=780&Type=search", "url2": "https://okuragahama.jp/" }, "geometry": { "type": "Point", "coordinates": [ 131.627705164418018, 32.392243875992861 ] } },
{ "type": "Feature", "properties": { "内容": "デイサービスふくじゅそう【地域密着型通所介護】大字日知屋14693-1", "url": "https://www.kaigokensaku.mhlw.go.jp/45/index.php?action_kouhyou_detail_004_kani=true&JigyosyoCd=4590600187-00&ServiceCd=780&Type=search", "url2": "http://www.fukuju-hyuga.com/" }, "geometry": { "type": "Point", "coordinates": [ 131.6366108, 32.4511935 ] } },
{ "type": "Feature", "properties": { "内容": "宝園【地域密着型通所介護】宮崎県日向市大字富高6202番地64", "url": "https://www.kaigokensaku.mhlw.go.jp/45/index.php?action_kouhyou_detail_004_kani=true&JigyosyoCd=4570601007-00&ServiceCd=780&Type=search", "url2": null }, "geometry": { "type": "Point", "coordinates": [ 131.621580813214081, 32.441596198988925 ] } },
{ "type": "Feature", "properties": { "内容": "デイサービス糸【地域密着型通所介護】宮崎県日向市北町2丁目17番地", "url": "https://www.kaigokensaku.mhlw.go.jp/45/index.php?action_kouhyou_detail_004_kani=true&JigyosyoCd=4590600138-00&ServiceCd=780&Type=search", "url2": null }, "geometry": { "type": "Point", "coordinates": [ 131.615451357672129, 32.419757483376273 ] } },
{ "type": "Feature", "properties": { "内容": "串間保育園デイサービスセンター【地域密着型通所介護】宮崎県串間市大字西方8253番地", "url": "https://www.kaigokensaku.mhlw.go.jp/45/index.php?action_kouhyou_detail_004_kani=true&JigyosyoCd=4570700189-00&ServiceCd=780&Type=search", "url2": null }, "geometry": { "type": "Point", "coordinates": [ 131.2228394, 31.461617 ] } },
{ "type": "Feature", "properties": { "内容": "社会福祉法人　むつみデイサービスセンター【地域密着型通所介護】宮崎県串間市大字西方15153-3", "url": "https://www.kaigokensaku.mhlw.go.jp/45/index.php?action_kouhyou_detail_004_kani=true&JigyosyoCd=4570700171-00&ServiceCd=780&Type=search", "url2": "http://www.kosodate-web.com/mutumikai/index.html" }, "geometry": { "type": "Point", "coordinates": [ 131.203285599999958, 31.4580811 ] } },
{ "type": "Feature", "properties": { "内容": "串間市社会福祉協議会市木デイサービスセンター【地域密着型通所介護】宮崎県串間市大字市木2028番地市木デイサービスセンター", "url": "https://www.kaigokensaku.mhlw.go.jp/45/index.php?action_kouhyou_detail_004_kani=true&JigyosyoCd=4570700155-00&ServiceCd=780&Type=search", "url2": null }, "geometry": { "type": "Point", "coordinates": [ 131.341486499999974, 31.4634323 ] } },
{ "type": "Feature", "properties": { "内容": "サポートハウス稲の穂【地域密着型通所介護】宮崎県串間市大字西方6785-2", "url": "https://www.kaigokensaku.mhlw.go.jp/45/index.php?action_kouhyou_detail_004_kani=true&JigyosyoCd=4570700346-00&ServiceCd=780&Type=search", "url2": "http://www.inenoho.biz" }, "geometry": { "type": "Point", "coordinates": [ 131.221742536015341, 31.456769206061395 ] } },
{ "type": "Feature", "properties": { "内容": "医療法人秀英会長寿の里デイサービスセンター【地域密着型通所介護】宮崎県串間市大字奈留５２９８番地３", "url": "https://www.kaigokensaku.mhlw.go.jp/45/index.php?action_kouhyou_detail_004_kani=true&JigyosyoCd=4550780003-00&ServiceCd=780&Type=search", "url2": "http://www.shueikai.or.jp" }, "geometry": { "type": "Point", "coordinates": [ 131.246595, 31.5133006 ] } },
{ "type": "Feature", "properties": { "内容": "デイサービスセンタークラシヤスむつみ【地域密着型通所介護】宮崎県串間市大字西方８９６４－１２", "url": "https://www.kaigokensaku.mhlw.go.jp/45/index.php?action_kouhyou_detail_004_kani=true&JigyosyoCd=4570700486-00&ServiceCd=780&Type=search", "url2": "http://www.kosodate-web.com/mutumikai/" }, "geometry": { "type": "Point", "coordinates": [ 131.220417538098104, 31.465127499634985 ] } },
{ "type": "Feature", "properties": { "内容": "社会福祉法人西都市社会福祉協議会【地域密着型通所介護】宮崎県西都市大字清水1035番地1", "url": "https://www.kaigokensaku.mhlw.go.jp/45/index.php?action_kouhyou_detail_004_kani=true&JigyosyoCd=4570800039-00&ServiceCd=780&Type=search", "url2": "https://saito-shakyo.jp/" }, "geometry": { "type": "Point", "coordinates": [ 131.379348599999958, 32.1012627 ] } },
{ "type": "Feature", "properties": { "内容": "デイサービス　のどか【地域密着型通所介護】宮崎県西都市大字南方3309番地4", "url": "https://www.kaigokensaku.mhlw.go.jp/45/index.php?action_kouhyou_detail_004_kani=true&JigyosyoCd=4570800583-00&ServiceCd=780&Type=search", "url2": null }, "geometry": { "type": "Point", "coordinates": [ 131.394410500000049, 32.1314545 ] } },
{ "type": "Feature", "properties": { "内容": "デイサービスセンターまごころ【地域密着型通所介護】宮崎県西都市大字鹿野田6138番地1", "url": "https://www.kaigokensaku.mhlw.go.jp/45/index.php?action_kouhyou_detail_004_kani=true&JigyosyoCd=4570800625-00&ServiceCd=780&Type=search", "url2": null }, "geometry": { "type": "Point", "coordinates": [ 131.37814524179052, 32.058170601957279 ] } },
{ "type": "Feature", "properties": { "内容": "上山医院通所介護【地域密着型通所介護】妻町2-89", "url": "https://www.kaigokensaku.mhlw.go.jp/45/index.php?action_kouhyou_detail_004_kani=true&JigyosyoCd=4570800260-00&ServiceCd=780&Type=search", "url2": null }, "geometry": { "type": "Point", "coordinates": [ 131.408433831629964, 32.109899969656055 ] } },
{ "type": "Feature", "properties": { "内容": "デイサービスはる【地域密着型通所介護】宮崎県西都市聖陵町１丁目７７", "url": "https://www.kaigokensaku.mhlw.go.jp/45/index.php?action_kouhyou_detail_004_kani=true&JigyosyoCd=4590800050-00&ServiceCd=780&Type=search", "url2": null }, "geometry": { "type": "Point", "coordinates": [ 131.400588199999987, 32.1095987 ] } },
{ "type": "Feature", "properties": { "内容": "医療法人隆徳会あさひデイサービスセンター【地域密着型通所介護】宮崎県西都市旭１丁目５５番地", "url": "https://www.kaigokensaku.mhlw.go.jp/45/index.php?action_kouhyou_detail_004_kani=true&JigyosyoCd=4570800310-00&ServiceCd=780&Type=search", "url2": "asahids@ryutoku.or.jp" }, "geometry": { "type": "Point", "coordinates": [ 131.4099685, 32.1107397 ] } },
{ "type": "Feature", "properties": { "内容": "デイサービス　ここ笑み【地域密着型通所介護】宮崎県西都市旭２丁目４１番地", "url": "https://www.kaigokensaku.mhlw.go.jp/45/index.php?action_kouhyou_detail_004_kani=true&JigyosyoCd=4570800617-00&ServiceCd=780&Type=search", "url2": null }, "geometry": { "type": "Point", "coordinates": [ 131.411766391565038, 32.10827667739521 ] } },
{ "type": "Feature", "properties": { "内容": "東米良仁の里デイサービスセンター【地域密着型通所介護】宮崎県西都市大字上揚2番地2", "url": "https://www.kaigokensaku.mhlw.go.jp/45/index.php?action_kouhyou_detail_004_kani=true&JigyosyoCd=4570800781-00&ServiceCd=780&Type=search", "url2": "http://fukushi-zenjinkai.jp" }, "geometry": { "type": "Point", "coordinates": [ 131.2476853, 32.2723533 ] } },
{ "type": "Feature", "properties": { "内容": "デイサービス稲穂【地域密着型通所介護】宮崎県西都市大字南方3372-9", "url": "https://www.kaigokensaku.mhlw.go.jp/45/index.php?action_kouhyou_detail_004_kani=true&JigyosyoCd=4570800732-00&ServiceCd=780&Type=search", "url2": "https://www.ds-inaho.com" }, "geometry": { "type": "Point", "coordinates": [ 131.395911721021918, 32.128284650102245 ] } },
{ "type": "Feature", "properties": { "内容": "デイサービスクアアルク【地域密着型通所介護】西都市大字妻1647番地", "url": "https://www.kaigokensaku.mhlw.go.jp/45/index.php?action_kouhyou_detail_004_kani=true&JigyosyoCd=4570800658-00&ServiceCd=780&Type=search", "url2": null }, "geometry": { "type": "Point", "coordinates": [ 131.398881374868779, 32.101600911527591 ] } },
{ "type": "Feature", "properties": { "内容": "デイサービスセンターひむか【地域密着型通所介護】宮崎県西都市大字右松2503-1", "url": "https://www.kaigokensaku.mhlw.go.jp/45/index.php?action_kouhyou_detail_004_kani=true&JigyosyoCd=4590800068-00&ServiceCd=780&Type=search", "url2": null }, "geometry": { "type": "Point", "coordinates": [ 131.402467800000011, 32.1047575 ] } },
{ "type": "Feature", "properties": { "内容": "デイサービス　ひなた【地域密着型通所介護】宮崎県西都市大字下三財1548番地", "url": "https://www.kaigokensaku.mhlw.go.jp/45/index.php?action_kouhyou_detail_004_kani=true&JigyosyoCd=4570800500-00&ServiceCd=780&Type=search", "url2": null }, "geometry": { "type": "Point", "coordinates": [ 131.363426, 32.0780565 ] } },
{ "type": "Feature", "properties": { "内容": "デイサービス活きがい発電所えびの【地域密着型通所介護】宮崎県えびの市大字大明司50-7", "url": "https://www.kaigokensaku.mhlw.go.jp/45/index.php?action_kouhyou_detail_004_kani=true&JigyosyoCd=4570900383-00&ServiceCd=780&Type=search", "url2": "www.ot-road.co.jp" }, "geometry": { "type": "Point", "coordinates": [ 130.8522797, 32.048615 ] } },
{ "type": "Feature", "properties": { "内容": "活発えびの短時間道場【地域密着型通所介護】宮崎県えびの市原田2734番地90", "url": "https://www.kaigokensaku.mhlw.go.jp/45/index.php?action_kouhyou_detail_004_kani=true&JigyosyoCd=4570900490-00&ServiceCd=780&Type=search", "url2": "www.ot-road.co.jp" }, "geometry": { "type": "Point", "coordinates": [ 130.867260901188672, 32.03597280257452 ] } },
{ "type": "Feature", "properties": { "内容": "デイサービスセンターげんきゆのはな館【地域密着型通所介護】宮崎県えびの市大字亀沢392番地5", "url": "https://www.kaigokensaku.mhlw.go.jp/45/index.php?action_kouhyou_detail_004_kani=true&JigyosyoCd=4570900466-00&ServiceCd=780&Type=search", "url2": null }, "geometry": { "type": "Point", "coordinates": [ 130.751541649073829, 32.037548455946549 ] } },
{ "type": "Feature", "properties": { "内容": "社会福祉法人　えびの市社会福祉協議会【地域密着型通所介護】宮崎県えびの市大字栗下68番地ふれあい館", "url": "https://www.kaigokensaku.mhlw.go.jp/45/index.php?action_kouhyou_detail_004_kani=true&JigyosyoCd=4590900033-00&ServiceCd=780&Type=search", "url2": "http:/www.ebino-shakyo.jp" }, "geometry": { "type": "Point", "coordinates": [ 130.813563499999987, 32.04491 ] } },
{ "type": "Feature", "properties": { "内容": "小ｌ規模デイサービス　より処ゆるり【地域密着型通所介護】大字向江７７６番地1", "url": "https://www.kaigokensaku.mhlw.go.jp/45/index.php?action_kouhyou_detail_004_kani=true&JigyosyoCd=4570900391-00&ServiceCd=780&Type=search", "url2": null }, "geometry": { "type": "Point", "coordinates": [ 130.764719600000035, 32.0477952 ] } },
{ "type": "Feature", "properties": { "内容": "デイサービス茶茶【地域密着型通所介護】宮崎県北諸県郡三股町大字樺山4370番地15", "url": "https://www.kaigokensaku.mhlw.go.jp/45/index.php?action_kouhyou_detail_004_kani=true&JigyosyoCd=4591700036-00&ServiceCd=780&Type=search", "url2": null }, "geometry": { "type": "Point", "coordinates": [ 131.1166009, 31.7355158 ] } },
{ "type": "Feature", "properties": { "内容": "デイサービス　はっぴー【地域密着型通所介護】宮崎県北諸県郡三股町新馬場39番地8", "url": "https://www.kaigokensaku.mhlw.go.jp/45/index.php?action_kouhyou_detail_004_kani=true&JigyosyoCd=4571700972-00&ServiceCd=780&Type=search", "url2": null }, "geometry": { "type": "Point", "coordinates": [ 131.113117800000026, 31.7370069 ] } },
{ "type": "Feature", "properties": { "内容": "リハビリデイサービス　はぴリハ【地域密着型通所介護】宮崎県東諸県郡国富町大字本庄4313番地1", "url": "https://www.kaigokensaku.mhlw.go.jp/45/index.php?action_kouhyou_detail_004_kani=true&JigyosyoCd=4591900065-00&ServiceCd=780&Type=search", "url2": null }, "geometry": { "type": "Point", "coordinates": [ 131.3335965, 31.9880166 ] } },
{ "type": "Feature", "properties": { "内容": "デイサービスセンターねむの里【地域密着型通所介護】宮崎県東諸県郡国富町大字木脇1462", "url": "https://www.kaigokensaku.mhlw.go.jp/45/index.php?action_kouhyou_detail_004_kani=true&JigyosyoCd=4591900073-00&ServiceCd=780&Type=search", "url2": "https://www.m-sj.or.jp" }, "geometry": { "type": "Point", "coordinates": [ 131.3594675, 31.9925925 ] } },
{ "type": "Feature", "properties": { "内容": "デイサービスひだまりの家【地域密着型通所介護】宮崎県東諸県郡国富町大字本庄5523-2", "url": "https://www.kaigokensaku.mhlw.go.jp/45/index.php?action_kouhyou_detail_004_kani=true&JigyosyoCd=4571900929-00&ServiceCd=780&Type=search", "url2": null }, "geometry": { "type": "Point", "coordinates": [ 131.3061209, 31.9950393 ] } },
{ "type": "Feature", "properties": { "内容": "ラキーノ高鍋【地域密着型通所介護】宮崎県児湯郡高鍋町北高鍋3186番地3", "url": "https://www.kaigokensaku.mhlw.go.jp/45/index.php?action_kouhyou_detail_004_kani=true&JigyosyoCd=4572001990-00&ServiceCd=780&Type=search", "url2": "https://www.rakino812.com/" }, "geometry": { "type": "Point", "coordinates": [ 131.5212546, 32.1240448 ] } },
{ "type": "Feature", "properties": { "内容": "デイサービスルアナ【地域密着型通所介護】宮崎県児湯郡高鍋町大字蚊口浦5125番地1", "url": "https://www.kaigokensaku.mhlw.go.jp/45/index.php?action_kouhyou_detail_004_kani=true&JigyosyoCd=4592000196-00&ServiceCd=780&Type=search", "url2": null }, "geometry": { "type": "Point", "coordinates": [ 131.526447499999989, 32.1251651 ] } },
{ "type": "Feature", "properties": { "内容": "まちのなか　おとんおかんの家【地域密着型通所介護】宮崎県児湯郡高鍋町大字北高鍋１０８９番地", "url": "https://www.kaigokensaku.mhlw.go.jp/45/index.php?action_kouhyou_detail_004_kani=true&JigyosyoCd=4572001164-00&ServiceCd=780&Type=search", "url2": "https://www.otonokannoie.jp/" }, "geometry": { "type": "Point", "coordinates": [ 131.509834500000011, 32.1309011 ] } },
{ "type": "Feature", "properties": { "内容": "デイサービスセンター元気の里　高鍋館【地域密着型通所介護】宮崎県児湯郡高鍋町大字高鍋町５９８番地３", "url": "https://www.kaigokensaku.mhlw.go.jp/45/index.php?action_kouhyou_detail_004_kani=true&JigyosyoCd=4592000147-00&ServiceCd=780&Type=search", "url2": "https://sun3.jp/genki-takanabe" }, "geometry": { "type": "Point", "coordinates": [ 131.508103104893479, 32.124577961841077 ] } },
{ "type": "Feature", "properties": { "内容": "デイサービスほおのき【地域密着型通所介護】宮崎県児湯郡高鍋町大字北高鍋７６３－１", "url": "https://www.kaigokensaku.mhlw.go.jp/45/index.php?action_kouhyou_detail_004_kani=true&JigyosyoCd=4572001032-00&ServiceCd=780&Type=search", "url2": null }, "geometry": { "type": "Point", "coordinates": [ 131.507201500000065, 32.129654 ] } },
{ "type": "Feature", "properties": { "内容": "花と緑のデイサービス【地域密着型通所介護】宮崎県児湯郡新富町大字上富田3349-1", "url": "https://www.kaigokensaku.mhlw.go.jp/45/index.php?action_kouhyou_detail_004_kani=true&JigyosyoCd=4572001545-00&ServiceCd=780&Type=search", "url2": "http://hana-midori.jp/genki-info.html" }, "geometry": { "type": "Point", "coordinates": [ 131.485884400000032, 32.0616687 ] } },
{ "type": "Feature", "properties": { "内容": "デイサービス　おとなり【地域密着型通所介護】児湯郡新富町大字新田4638番地１", "url": "https://www.kaigokensaku.mhlw.go.jp/45/index.php?action_kouhyou_detail_004_kani=true&JigyosyoCd=4572001008-00&ServiceCd=780&Type=search", "url2": null }, "geometry": { "type": "Point", "coordinates": [ 131.4515123, 32.0639173 ] } },
{ "type": "Feature", "properties": { "内容": "デイサービスみんなの家【地域密着型通所介護】児湯郡新富町大字新田8515-1", "url": "https://www.kaigokensaku.mhlw.go.jp/45/index.php?action_kouhyou_detail_004_kani=true&JigyosyoCd=4572001198-00&ServiceCd=780&Type=search", "url2": "https://miyazaki-minna.wixsite.com/miyazaki-minna" }, "geometry": { "type": "Point", "coordinates": [ 131.437615700000038, 32.0749966 ] } },
{ "type": "Feature", "properties": { "内容": "歩きと動きの専門デイサービス　ガジュマル【地域密着型通所介護】宮崎県児湯郡新富町大字新田8708", "url": "https://www.kaigokensaku.mhlw.go.jp/45/index.php?action_kouhyou_detail_004_kani=true&JigyosyoCd=4592000204-00&ServiceCd=780&Type=search", "url2": "https://gajumaru.kuttsuku.co.jp" }, "geometry": { "type": "Point", "coordinates": [ 131.435984336280853, 32.074857734363952 ] } },
{ "type": "Feature", "properties": { "内容": "天包荘デイサービスセンター【地域密着型通所介護】宮崎県児湯郡西米良村大字竹原432", "url": "https://www.kaigokensaku.mhlw.go.jp/45/index.php?action_kouhyou_detail_004_kani=true&JigyosyoCd=4572000406-00&ServiceCd=780&Type=search", "url2": "https://tenposo.net/" }, "geometry": { "type": "Point", "coordinates": [ 131.1520161, 32.2413817 ] } },
{ "type": "Feature", "properties": { "内容": "デイサービスセンターはぴねす【地域密着型通所介護】宮崎県児湯郡川南町大字川南27486番地１", "url": "https://www.kaigokensaku.mhlw.go.jp/45/index.php?action_kouhyou_detail_004_kani=true&JigyosyoCd=4572001602-00&ServiceCd=780&Type=search", "url2": null }, "geometry": { "type": "Point", "coordinates": [ 131.485712799999988, 32.1827199 ] } },
{ "type": "Feature", "properties": { "内容": "リハビリ特化　サニーデイズ【地域密着型通所介護】宮崎県児湯郡川南町大字川南13247番地6", "url": "https://www.kaigokensaku.mhlw.go.jp/45/index.php?action_kouhyou_detail_004_kani=true&JigyosyoCd=4572001610-00&ServiceCd=780&Type=search", "url2": null }, "geometry": { "type": "Point", "coordinates": [ 131.51899, 32.2105662 ] } },
{ "type": "Feature", "properties": { "内容": "すずのねデイサービスセンター【地域密着型通所介護】宮崎県児湯郡都農町大字川北4707番地7", "url": "https://www.kaigokensaku.mhlw.go.jp/45/index.php?action_kouhyou_detail_004_kani=true&JigyosyoCd=4572000810-00&ServiceCd=780&Type=search", "url2": null }, "geometry": { "type": "Point", "coordinates": [ 131.557268600000043, 32.2505352 ] } },
{ "type": "Feature", "properties": { "内容": "デイサービス菜の郷【地域密着型通所介護】宮崎県東臼杵郡門川町大字門川尾末字アゼ地2515番地3", "url": "https://www.kaigokensaku.mhlw.go.jp/45/index.php?action_kouhyou_detail_004_kani=true&JigyosyoCd=4572101162-00&ServiceCd=780&Type=search", "url2": null }, "geometry": { "type": "Point", "coordinates": [ 131.644514299999969, 32.4716227 ] } },
{ "type": "Feature", "properties": { "内容": "株式会社　姫野　デイサービス　さくらんぼ【地域密着型通所介護】宮崎県東臼杵郡門川町大字門川尾末773番地5デイサービス　さくらんぼ", "url": "https://www.kaigokensaku.mhlw.go.jp/45/index.php?action_kouhyou_detail_004_kani=true&JigyosyoCd=4572101121-00&ServiceCd=780&Type=search", "url2": "http://sakuranbo-care.com/" }, "geometry": { "type": "Point", "coordinates": [ 131.643595299999987, 32.4618738 ] } },
{ "type": "Feature", "properties": { "内容": "もろつかせせらぎの里【地域密着型通所介護】宮崎県東臼杵郡諸塚村大字七ツ山54番地", "url": "https://www.kaigokensaku.mhlw.go.jp/45/index.php?action_kouhyou_detail_004_kani=true&JigyosyoCd=4592100103-00&ServiceCd=780&Type=search", "url2": "http://care-net.biz/45/seseragi/index.php" }, "geometry": { "type": "Point", "coordinates": [ 131.326524400000011, 32.4932703 ] } },
{ "type": "Feature", "properties": { "内容": "うなまの里地域密着型通所介護事業所【地域密着型通所介護】宮崎県東臼杵郡美郷町北郷宇納間170", "url": "https://www.kaigokensaku.mhlw.go.jp/45/index.php?action_kouhyou_detail_004_kani=true&JigyosyoCd=4572100347-00&ServiceCd=780&Type=search", "url2": "https://www.unamanosato.jp" }, "geometry": { "type": "Point", "coordinates": [ 131.4432903, 32.5051948 ] } },
{ "type": "Feature", "properties": { "内容": "社会福祉法人清風会【地域密着型通所介護】西郷田代2208", "url": "https://www.kaigokensaku.mhlw.go.jp/45/index.php?action_kouhyou_detail_004_kani=true&JigyosyoCd=4572100453-00&ServiceCd=780&Type=search", "url2": null }, "geometry": { "type": "Point", "coordinates": [ 131.42381850000001, 32.4344846 ] } },
{ "type": "Feature", "properties": { "内容": "株式会社サン・ルームデイサービスふきのとう【地域密着型通所介護】宮崎県西臼杵郡高千穂町大字上野3383-4", "url": "https://www.kaigokensaku.mhlw.go.jp/45/index.php?action_kouhyou_detail_004_kani=true&JigyosyoCd=4572200162-00&ServiceCd=780&Type=search", "url2": "http://care-net.biz/45/sr-4611/index.php" }, "geometry": { "type": "Point", "coordinates": [ 131.299547699999948, 32.7642009 ] } },
{ "type": "Feature", "properties": { "内容": "デイサービスあくた　高千穂店【地域密着型通所介護】宮崎県西臼杵郡高千穂町大字三田井6314番地5", "url": "https://www.kaigokensaku.mhlw.go.jp/45/index.php?action_kouhyou_detail_004_kani=true&JigyosyoCd=4572200303-00&ServiceCd=780&Type=search", "url2": null }, "geometry": { "type": "Point", "coordinates": [ 131.319726056652826, 32.703986455233135 ] } },
{ "type": "Feature", "properties": { "内容": "デイサービスひだまり【地域密着型通所介護】宮崎県西臼杵郡日之影町七折２９９６番地１６", "url": "https://www.kaigokensaku.mhlw.go.jp/45/index.php?action_kouhyou_detail_004_kani=true&JigyosyoCd=4572200212-00&ServiceCd=780&Type=search", "url2": null }, "geometry": { "type": "Point", "coordinates": [ 131.396134299999972, 32.6456728 ] } },
{ "type": "Feature", "properties": { "内容": "デイサービスこもれび【地域密着型通所介護】宮崎県西臼杵郡五ヶ瀬町大字鞍岡５８３０番地１", "url": "https://www.kaigokensaku.mhlw.go.jp/45/index.php?action_kouhyou_detail_004_kani=true&JigyosyoCd=4572200287-00&ServiceCd=780&Type=search", "url2": null }, "geometry": { "type": "Point", "coordinates": [ 131.158416311778296, 32.64079007353287 ] } }
]
}
