{
"type": "FeatureCollection",
"name": "geo_45_特定施設入居者生活介護（有料老人ホーム）",
"crs": { "type": "name", "properties": { "name": "urn:ogc:def:crs:OGC:1.3:CRS84" } },
"features": [
{ "type": "Feature", "properties": { "内容": "特定施設有料老人ホームアスター丸山【特定施設入居者生活介護（有料老人ホーム）】宮崎県宮崎市丸山2丁目31番地", "url": "https://www.kaigokensaku.mhlw.go.jp/45/index.php?action_kouhyou_detail_004_kani=true&JigyosyoCd=4570103772-00&ServiceCd=331&Type=search", "url2": "http://www.aster-inc.jp/" }, "geometry": { "type": "Point", "coordinates": [ 131.422145900000032, 31.9277602 ] } },
{ "type": "Feature", "properties": { "内容": "介護付有料老人ホームエリア宮崎【特定施設入居者生活介護（有料老人ホーム）】佐土原町下田島12219-136", "url": "https://www.kaigokensaku.mhlw.go.jp/45/index.php?action_kouhyou_detail_004_kani=true&JigyosyoCd=4570110629-00&ServiceCd=331&Type=search", "url2": "https://www.area-m.jp" }, "geometry": { "type": "Point", "coordinates": [ 131.4690975, 32.0367518 ] } },
{ "type": "Feature", "properties": { "内容": "ケアホームふじき【特定施設入居者生活介護（有料老人ホーム）】宮崎県宮崎市大字小松3015番地１", "url": "https://www.kaigokensaku.mhlw.go.jp/45/index.php?action_kouhyou_detail_004_kani=true&JigyosyoCd=4570103913-00&ServiceCd=331&Type=search", "url2": "http://fujiki-hp.com/" }, "geometry": { "type": "Point", "coordinates": [ 131.386051800000018, 31.9282838 ] } },
{ "type": "Feature", "properties": { "内容": "介護付有料老人ホームエリシオン薫る坂【特定施設入居者生活介護（有料老人ホーム）】宮崎県宮崎市薫る坂1丁目19番3号", "url": "https://www.kaigokensaku.mhlw.go.jp/45/index.php?action_kouhyou_detail_004_kani=true&JigyosyoCd=4570103301-00&ServiceCd=331&Type=search", "url2": "http://elysion-m.main.jp" }, "geometry": { "type": "Point", "coordinates": [ 131.398818399999982, 31.8954568 ] } },
{ "type": "Feature", "properties": { "内容": "介護付有料老人ホームウエルケア安寿【特定施設入居者生活介護（有料老人ホーム）】宮崎県宮崎市佐土原町下田島20113-26ウェルケア安寿", "url": "https://www.kaigokensaku.mhlw.go.jp/45/index.php?action_kouhyou_detail_004_kani=true&JigyosyoCd=4570103970-00&ServiceCd=331&Type=search", "url2": "http://miyamotogroup.net/anjyu/index.html" }, "geometry": { "type": "Point", "coordinates": [ 131.476374, 32.0172319 ] } },
{ "type": "Feature", "properties": { "内容": "介護付有料老人ホーム芳生平和が丘館【特定施設入居者生活介護（有料老人ホーム）】宮崎県宮崎市平和が丘西町24番地1", "url": "https://www.kaigokensaku.mhlw.go.jp/45/index.php?action_kouhyou_detail_004_kani=true&JigyosyoCd=4570110256-00&ServiceCd=331&Type=search", "url2": "http://www.houseien.jp" }, "geometry": { "type": "Point", "coordinates": [ 131.4116395, 31.9566018 ] } },
{ "type": "Feature", "properties": { "内容": "介護付有料老人ホームソフトタウン高洲【特定施設入居者生活介護（有料老人ホーム）】宮崎県宮崎市高洲町235番地3", "url": "https://www.kaigokensaku.mhlw.go.jp/45/index.php?action_kouhyou_detail_004_kani=true&JigyosyoCd=4570103178-00&ServiceCd=331&Type=search", "url2": "http://www.softsangyou.jp" }, "geometry": { "type": "Point", "coordinates": [ 131.441445, 31.9010611 ] } },
{ "type": "Feature", "properties": { "内容": "介護付有料老人ホームウエルコート佐土原【特定施設入居者生活介護（有料老人ホーム）】宮崎県宮崎市佐土原町上田島５１１０", "url": "https://www.kaigokensaku.mhlw.go.jp/45/index.php?action_kouhyou_detail_004_kani=true&JigyosyoCd=4570103319-00&ServiceCd=331&Type=search", "url2": "https://www.amecs-estate.co.jp/" }, "geometry": { "type": "Point", "coordinates": [ 131.4178402, 32.0583841 ] } },
{ "type": "Feature", "properties": { "内容": "介護付有料老人ホームアルテンハイムグジブランド【特定施設入居者生活介護（有料老人ホーム）】宮崎県宮崎市大字郡司分乙７９９－１", "url": "https://www.kaigokensaku.mhlw.go.jp/45/index.php?action_kouhyou_detail_004_kani=true&JigyosyoCd=4570103509-00&ServiceCd=331&Type=search", "url2": "tatsumoto@brown.plala.or.jp" }, "geometry": { "type": "Point", "coordinates": [ 131.410624900000016, 31.8550609 ] } },
{ "type": "Feature", "properties": { "内容": "介護付有料老人ホーム　ケアヴィレッジ・グランパ【特定施設入居者生活介護（有料老人ホーム）】宮崎県宮崎市大字生目156番地", "url": "https://www.kaigokensaku.mhlw.go.jp/45/index.php?action_kouhyou_detail_004_kani=true&JigyosyoCd=4570103269-00&ServiceCd=331&Type=search", "url2": "http://www.grandpa-kaigo.com/" }, "geometry": { "type": "Point", "coordinates": [ 131.37967244550785, 31.919643714658104 ] } },
{ "type": "Feature", "properties": { "内容": "介護付有料老人ホームあじさい【特定施設入居者生活介護（有料老人ホーム）】宮崎県宮崎市佐土原町下田島７８２４－７", "url": "https://www.kaigokensaku.mhlw.go.jp/45/index.php?action_kouhyou_detail_004_kani=true&JigyosyoCd=4570103483-00&ServiceCd=331&Type=search", "url2": "https://ajisai.secure.idchosting.jp" }, "geometry": { "type": "Point", "coordinates": [ 131.46496, 32.036885 ] } },
{ "type": "Feature", "properties": { "内容": "介護付有料老人ホームリバティ宮崎【特定施設入居者生活介護（有料老人ホーム）】宮崎県宮崎市大字芳士字祝田1334番地1", "url": "https://www.kaigokensaku.mhlw.go.jp/45/index.php?action_kouhyou_detail_004_kani=true&JigyosyoCd=4570103517-00&ServiceCd=331&Type=search", "url2": "http://www.libertymiyazaki.com" }, "geometry": { "type": "Point", "coordinates": [ 131.44401687126026, 31.963844233946467 ] } },
{ "type": "Feature", "properties": { "内容": "社会福祉法人徳榮会介護付有料老人ホームアリビオさくら【特定施設入居者生活介護（有料老人ホーム）】宮崎県宮崎市清武町加納甲1318-1", "url": "https://www.kaigokensaku.mhlw.go.jp/45/index.php?action_kouhyou_detail_004_kani=true&JigyosyoCd=4571500653-00&ServiceCd=331&Type=search", "url2": "http://tokueikai.lar.jp/" }, "geometry": { "type": "Point", "coordinates": [ 131.389870506745893, 31.872112610677902 ] } },
{ "type": "Feature", "properties": { "内容": "介護付き有料老人ホームよりそい【特定施設入居者生活介護（有料老人ホーム）】宮崎県宮崎市大字恒久5314番地5", "url": "https://www.kaigokensaku.mhlw.go.jp/45/index.php?action_kouhyou_detail_004_kani=true&JigyosyoCd=4570110272-00&ServiceCd=331&Type=search", "url2": "http://www.kanae-kai.com" }, "geometry": { "type": "Point", "coordinates": [ 131.4122726, 31.8907402 ] } },
{ "type": "Feature", "properties": { "内容": "有料老人ホームクローバー一ッ葉【特定施設入居者生活介護（有料老人ホーム）】宮崎県宮崎市新別府町前浜1401番地319有料老人ホームクローバー一ッ葉", "url": "https://www.kaigokensaku.mhlw.go.jp/45/index.php?action_kouhyou_detail_004_kani=true&JigyosyoCd=4570109951-00&ServiceCd=331&Type=search", "url2": "http://www.seibikai-group.or.jp/group/index.html" }, "geometry": { "type": "Point", "coordinates": [ 131.458824600000014, 31.9251695 ] } },
{ "type": "Feature", "properties": { "内容": "介護付有料老人ホーム　ミューズの森都島【特定施設入居者生活介護（有料老人ホーム）】宮崎県都城市都島町123番地11", "url": "https://www.kaigokensaku.mhlw.go.jp/45/index.php?action_kouhyou_detail_004_kani=true&JigyosyoCd=4570201394-00&ServiceCd=331&Type=search", "url2": "http://hoshakai.com/" }, "geometry": { "type": "Point", "coordinates": [ 131.050508600000057, 31.7145905 ] } },
{ "type": "Feature", "properties": { "内容": "介護付有料老人ホームけあらいふ正寿の都【特定施設入居者生活介護（有料老人ホーム）】宮崎県都城市北原町２１－１６", "url": "https://www.kaigokensaku.mhlw.go.jp/45/index.php?action_kouhyou_detail_004_kani=true&JigyosyoCd=4570201402-00&ServiceCd=331&Type=search", "url2": "https://syoujyu.recruitment.jp/" }, "geometry": { "type": "Point", "coordinates": [ 131.077886700000022, 31.7334145 ] } },
{ "type": "Feature", "properties": { "内容": "介護付有料老人ホームおおぬき【特定施設入居者生活介護（有料老人ホーム）】宮崎県延岡市大貫町4丁目1320番地1株式会社日豊福祉サービス　介護付有料老人ホームおおぬき", "url": "https://www.kaigokensaku.mhlw.go.jp/45/index.php?action_kouhyou_detail_004_kani=true&JigyosyoCd=4570302770-00&ServiceCd=331&Type=search", "url2": null }, "geometry": { "type": "Point", "coordinates": [ 131.652949, 32.5779706 ] } },
{ "type": "Feature", "properties": { "内容": "有料老人ホーム「こみちの杜」【特定施設入居者生活介護（有料老人ホーム）】宮崎県延岡市北小路８－７", "url": "https://www.kaigokensaku.mhlw.go.jp/45/index.php?action_kouhyou_detail_004_kani=true&JigyosyoCd=4570300766-00&ServiceCd=331&Type=search", "url2": "http://www.yu-ryu.co.jp/paid_home/komichi/" }, "geometry": { "type": "Point", "coordinates": [ 131.665439800000058, 32.5844777 ] } },
{ "type": "Feature", "properties": { "内容": "有料老人ホーム「まつやまの杜」【特定施設入居者生活介護（有料老人ホーム）】宮崎県延岡市松山町1075", "url": "https://www.kaigokensaku.mhlw.go.jp/45/index.php?action_kouhyou_detail_004_kani=true&JigyosyoCd=4570302762-00&ServiceCd=331&Type=search", "url2": "https://www.yu-ryu.co.jp/paid_home/matsuyama/" }, "geometry": { "type": "Point", "coordinates": [ 131.6337858, 32.5834921 ] } },
{ "type": "Feature", "properties": { "内容": "有限会社潔和会　有料老人ホームよしむら苑【特定施設入居者生活介護（有料老人ホーム）】宮崎県延岡市中川原町2丁目3番2", "url": "https://www.kaigokensaku.mhlw.go.jp/45/index.php?action_kouhyou_detail_004_kani=true&JigyosyoCd=4570300816-00&ServiceCd=331&Type=search", "url2": null }, "geometry": { "type": "Point", "coordinates": [ 131.67028890000006, 32.5937578 ] } },
{ "type": "Feature", "properties": { "内容": "介護付有料老人ホーム　サクラ昭和町【特定施設入居者生活介護（有料老人ホーム）】宮崎県延岡市昭和町3丁目30番地", "url": "https://www.kaigokensaku.mhlw.go.jp/45/index.php?action_kouhyou_detail_004_kani=true&JigyosyoCd=4570302788-00&ServiceCd=331&Type=search", "url2": "https://care-line.jp/sakura-syouwamachi/" }, "geometry": { "type": "Point", "coordinates": [ 131.685585699999962, 32.589361800000034 ] } },
{ "type": "Feature", "properties": { "内容": "介護付有料老人ホームライフパーク円か【特定施設入居者生活介護（有料老人ホーム）】宮崎県延岡市大貫町２丁目１２３１番１", "url": "https://www.kaigokensaku.mhlw.go.jp/45/index.php?action_kouhyou_detail_004_kani=true&JigyosyoCd=4570301673-00&ServiceCd=331&Type=search", "url2": null }, "geometry": { "type": "Point", "coordinates": [ 131.654985300000021, 32.5770721 ] } },
{ "type": "Feature", "properties": { "内容": "介護付有料老人ホームけやき山荘【特定施設入居者生活介護（有料老人ホーム）】宮崎県延岡市平原3丁目1230番地1長沼医院隣", "url": "https://www.kaigokensaku.mhlw.go.jp/45/index.php?action_kouhyou_detail_004_kani=true&JigyosyoCd=4570301491-00&ServiceCd=331&Type=search", "url2": "http://www.midori-naganuma.com/" }, "geometry": { "type": "Point", "coordinates": [ 131.673432600000069, 32.5524893 ] } },
{ "type": "Feature", "properties": { "内容": "介護付有料老人ホームひまわり【特定施設入居者生活介護（有料老人ホーム）】宮崎県延岡市北川町８３０７番地", "url": "https://www.kaigokensaku.mhlw.go.jp/45/index.php?action_kouhyou_detail_004_kani=true&JigyosyoCd=4572100875-00&ServiceCd=331&Type=search", "url2": "http://maple@ma.wainet.ne.jp" }, "geometry": { "type": "Point", "coordinates": [ 131.649182912631773, 32.728778929000129 ] } },
{ "type": "Feature", "properties": { "内容": "介護付き有料高齢者ホーム　風のグリーンテラス【特定施設入居者生活介護（有料老人ホーム）】宮崎県日南市吾田西三丁目7番48号", "url": "https://www.kaigokensaku.mhlw.go.jp/45/index.php?action_kouhyou_detail_004_kani=true&JigyosyoCd=4570401648-00&ServiceCd=331&Type=search", "url2": null }, "geometry": { "type": "Point", "coordinates": [ 131.372522203106911, 31.610362779472911 ] } },
{ "type": "Feature", "properties": { "内容": "介護付有料老人ホームロイヤルガーデン日南【特定施設入居者生活介護（有料老人ホーム）】宮崎県日南市大字星倉1099番地2介護付有料老人ホーム　ロイヤルガーデン日南", "url": "https://www.kaigokensaku.mhlw.go.jp/45/index.php?action_kouhyou_detail_004_kani=true&JigyosyoCd=4570400384-00&ServiceCd=331&Type=search", "url2": "http://www.keiwakai.co.jp" }, "geometry": { "type": "Point", "coordinates": [ 131.359820327973836, 31.61643646302268 ] } },
{ "type": "Feature", "properties": { "内容": "上町介護付有料老人ホーム【特定施設入居者生活介護（有料老人ホーム）】宮崎県小林市堤２９１６番地５", "url": "https://www.kaigokensaku.mhlw.go.jp/45/index.php?action_kouhyou_detail_004_kani=true&JigyosyoCd=4570500589-00&ServiceCd=331&Type=search", "url2": null }, "geometry": { "type": "Point", "coordinates": [ 130.990328399999953, 31.9838356 ] } },
{ "type": "Feature", "properties": { "内容": "有料老人ホーム　マザーヒルズ【特定施設入居者生活介護（有料老人ホーム）】宮崎県小林市堤3699番地12", "url": "https://www.kaigokensaku.mhlw.go.jp/45/index.php?action_kouhyou_detail_004_kani=true&JigyosyoCd=4570500845-00&ServiceCd=331&Type=search", "url2": "http://www.tokiwa-kai.or.jp/" }, "geometry": { "type": "Point", "coordinates": [ 131.0099748, 31.9633908 ] } },
{ "type": "Feature", "properties": { "内容": "大王谷スカイホーム【特定施設入居者生活介護（有料老人ホーム）】宮崎県日向市亀崎西２丁目１５７番地", "url": "https://www.kaigokensaku.mhlw.go.jp/45/index.php?action_kouhyou_detail_004_kani=true&JigyosyoCd=4570600447-00&ServiceCd=331&Type=search", "url2": "hhtp://kokoa2004skyhome.jimdo.com/" }, "geometry": { "type": "Point", "coordinates": [ 131.63036969999996, 32.4371431 ] } },
{ "type": "Feature", "properties": { "内容": "大王谷スカイホーム２号館【特定施設入居者生活介護（有料老人ホーム）】宮崎県日向市亀崎西２丁目１５７番地", "url": "https://www.kaigokensaku.mhlw.go.jp/45/index.php?action_kouhyou_detail_004_kani=true&JigyosyoCd=4570600546-00&ServiceCd=331&Type=search", "url2": "http://kokoa2004skyhome.jimdo.com/" }, "geometry": { "type": "Point", "coordinates": [ 131.63036969999996, 32.4371431 ] } },
{ "type": "Feature", "properties": { "内容": "介護付きホームふくじゅそう【特定施設入居者生活介護（有料老人ホーム）】宮崎県日向市大字日知屋１４６９３番地１", "url": "https://www.kaigokensaku.mhlw.go.jp/45/index.php?action_kouhyou_detail_004_kani=true&JigyosyoCd=4570601254-00&ServiceCd=331&Type=search", "url2": "https://www.fukuju-hyuga.com/" }, "geometry": { "type": "Point", "coordinates": [ 131.636825376721191, 32.45130666887588 ] } },
{ "type": "Feature", "properties": { "内容": "介護付有料老人ホームひむかの郷【特定施設入居者生活介護（有料老人ホーム）】日向市大字日知屋櫛の山1382番20", "url": "https://www.kaigokensaku.mhlw.go.jp/45/index.php?action_kouhyou_detail_004_kani=true&JigyosyoCd=4570600504-00&ServiceCd=331&Type=search", "url2": "http://www.hakuyou.or.jp" }, "geometry": { "type": "Point", "coordinates": [ 131.643650689593642, 32.411769662534191 ] } },
{ "type": "Feature", "properties": { "内容": "介護付有料老人ホームほそしま【特定施設入居者生活介護（有料老人ホーム）】宮崎県日向市大字日知屋古田町11番地1", "url": "https://www.kaigokensaku.mhlw.go.jp/45/index.php?action_kouhyou_detail_004_kani=true&JigyosyoCd=4570600561-00&ServiceCd=331&Type=search", "url2": "http://www.haradagr-dp.co.jp/" }, "geometry": { "type": "Point", "coordinates": [ 131.654879299999948, 32.4253977 ] } },
{ "type": "Feature", "properties": { "内容": "特定施設入居者生活介護事業所幸せホームあすか【特定施設入居者生活介護（有料老人ホーム）】宮崎県串間市大字西方３６７６番地", "url": "https://www.kaigokensaku.mhlw.go.jp/45/index.php?action_kouhyou_detail_004_kani=true&JigyosyoCd=4570700429-00&ServiceCd=331&Type=search", "url2": "https://www.tatugutikai.jp/" }, "geometry": { "type": "Point", "coordinates": [ 131.234491599999956, 31.4759542 ] } },
{ "type": "Feature", "properties": { "内容": "介護付有料老人ホームエリシオン聖陵【特定施設入居者生活介護（有料老人ホーム）】宮崎県西都市大字妻平田１５１８－１", "url": "https://www.kaigokensaku.mhlw.go.jp/45/index.php?action_kouhyou_detail_004_kani=true&JigyosyoCd=4570800385-00&ServiceCd=331&Type=search", "url2": "http://elysion-m.main.jp/" }, "geometry": { "type": "Point", "coordinates": [ 131.399787911114572, 32.107446629942942 ] } },
{ "type": "Feature", "properties": { "内容": "介護付き有料老人ホームさつき苑【特定施設入居者生活介護（有料老人ホーム）】大字亀沢391番地1号", "url": "https://www.kaigokensaku.mhlw.go.jp/45/index.php?action_kouhyou_detail_004_kani=true&JigyosyoCd=4570900532-00&ServiceCd=331&Type=search", "url2": null }, "geometry": { "type": "Point", "coordinates": [ 130.751888, 32.0376703 ] } },
{ "type": "Feature", "properties": { "内容": "けあらいふ正寿の杜【特定施設入居者生活介護（有料老人ホーム）】宮崎県北諸県郡三股町大字蓼池4612番地1", "url": "https://www.kaigokensaku.mhlw.go.jp/45/index.php?action_kouhyou_detail_004_kani=true&JigyosyoCd=4571700642-00&ServiceCd=331&Type=search", "url2": "https://syoujyu.recruitment.jp/syoujumori/" }, "geometry": { "type": "Point", "coordinates": [ 131.111050500000033, 31.7620935 ] } },
{ "type": "Feature", "properties": { "内容": "サービス付き高齢者向け住宅（介護付き有料老人ホーム）　やすらぎの杜【特定施設入居者生活介護（有料老人ホーム）】宮崎県東諸県郡綾町大字入野3282-1やすらぎの杜", "url": "https://www.kaigokensaku.mhlw.go.jp/45/index.php?action_kouhyou_detail_004_kani=true&JigyosyoCd=4571901059-00&ServiceCd=331&Type=search", "url2": "http://yasuragi-sato.main.jp/" }, "geometry": { "type": "Point", "coordinates": [ 131.270630130024728, 31.998320373544814 ] } },
{ "type": "Feature", "properties": { "内容": "介護付有料老人ホーム　サクラ高鍋【特定施設入居者生活介護（有料老人ホーム）】宮崎県児湯郡高鍋町大字上江6649番地123", "url": "https://www.kaigokensaku.mhlw.go.jp/45/index.php?action_kouhyou_detail_004_kani=true&JigyosyoCd=4572002063-00&ServiceCd=331&Type=search", "url2": "https://care-line.jp/sakura-takanabe/" }, "geometry": { "type": "Point", "coordinates": [ 131.469336892578241, 32.11546927365346 ] } },
{ "type": "Feature", "properties": { "内容": "介護付有料老人ホーム美老苑【特定施設入居者生活介護（有料老人ホーム）】宮崎県児湯郡新富町大字上富田字井ノ木田3191番地1", "url": "https://www.kaigokensaku.mhlw.go.jp/45/index.php?action_kouhyou_detail_004_kani=true&JigyosyoCd=4572001875-00&ServiceCd=331&Type=search", "url2": null }, "geometry": { "type": "Point", "coordinates": [ 131.479367349623004, 32.0566690092991 ] } },
{ "type": "Feature", "properties": { "内容": "介護付有料老人ホーム　くるみの家【特定施設入居者生活介護（有料老人ホーム）】宮崎県児湯郡川南町川南14383", "url": "https://www.kaigokensaku.mhlw.go.jp/45/index.php?action_kouhyou_detail_004_kani=true&JigyosyoCd=4572001883-00&ServiceCd=331&Type=search", "url2": "http://kuruminomori,jp" }, "geometry": { "type": "Point", "coordinates": [ 131.506094, 32.1960701 ] } },
{ "type": "Feature", "properties": { "内容": "介護付有料老人ホームすみれ【特定施設入居者生活介護（有料老人ホーム）】宮崎県児湯郡川南町大字川南１６１３８番地１２", "url": "https://www.kaigokensaku.mhlw.go.jp/45/index.php?action_kouhyou_detail_004_kani=true&JigyosyoCd=4572001644-00&ServiceCd=331&Type=search", "url2": "https://www.sakumatsu.jp/" }, "geometry": { "type": "Point", "coordinates": [ 131.52206620000004, 32.1880402 ] } },
{ "type": "Feature", "properties": { "内容": "ぶどうのみ【特定施設入居者生活介護（有料老人ホーム）】宮崎県児湯郡都農町大字川北4707番地7", "url": "https://www.kaigokensaku.mhlw.go.jp/45/index.php?action_kouhyou_detail_004_kani=true&JigyosyoCd=4572000802-00&ServiceCd=331&Type=search", "url2": "http://budounomisora.web.fc2.com/" }, "geometry": { "type": "Point", "coordinates": [ 131.557268600000043, 32.2505352 ] } },
{ "type": "Feature", "properties": { "内容": "介護付有料老人ホーム海の館【特定施設入居者生活介護（有料老人ホーム）】宮崎県東臼杵郡門川町中須1丁目3番7", "url": "https://www.kaigokensaku.mhlw.go.jp/45/index.php?action_kouhyou_detail_004_kani=true&JigyosyoCd=4572100743-00&ServiceCd=331&Type=search", "url2": null }, "geometry": { "type": "Point", "coordinates": [ 131.650466899999969, 32.467537199999967 ] } }
]
}
