{
"type": "FeatureCollection",
"name": "geo_45_看護小規模多機能型居宅介護（複合型サービス）",
"crs": { "type": "name", "properties": { "name": "urn:ogc:def:crs:OGC:1.3:CRS84" } },
"features": [
{ "type": "Feature", "properties": { "内容": "看護小規模多機能型居宅介護　らふーら【看護小規模多機能型居宅介護（複合型サービス）】宮崎県宮崎市小松2987-1", "url": "https://www.kaigokensaku.mhlw.go.jp/45/index.php?action_kouhyou_detail_004_kani=true&JigyosyoCd=4590101012-00&ServiceCd=&Type=search", "url2": "https://laughterlife.info/" }, "geometry": { "type": "Point", "coordinates": [ 131.38507960000004, 31.9284032 ] } },
{ "type": "Feature", "properties": { "内容": "看護小規模多機能型居宅介護事業所やわらぎ【看護小規模多機能型居宅介護（複合型サービス）】宮崎県宮崎市大字小松1133番地カーサ・アルバ壱番館2階", "url": "https://www.kaigokensaku.mhlw.go.jp/45/index.php?action_kouhyou_detail_004_kani=true&JigyosyoCd=4590100808-00&ServiceCd=&Type=search", "url2": "http://www.junwakai.com" }, "geometry": { "type": "Point", "coordinates": [ 131.4019563, 31.9349329 ] } },
{ "type": "Feature", "properties": { "内容": "看護小規模多機能型居宅介護　はなまる【看護小規模多機能型居宅介護（複合型サービス）】宮崎市佐土原町下田島12133番地45", "url": "https://www.kaigokensaku.mhlw.go.jp/45/index.php?action_kouhyou_detail_004_kani=true&JigyosyoCd=4590101020-00&ServiceCd=&Type=search", "url2": "htpp://www.minori-hanamaru.com" }, "geometry": { "type": "Point", "coordinates": [ 131.473957121426395, 32.032287455700789 ] } },
{ "type": "Feature", "properties": { "内容": "看護小規模多機能型居宅介護はなまる縁【看護小規模多機能型居宅介護（複合型サービス）】佐土原町上田島８１１３番地１", "url": "https://www.kaigokensaku.mhlw.go.jp/45/index.php?action_kouhyou_detail_004_kani=true&JigyosyoCd=4590101186-00&ServiceCd=&Type=search", "url2": "htpp://www.minori-hanamaru." }, "geometry": { "type": "Point", "coordinates": [ 131.423113145629884, 32.051206958314282 ] } },
{ "type": "Feature", "properties": { "内容": "看護小規模多機能型居宅介護サークルパワー【看護小規模多機能型居宅介護（複合型サービス）】宮崎県宮崎市新別府町前浜1401番地267", "url": "https://www.kaigokensaku.mhlw.go.jp/45/index.php?action_kouhyou_detail_004_kani=true&JigyosyoCd=4590101210-00&ServiceCd=&Type=search", "url2": "http://www.yamamoto-urology.jp/" }, "geometry": { "type": "Point", "coordinates": [ 131.458824600000014, 31.9251695 ] } },
{ "type": "Feature", "properties": { "内容": "ニチイケアセンター西小路【看護小規模多機能型居宅介護（複合型サービス）】宮崎県延岡市西小路６番地６", "url": "https://www.kaigokensaku.mhlw.go.jp/45/index.php?action_kouhyou_detail_004_kani=true&JigyosyoCd=4590300226-00&ServiceCd=&Type=search", "url2": "http://www.nichiigakkan.co.jp" }, "geometry": { "type": "Point", "coordinates": [ 131.6633296, 32.5716118 ] } },
{ "type": "Feature", "properties": { "内容": "セントケア看護小規模緑ヶ丘【看護小規模多機能型居宅介護（複合型サービス）】宮崎県延岡市緑ヶ丘2丁目11-24", "url": "https://www.kaigokensaku.mhlw.go.jp/45/index.php?action_kouhyou_detail_004_kani=true&JigyosyoCd=4590300267-00&ServiceCd=&Type=search", "url2": null }, "geometry": { "type": "Point", "coordinates": [ 131.683037300000024, 32.5565977 ] } },
{ "type": "Feature", "properties": { "内容": "憩いの郷みつぜ【看護小規模多機能型居宅介護（複合型サービス）】三ツ瀬町2丁目2番地5", "url": "https://www.kaigokensaku.mhlw.go.jp/45/index.php?action_kouhyou_detail_004_kani=true&JigyosyoCd=4590300168-00&ServiceCd=&Type=search", "url2": "http://www.adoniskaigo.com/" }, "geometry": { "type": "Point", "coordinates": [ 131.668549059663405, 32.574035825895969 ] } },
{ "type": "Feature", "properties": { "内容": "看護小規模多機能音OTO【看護小規模多機能型居宅介護（複合型サービス）】宮崎県日向市大字財光寺字中ノ原1182-2", "url": "https://www.kaigokensaku.mhlw.go.jp/45/index.php?action_kouhyou_detail_004_kani=true&JigyosyoCd=4590600195-00&ServiceCd=&Type=search", "url2": "https://lovelove55.jp/" }, "geometry": { "type": "Point", "coordinates": [ 131.62914790387137, 32.404345673212944 ] } },
{ "type": "Feature", "properties": { "内容": "看護小規模多機能型居宅介護LifeForest【看護小規模多機能型居宅介護（複合型サービス）】宮崎県児湯郡木城町大字椎木4646番地2", "url": "https://www.kaigokensaku.mhlw.go.jp/45/index.php?action_kouhyou_detail_004_kani=true&JigyosyoCd=4592000170-00&ServiceCd=&Type=search", "url2": "https://re-plus-life.com" }, "geometry": { "type": "Point", "coordinates": [ 131.469468299999988, 32.1571779 ] } },
{ "type": "Feature", "properties": { "内容": "看護小規模多機能ホームこばる【看護小規模多機能型居宅介護（複合型サービス）】宮崎県東臼杵郡門川町東栄町2丁目2番１", "url": "https://www.kaigokensaku.mhlw.go.jp/45/index.php?action_kouhyou_detail_004_kani=true&JigyosyoCd=4592100095-00&ServiceCd=&Type=search", "url2": null }, "geometry": { "type": "Point", "coordinates": [ 131.652353, 32.476023 ] } }
]
}
