{
"type": "FeatureCollection",
"name": "geo_45_訪問リハビリテーション",
"crs": { "type": "name", "properties": { "name": "urn:ogc:def:crs:OGC:1.3:CRS84" } },
"features": [
{ "type": "Feature", "properties": { "内容": "医療法人雅会河野整形外科【訪問リハビリテーション】宮崎市大字島之内7309", "url": "https://www.kaigokensaku.mhlw.go.jp/45/index.php?action_kouhyou_detail_004_kani=true&JigyosyoCd=4510114376-00&ServiceCd=140&Type=search", "url2": "https://www.miyabi-kai.or.jp/" }, "geometry": { "type": "Point", "coordinates": [ 131.4510725, 31.9855167 ] } },
{ "type": "Feature", "properties": { "内容": "野崎東病院【訪問リハビリテーション】宮崎県宮崎市村角町高尊2105番地", "url": "https://www.kaigokensaku.mhlw.go.jp/45/index.php?action_kouhyou_detail_004_kani=true&JigyosyoCd=4570104788-00&ServiceCd=140&Type=search", "url2": "https://www.koujunkai.jp/nozaki_h" }, "geometry": { "type": "Point", "coordinates": [ 131.4468219441803, 31.958124919699152 ] } },
{ "type": "Feature", "properties": { "内容": "社会医療法人耕和会あおしまのえ【訪問リハビリテーション】宮崎県宮崎市青島４丁目６−３", "url": "https://www.kaigokensaku.mhlw.go.jp/45/index.php?action_kouhyou_detail_004_kani=true&JigyosyoCd=4550180014-00&ServiceCd=140&Type=search", "url2": "https://www.kowakai.jp/aosimaneue/" }, "geometry": { "type": "Point", "coordinates": [ 131.4693097, 31.7957395 ] } },
{ "type": "Feature", "properties": { "内容": "宮崎生協病院【訪問リハビリテーション】宮崎県宮崎市大島町天神前１１７１", "url": "https://www.kaigokensaku.mhlw.go.jp/45/index.php?action_kouhyou_detail_004_kani=true&JigyosyoCd=4510116819-00&ServiceCd=140&Type=search", "url2": "http://m-seikyouhp.com" }, "geometry": { "type": "Point", "coordinates": [ 131.43882229999997, 31.9380673 ] } },
{ "type": "Feature", "properties": { "内容": "宮崎医療センター病院【訪問リハビリテーション】宮崎県宮崎市高松町2番16号", "url": "https://www.kaigokensaku.mhlw.go.jp/45/index.php?action_kouhyou_detail_004_kani=true&JigyosyoCd=4510113113-00&ServiceCd=140&Type=search", "url2": "http://www.jojinkai.com/miyazaki/" }, "geometry": { "type": "Point", "coordinates": [ 131.418918800000029, 31.9137006 ] } },
{ "type": "Feature", "properties": { "内容": "クリニックうしたに【訪問リハビリテーション】宮崎市大字恒久5065番地", "url": "https://www.kaigokensaku.mhlw.go.jp/45/index.php?action_kouhyou_detail_004_kani=true&JigyosyoCd=4570104820-00&ServiceCd=140&Type=search", "url2": "www.ushitani.com/" }, "geometry": { "type": "Point", "coordinates": [ 131.428946399999973, 31.894839 ] } },
{ "type": "Feature", "properties": { "内容": "一般財団法人潤和リハビリテーション振興財団　潤和会記念病院訪問ﾘﾊﾋﾞﾘﾃｰｼｮﾝ事業所【訪問リハビリテーション】宮崎県宮崎市大字小松1119番地", "url": "https://www.kaigokensaku.mhlw.go.jp/45/index.php?action_kouhyou_detail_004_kani=true&JigyosyoCd=4510113485-00&ServiceCd=140&Type=search", "url2": "http://www.zaitaku.junwakai.com/" }, "geometry": { "type": "Point", "coordinates": [ 131.402882449670301, 31.935586148946062 ] } },
{ "type": "Feature", "properties": { "内容": "介護老人保健施設ひむか苑【訪問リハビリテーション】宮崎県宮崎市大字小松1158番地", "url": "https://www.kaigokensaku.mhlw.go.jp/45/index.php?action_kouhyou_detail_004_kani=true&JigyosyoCd=4550180097-00&ServiceCd=140&Type=search", "url2": "http://www.himukaen.junwakai.com/" }, "geometry": { "type": "Point", "coordinates": [ 131.402800699999943, 31.9338962 ] } },
{ "type": "Feature", "properties": { "内容": "宮崎江南病院　訪問リハビリテーション事業所【訪問リハビリテーション】大坪西1-2-1", "url": "https://www.kaigokensaku.mhlw.go.jp/45/index.php?action_kouhyou_detail_004_kani=true&JigyosyoCd=4518110038-00&ServiceCd=140&Type=search", "url2": "http://miyazaki.jcho.go.jp" }, "geometry": { "type": "Point", "coordinates": [ 131.404973499999983, 31.8962016 ] } },
{ "type": "Feature", "properties": { "内容": "医療法人社団にしぞの内科【訪問リハビリテーション】宮崎県宮崎市高岡町飯田4丁目1番地8", "url": "https://www.kaigokensaku.mhlw.go.jp/45/index.php?action_kouhyou_detail_004_kani=true&JigyosyoCd=4510117874-00&ServiceCd=140&Type=search", "url2": "https://www.nishizononaika.jp" }, "geometry": { "type": "Point", "coordinates": [ 131.303938600000038, 31.9562371 ] } },
{ "type": "Feature", "properties": { "内容": "いしかわ内科【訪問リハビリテーション】宮崎県宮崎市神宮西１－４９－１", "url": "https://www.kaigokensaku.mhlw.go.jp/45/index.php?action_kouhyou_detail_004_kani=true&JigyosyoCd=4510115605-00&ServiceCd=140&Type=search", "url2": "https://www.sanyu-kai.or.jp/" }, "geometry": { "type": "Point", "coordinates": [ 131.417529400000035, 31.9361229 ] } },
{ "type": "Feature", "properties": { "内容": "介護老人保健施設シルバーケア野崎【訪問リハビリテーション】宮崎県宮崎市村角町高尊2105", "url": "https://www.kaigokensaku.mhlw.go.jp/45/index.php?action_kouhyou_detail_004_kani=true&JigyosyoCd=4550180022-00&ServiceCd=140&Type=search", "url2": "https://www.koujunkai.jp/scare/" }, "geometry": { "type": "Point", "coordinates": [ 131.4467683, 31.9578928 ] } },
{ "type": "Feature", "properties": { "内容": "サンヒルきよたけ【訪問リハビリテーション】宮崎県宮崎市清武町木原５８８６番地１６", "url": "https://www.kaigokensaku.mhlw.go.jp/45/index.php?action_kouhyou_detail_004_kani=true&JigyosyoCd=4571500729-00&ServiceCd=140&Type=search", "url2": "https://www.suntaiyo.jp/sunhill/" }, "geometry": { "type": "Point", "coordinates": [ 131.395040099999989, 31.8384093 ] } },
{ "type": "Feature", "properties": { "内容": "医療法人青葉会のざきクリニック【訪問リハビリテーション】宮崎県宮崎市宮崎駅前３丁目9-13", "url": "https://www.kaigokensaku.mhlw.go.jp/45/index.php?action_kouhyou_detail_004_kani=true&JigyosyoCd=4510119516-00&ServiceCd=140&Type=search", "url2": "https：//nc-aobakai.or.jp" }, "geometry": { "type": "Point", "coordinates": [ 131.432736737434368, 31.919422086069883 ] } },
{ "type": "Feature", "properties": { "内容": "青島リゾートクリニック【訪問リハビリテーション】宮崎市加江田５６４６番地１", "url": "https://www.kaigokensaku.mhlw.go.jp/45/index.php?action_kouhyou_detail_004_kani=true&JigyosyoCd=4510120399-00&ServiceCd=140&Type=search", "url2": "http://www.seibikai-group.or.jp/" }, "geometry": { "type": "Point", "coordinates": [ 131.4457085, 31.811328 ] } },
{ "type": "Feature", "properties": { "内容": "医療法人社団牧会　小牧病院訪問リハビリテーション【訪問リハビリテーション】都城市立野町5-5-1", "url": "https://www.kaigokensaku.mhlw.go.jp/45/index.php?action_kouhyou_detail_004_kani=true&JigyosyoCd=4510211677-00&ServiceCd=140&Type=search", "url2": "http://www.makikai.com/" }, "geometry": { "type": "Point", "coordinates": [ 131.09308580000004, 31.7312179 ] } },
{ "type": "Feature", "properties": { "内容": "一般社団法人藤元メディカルシステム藤元総合病院【訪問リハビリテーション】宮崎県都城市早鈴町17-1", "url": "https://www.kaigokensaku.mhlw.go.jp/45/index.php?action_kouhyou_detail_004_kani=true&JigyosyoCd=4510210018-00&ServiceCd=140&Type=search", "url2": "http://www.fujimoto.or.jp/" }, "geometry": { "type": "Point", "coordinates": [ 131.0663128, 31.7180017 ] } },
{ "type": "Feature", "properties": { "内容": "医療法人社団静雄会　藤元上町病院【訪問リハビリテーション】宮崎県都城市上町10街区２４号藤元上町病院", "url": "https://www.kaigokensaku.mhlw.go.jp/45/index.php?action_kouhyou_detail_004_kani=true&JigyosyoCd=4510212881-00&ServiceCd=140&Type=search", "url2": "https://www.shizuokai.or.jp/" }, "geometry": { "type": "Point", "coordinates": [ 131.0647601, 31.7240532 ] } },
{ "type": "Feature", "properties": { "内容": "鵜木循環器内科医院　訪問リハビリテーション事業所【訪問リハビリテーション】花繰町１１－１０", "url": "https://www.kaigokensaku.mhlw.go.jp/45/index.php?action_kouhyou_detail_004_kani=true&JigyosyoCd=4510213400-00&ServiceCd=140&Type=search", "url2": "https://unoki-hp.com" }, "geometry": { "type": "Point", "coordinates": [ 131.0836132, 31.7260541 ] } },
{ "type": "Feature", "properties": { "内容": "ライフクリニック【訪問リハビリテーション】宮崎県都城市安久町6337番地2", "url": "https://www.kaigokensaku.mhlw.go.jp/45/index.php?action_kouhyou_detail_004_kani=true&JigyosyoCd=4510213582-00&ServiceCd=140&Type=search", "url2": "http://www.houei-group.or.jp/clinic/index2.html" }, "geometry": { "type": "Point", "coordinates": [ 131.076618300000064, 31.7015563 ] } },
{ "type": "Feature", "properties": { "内容": "医療法人社団森山内科・脳神経外科【訪問リハビリテーション】宮崎県都城市南鷹尾町２４－２０", "url": "https://www.kaigokensaku.mhlw.go.jp/45/index.php?action_kouhyou_detail_004_kani=true&JigyosyoCd=4510212659-00&ServiceCd=140&Type=search", "url2": "http://www.mwg.or.jp" }, "geometry": { "type": "Point", "coordinates": [ 131.041129, 31.7205759 ] } },
{ "type": "Feature", "properties": { "内容": "宮永病院【訪問リハビリテーション】宮崎県都城市松元町１５－１０", "url": "https://www.kaigokensaku.mhlw.go.jp/45/index.php?action_kouhyou_detail_004_kani=true&JigyosyoCd=4510211842-00&ServiceCd=140&Type=search", "url2": "http://www.miyanaga.or.jp" }, "geometry": { "type": "Point", "coordinates": [ 131.059140800000023, 31.7248564 ] } },
{ "type": "Feature", "properties": { "内容": "杉本病院介護医療院訪問リハビリテーション【訪問リハビリテーション】宮崎県延岡市三ツ瀬町1丁目11番地5", "url": "https://www.kaigokensaku.mhlw.go.jp/45/index.php?action_kouhyou_detail_004_kani=true&JigyosyoCd=45B0300031-00&ServiceCd=140&Type=search", "url2": "https://sugimoto-hp.jp" }, "geometry": { "type": "Point", "coordinates": [ 131.665806300000014, 32.5752781 ] } },
{ "type": "Feature", "properties": { "内容": "mesmo【訪問リハビリテーション】宮崎県　延岡市　古城町　4丁目　131", "url": "https://www.kaigokensaku.mhlw.go.jp/45/index.php?action_kouhyou_detail_004_kani=true&JigyosyoCd=4510312566-00&ServiceCd=140&Type=search", "url2": "https://sakaiclinic-nobeoka.com/" }, "geometry": { "type": "Point", "coordinates": [ 131.657639169311523, 32.566368603166339 ] } },
{ "type": "Feature", "properties": { "内容": "医療法人伸和会延岡共立病院【訪問リハビリテーション】宮崎県延岡市山月町5丁目5679番地1", "url": "https://www.kaigokensaku.mhlw.go.jp/45/index.php?action_kouhyou_detail_004_kani=true&JigyosyoCd=4510312707-00&ServiceCd=140&Type=search", "url2": "http://www.nobeoka-kyoritu.or.jp/" }, "geometry": { "type": "Point", "coordinates": [ 131.664274581614677, 32.600398261416665 ] } },
{ "type": "Feature", "properties": { "内容": "延岡リハビリテーション病院　訪問リハビリテーション【訪問リハビリテーション】宮崎県延岡市長浜町１丁目１７７７番地", "url": "https://www.kaigokensaku.mhlw.go.jp/45/index.php?action_kouhyou_detail_004_kani=true&JigyosyoCd=4510310859-00&ServiceCd=140&Type=search", "url2": "https://www.nobereha.junwakai.com/" }, "geometry": { "type": "Point", "coordinates": [ 131.691088799999989, 32.5755352 ] } },
{ "type": "Feature", "properties": { "内容": "医療法人伸和会介護老人保健施設東海園【訪問リハビリテーション】宮崎県延岡市川島町1080番地5", "url": "https://www.kaigokensaku.mhlw.go.jp/45/index.php?action_kouhyou_detail_004_kani=true&JigyosyoCd=4550380044-00&ServiceCd=140&Type=search", "url2": "http://www.nobeoka-kyoritu.or.jp/toumien/" }, "geometry": { "type": "Point", "coordinates": [ 131.7024575, 32.6192766 ] } },
{ "type": "Feature", "properties": { "内容": "医療法人文誠会なんごう病院【訪問リハビリテーション】宮崎県日南市南郷町中村乙２１０１番地", "url": "https://www.kaigokensaku.mhlw.go.jp/45/index.php?action_kouhyou_detail_004_kani=true&JigyosyoCd=4510411111-00&ServiceCd=140&Type=search", "url2": "https://nango-h.com/" }, "geometry": { "type": "Point", "coordinates": [ 131.378781600000025, 31.5393403 ] } },
{ "type": "Feature", "properties": { "内容": "日南市立中部病院【訪問リハビリテーション】宮崎県日南市大堂津五丁目10番1号", "url": "https://www.kaigokensaku.mhlw.go.jp/45/index.php?action_kouhyou_detail_004_kani=true&JigyosyoCd=4510411178-00&ServiceCd=140&Type=search", "url2": "http://chubu.city.nichinan.lg.jp/" }, "geometry": { "type": "Point", "coordinates": [ 131.37977879999994, 31.5493449 ] } },
{ "type": "Feature", "properties": { "内容": "介護老人保健施設おびの里【訪問リハビリテーション】飫肥6丁目1-15", "url": "https://www.kaigokensaku.mhlw.go.jp/45/index.php?action_kouhyou_detail_004_kani=true&JigyosyoCd=4550480034-00&ServiceCd=140&Type=search", "url2": "http://www.keimei.or.jp/obichuo/sato" }, "geometry": { "type": "Point", "coordinates": [ 131.3553555, 31.6246176 ] } },
{ "type": "Feature", "properties": { "内容": "介護老人保健施設すこやかセンターこばやし【訪問リハビリテーション】宮崎県小林市細野2033番地", "url": "https://www.kaigokensaku.mhlw.go.jp/45/index.php?action_kouhyou_detail_004_kani=true&JigyosyoCd=4550580015-00&ServiceCd=140&Type=search", "url2": "http://www.maeharahospital.jp/" }, "geometry": { "type": "Point", "coordinates": [ 130.9799025, 31.9891957 ] } },
{ "type": "Feature", "properties": { "内容": "ほりファミリークリニック【訪問リハビリテーション】宮崎県小林市細野４３６−１０", "url": "https://www.kaigokensaku.mhlw.go.jp/45/index.php?action_kouhyou_detail_004_kani=true&JigyosyoCd=4510510532-00&ServiceCd=140&Type=search", "url2": null }, "geometry": { "type": "Point", "coordinates": [ 130.9711101, 31.9951743 ] } },
{ "type": "Feature", "properties": { "内容": "介護老人保健施設慶穣塾【訪問リハビリテーション】宮崎県日向市大字塩見10947-1", "url": "https://www.kaigokensaku.mhlw.go.jp/45/index.php?action_kouhyou_detail_004_kani=true&JigyosyoCd=4550680005-00&ServiceCd=140&Type=search", "url2": "http://takii-hospital.com/." }, "geometry": { "type": "Point", "coordinates": [ 131.594738, 32.4106635 ] } },
{ "type": "Feature", "properties": { "内容": "医療法人杏林会三股病院【訪問リハビリテーション】美々津町3870番地", "url": "https://www.kaigokensaku.mhlw.go.jp/45/index.php?action_kouhyou_detail_004_kani=true&JigyosyoCd=4510610118-00&ServiceCd=140&Type=search", "url2": null }, "geometry": { "type": "Point", "coordinates": [ 131.604817300000036, 32.3312139 ] } },
{ "type": "Feature", "properties": { "内容": "介護老人保健施設　メディケア盛年館【訪問リハビリテーション】宮崎県日向市向江町1丁目196番地2", "url": "https://www.kaigokensaku.mhlw.go.jp/45/index.php?action_kouhyou_detail_004_kani=true&JigyosyoCd=4570601346-00&ServiceCd=140&Type=search", "url2": "http://seinenkan.jp/" }, "geometry": { "type": "Point", "coordinates": [ 131.629129199999966, 32.429281 ] } },
{ "type": "Feature", "properties": { "内容": "串間市民病院【訪問リハビリテーション】宮崎県串間市大字西方7917", "url": "https://www.kaigokensaku.mhlw.go.jp/45/index.php?action_kouhyou_detail_004_kani=true&JigyosyoCd=4510710298-00&ServiceCd=140&Type=search", "url2": "http://www.kushima-municipal-hospital.com" }, "geometry": { "type": "Point", "coordinates": [ 131.217913100000033, 31.4644266 ] } },
{ "type": "Feature", "properties": { "内容": "三財病院訪問リハビリテーション【訪問リハビリテーション】宮崎県西都市大字下三財３３７８番地", "url": "https://www.kaigokensaku.mhlw.go.jp/45/index.php?action_kouhyou_detail_004_kani=true&JigyosyoCd=4570800740-00&ServiceCd=140&Type=search", "url2": null }, "geometry": { "type": "Point", "coordinates": [ 131.3593304, 32.0609414 ] } },
{ "type": "Feature", "properties": { "内容": "社会医療法人　隆徳会　鶴田病院【訪問リハビリテーション】宮崎県西都市御舟町1丁目78番地", "url": "https://www.kaigokensaku.mhlw.go.jp/45/index.php?action_kouhyou_detail_004_kani=true&JigyosyoCd=4510810361-00&ServiceCd=140&Type=search", "url2": "http://www.ryutoku.or.jp" }, "geometry": { "type": "Point", "coordinates": [ 131.4038134, 32.1104814 ] } },
{ "type": "Feature", "properties": { "内容": "社会福祉法人慶明会介護老人保健施設サンフローラみやざき　訪問リハビリテーション【訪問リハビリテーション】宮崎県東諸県郡国富町大字岩知野355番地", "url": "https://www.kaigokensaku.mhlw.go.jp/45/index.php?action_kouhyou_detail_004_kani=true&JigyosyoCd=4571901000-00&ServiceCd=140&Type=search", "url2": "www.keimeisw.or.jp" }, "geometry": { "type": "Point", "coordinates": [ 131.369139074189889, 31.97351042464922 ] } },
{ "type": "Feature", "properties": { "内容": "小村医院【訪問リハビリテーション】宮崎県児湯郡新富町大字新田４８１番地１", "url": "https://www.kaigokensaku.mhlw.go.jp/45/index.php?action_kouhyou_detail_004_kani=true&JigyosyoCd=4512010895-00&ServiceCd=140&Type=search", "url2": null }, "geometry": { "type": "Point", "coordinates": [ 131.460672599999953, 32.064423 ] } },
{ "type": "Feature", "properties": { "内容": "川南病院【訪問リハビリテーション】宮崎県児湯郡川南町大字川南１８１５０番地４７川南病院", "url": "https://www.kaigokensaku.mhlw.go.jp/45/index.php?action_kouhyou_detail_004_kani=true&JigyosyoCd=4512010804-00&ServiceCd=140&Type=search", "url2": "http://kawaminami.or.jp/" }, "geometry": { "type": "Point", "coordinates": [ 131.517115500000045, 32.2160541 ] } }
]
}
