{
"type": "FeatureCollection",
"name": "geo_45_認知症対応型共同生活介護",
"crs": { "type": "name", "properties": { "name": "urn:ogc:def:crs:OGC:1.3:CRS84" } },
"features": [
{ "type": "Feature", "properties": { "内容": "シルヴァーリージャ【認知症対応型共同生活介護】宮崎県宮崎市大字加江田4540-3", "url": "https://www.kaigokensaku.mhlw.go.jp/45/index.php?action_kouhyou_detail_004_kani=true&JigyosyoCd=4590100105-00&ServiceCd=320&Type=search", "url2": "http://www.sishinfukushikai.jp/" }, "geometry": { "type": "Point", "coordinates": [ 131.447453, 31.8137124 ] } },
{ "type": "Feature", "properties": { "内容": "グループホームおおつかの家【認知症対応型共同生活介護】宮崎県宮崎市大塚町西ノ後3435番地1", "url": "https://www.kaigokensaku.mhlw.go.jp/45/index.php?action_kouhyou_detail_004_kani=true&JigyosyoCd=4590100501-00&ServiceCd=320&Type=search", "url2": null }, "geometry": { "type": "Point", "coordinates": [ 131.391396399999962, 31.9108244 ] } },
{ "type": "Feature", "properties": { "内容": "グループホーム年輪【認知症対応型共同生活介護】宮崎県宮崎市大字恒久5983番地1", "url": "https://www.kaigokensaku.mhlw.go.jp/45/index.php?action_kouhyou_detail_004_kani=true&JigyosyoCd=4590101111-00&ServiceCd=320&Type=search", "url2": null }, "geometry": { "type": "Point", "coordinates": [ 131.405228699999924, 31.8896789 ] } },
{ "type": "Feature", "properties": { "内容": "グループホームかがやき【認知症対応型共同生活介護】宮崎県宮崎市佐土原町下田島12373-1", "url": "https://www.kaigokensaku.mhlw.go.jp/45/index.php?action_kouhyou_detail_004_kani=true&JigyosyoCd=4571500513-00&ServiceCd=320&Type=search", "url2": null }, "geometry": { "type": "Point", "coordinates": [ 131.467533753906309, 32.035865731663435 ] } },
{ "type": "Feature", "properties": { "内容": "グループホームうしたに将優館【認知症対応型共同生活介護】宮崎県宮崎市大字恒久字西原5064番地", "url": "https://www.kaigokensaku.mhlw.go.jp/45/index.php?action_kouhyou_detail_004_kani=true&JigyosyoCd=4570103236-00&ServiceCd=320&Type=search", "url2": "http://www.ushitani.com/" }, "geometry": { "type": "Point", "coordinates": [ 131.428946399999973, 31.894839 ] } },
{ "type": "Feature", "properties": { "内容": "グループホーム　かがやき【認知症対応型共同生活介護】宮崎県佐土原町下田島12373-1", "url": "https://www.kaigokensaku.mhlw.go.jp/45/index.php?action_kouhyou_detail_004_kani=true&JigyosyoCd=4590101475-00&ServiceCd=320&Type=search", "url2": null }, "geometry": { "type": "Point", "coordinates": [ 131.467414120876668, 32.035810939587186 ] } },
{ "type": "Feature", "properties": { "内容": "グループホームきらら【認知症対応型共同生活介護】宮崎県宮崎市大字赤江830番地1", "url": "https://www.kaigokensaku.mhlw.go.jp/45/index.php?action_kouhyou_detail_004_kani=true&JigyosyoCd=4570101586-00&ServiceCd=320&Type=search", "url2": "https://grouphome-kirara.com/" }, "geometry": { "type": "Point", "coordinates": [ 131.440198600000031, 31.883304 ] } },
{ "type": "Feature", "properties": { "内容": "グループホーム明照【認知症対応型共同生活介護】宮崎県宮崎市佐土原町下田島4575番地1", "url": "https://www.kaigokensaku.mhlw.go.jp/45/index.php?action_kouhyou_detail_004_kani=true&JigyosyoCd=4590100329-00&ServiceCd=320&Type=search", "url2": "http://wwwm.meisyo-wa.jp" }, "geometry": { "type": "Point", "coordinates": [ 131.475773500000059, 32.0258061 ] } },
{ "type": "Feature", "properties": { "内容": "グループホームはる風荘【認知症対応型共同生活介護】宮崎県宮崎市大字小松字口ノ坪2861番地", "url": "https://www.kaigokensaku.mhlw.go.jp/45/index.php?action_kouhyou_detail_004_kani=true&JigyosyoCd=4590101558-00&ServiceCd=320&Type=search", "url2": "https://umigikukai.jp/" }, "geometry": { "type": "Point", "coordinates": [ 131.38199155987121, 31.9262536603851 ] } },
{ "type": "Feature", "properties": { "内容": "グループホームオアシスケア宮崎【認知症対応型共同生活介護】宮崎県宮崎市末広1丁目4番35号", "url": "https://www.kaigokensaku.mhlw.go.jp/45/index.php?action_kouhyou_detail_004_kani=true&JigyosyoCd=4590100840-00&ServiceCd=320&Type=search", "url2": "http://oasiscare.jp" }, "geometry": { "type": "Point", "coordinates": [ 131.419143800000029, 31.9116592 ] } },
{ "type": "Feature", "properties": { "内容": "グループホーム　けやき【認知症対応型共同生活介護】宮崎県宮崎市下田島江川崎11413番地１０", "url": "https://www.kaigokensaku.mhlw.go.jp/45/index.php?action_kouhyou_detail_004_kani=true&JigyosyoCd=4590100725-00&ServiceCd=320&Type=search", "url2": "https://www.grouphomekeyaki.com/" }, "geometry": { "type": "Point", "coordinates": [ 131.482070099999987, 32.0268591 ] } },
{ "type": "Feature", "properties": { "内容": "グループホーム楽楽【認知症対応型共同生活介護】宮崎県宮崎市大字浮田３３２１番地", "url": "https://www.kaigokensaku.mhlw.go.jp/45/index.php?action_kouhyou_detail_004_kani=true&JigyosyoCd=4570103152-00&ServiceCd=320&Type=search", "url2": "http://www.okada-seikeigeka.com" }, "geometry": { "type": "Point", "coordinates": [ 131.379820592189702, 31.929649019399797 ] } },
{ "type": "Feature", "properties": { "内容": "むつみ苑グループホーム池内の家【認知症対応型共同生活介護】宮崎県宮崎市池内町前吾田1096番地", "url": "https://www.kaigokensaku.mhlw.go.jp/45/index.php?action_kouhyou_detail_004_kani=true&JigyosyoCd=4570102295-00&ServiceCd=320&Type=search", "url2": "https://zinwakai-mutsumien.com/" }, "geometry": { "type": "Point", "coordinates": [ 131.413964727855728, 31.962447475230924 ] } },
{ "type": "Feature", "properties": { "内容": "グループホーム雁ケ音【認知症対応型共同生活介護】宮崎県宮崎市東大宮4丁目20番15号", "url": "https://www.kaigokensaku.mhlw.go.jp/45/index.php?action_kouhyou_detail_004_kani=true&JigyosyoCd=4570101826-00&ServiceCd=320&Type=search", "url2": "gh-ds-karigane@syunkoukai.com" }, "geometry": { "type": "Point", "coordinates": [ 131.4391776, 31.9455168 ] } },
{ "type": "Feature", "properties": { "内容": "グループホームほのぼの小松【認知症対応型共同生活介護】宮崎県宮崎市大字小松１１７３－2", "url": "https://www.kaigokensaku.mhlw.go.jp/45/index.php?action_kouhyou_detail_004_kani=true&JigyosyoCd=4570101693-00&ServiceCd=320&Type=search", "url2": "http://www.koujunkai.jp" }, "geometry": { "type": "Point", "coordinates": [ 131.402015820237693, 31.933923650219889 ] } },
{ "type": "Feature", "properties": { "内容": "認知症高齢者グループホーム悠悠【認知症対応型共同生活介護】宮崎市大字跡江２３６６番地認知症高齢者グループホーム悠悠", "url": "https://www.kaigokensaku.mhlw.go.jp/45/index.php?action_kouhyou_detail_004_kani=true&JigyosyoCd=4570101669-00&ServiceCd=320&Type=search", "url2": "http://www.ryoundo.or.jp/" }, "geometry": { "type": "Point", "coordinates": [ 131.390806699999985, 31.9379969 ] } },
{ "type": "Feature", "properties": { "内容": "グループホーム太陽【認知症対応型共同生活介護】宮崎県宮崎市橘通東1丁目5番2号", "url": "https://www.kaigokensaku.mhlw.go.jp/45/index.php?action_kouhyou_detail_004_kani=true&JigyosyoCd=4570103087-00&ServiceCd=320&Type=search", "url2": null }, "geometry": { "type": "Point", "coordinates": [ 131.421824300000026, 31.9078486 ] } },
{ "type": "Feature", "properties": { "内容": "グループホームくまのの郷【認知症対応型共同生活介護】宮崎県宮崎市大字熊野字熊野7287番地1", "url": "https://www.kaigokensaku.mhlw.go.jp/45/index.php?action_kouhyou_detail_004_kani=true&JigyosyoCd=4570101867-00&ServiceCd=320&Type=search", "url2": null }, "geometry": { "type": "Point", "coordinates": [ 131.423213563722129, 31.83498766661544 ] } },
{ "type": "Feature", "properties": { "内容": "グループホーム一喜一喜【認知症対応型共同生活介護】宮崎県宮崎市大字浮田３３１８番地", "url": "https://www.kaigokensaku.mhlw.go.jp/45/index.php?action_kouhyou_detail_004_kani=true&JigyosyoCd=4570101636-00&ServiceCd=320&Type=search", "url2": "http://www.okada-seikeigeka.com/" }, "geometry": { "type": "Point", "coordinates": [ 131.379741, 31.9298084 ] } },
{ "type": "Feature", "properties": { "内容": "むつみ苑グループホーム平和ヶ丘【認知症対応型共同生活介護】宮崎県宮崎市池内町前吾田１０９６", "url": "https://www.kaigokensaku.mhlw.go.jp/45/index.php?action_kouhyou_detail_004_kani=true&JigyosyoCd=4570101339-00&ServiceCd=320&Type=search", "url2": "https://zinwakai-mutsumien.com/" }, "geometry": { "type": "Point", "coordinates": [ 131.413436332679794, 31.962477057679354 ] } },
{ "type": "Feature", "properties": { "内容": "希望山荘【認知症対応型共同生活介護】宮崎県宮崎市郡司分乙1590-1", "url": "https://www.kaigokensaku.mhlw.go.jp/45/index.php?action_kouhyou_detail_004_kani=true&JigyosyoCd=4570102279-00&ServiceCd=320&Type=search", "url2": "http://www.kudomi.com" }, "geometry": { "type": "Point", "coordinates": [ 131.420450472907987, 31.856207423600868 ] } },
{ "type": "Feature", "properties": { "内容": "グループホーム楓【認知症対応型共同生活介護】宮崎県宮崎市大字郡司分甲1570番地1", "url": "https://www.kaigokensaku.mhlw.go.jp/45/index.php?action_kouhyou_detail_004_kani=true&JigyosyoCd=4570102956-00&ServiceCd=320&Type=search", "url2": "https://sakai-gr.co.jp" }, "geometry": { "type": "Point", "coordinates": [ 131.429576401852387, 31.847658870481386 ] } },
{ "type": "Feature", "properties": { "内容": "グループホームひまわりの杜【認知症対応型共同生活介護】宮崎県宮崎市潮見町50番地1", "url": "https://www.kaigokensaku.mhlw.go.jp/45/index.php?action_kouhyou_detail_004_kani=true&JigyosyoCd=4570102618-00&ServiceCd=320&Type=search", "url2": null }, "geometry": { "type": "Point", "coordinates": [ 131.437889600000062, 31.9060382 ] } },
{ "type": "Feature", "properties": { "内容": "グループホームこんね【認知症対応型共同生活介護】宮崎県宮崎市大坪西1丁目1番56号", "url": "https://www.kaigokensaku.mhlw.go.jp/45/index.php?action_kouhyou_detail_004_kani=true&JigyosyoCd=4590100295-00&ServiceCd=320&Type=search", "url2": "houmei.or.jp" }, "geometry": { "type": "Point", "coordinates": [ 131.40590670000006, 31.8966877 ] } },
{ "type": "Feature", "properties": { "内容": "グループホームほのぼの天満【認知症対応型共同生活介護】宮崎県宮崎市谷川3丁目1-2", "url": "https://www.kaigokensaku.mhlw.go.jp/45/index.php?action_kouhyou_detail_004_kani=true&JigyosyoCd=4590100253-00&ServiceCd=320&Type=search", "url2": "http://www.koujunkai.jp/tenman/" }, "geometry": { "type": "Point", "coordinates": [ 131.4130113, 31.903382 ] } },
{ "type": "Feature", "properties": { "内容": "グループホーム　ソフトタウン神宮東【認知症対応型共同生活介護】宮崎県宮崎市神宮東２丁目１２番５号", "url": "https://www.kaigokensaku.mhlw.go.jp/45/index.php?action_kouhyou_detail_004_kani=true&JigyosyoCd=4590100782-00&ServiceCd=320&Type=search", "url2": "http://www.softsangyou.jp/jingu/" }, "geometry": { "type": "Point", "coordinates": [ 131.426425900000027, 31.9365675 ] } },
{ "type": "Feature", "properties": { "内容": "ニチイケアセンター上北方【認知症対応型共同生活介護】宮崎県宮崎市大字上北方７１７－１ニチイケアセンター上北方", "url": "https://www.kaigokensaku.mhlw.go.jp/45/index.php?action_kouhyou_detail_004_kani=true&JigyosyoCd=4590100550-00&ServiceCd=320&Type=search", "url2": "http://www.nichiigakkan.co.jp" }, "geometry": { "type": "Point", "coordinates": [ 131.406848800000034, 31.958565 ] } },
{ "type": "Feature", "properties": { "内容": "グループホームにじの樹【認知症対応型共同生活介護】宮崎県宮崎市和知川原2丁目２５－１", "url": "https://www.kaigokensaku.mhlw.go.jp/45/index.php?action_kouhyou_detail_004_kani=true&JigyosyoCd=4590100402-00&ServiceCd=320&Type=search", "url2": "https://www.miyazaki-iryou.coop/" }, "geometry": { "type": "Point", "coordinates": [ 131.411610800000062, 31.9236852 ] } },
{ "type": "Feature", "properties": { "内容": "グループホームあおぞら【認知症対応型共同生活介護】宮崎県宮崎市阿波岐原町坂元１９２８－１", "url": "https://www.kaigokensaku.mhlw.go.jp/45/index.php?action_kouhyou_detail_004_kani=true&JigyosyoCd=4590101194-00&ServiceCd=320&Type=search", "url2": null }, "geometry": { "type": "Point", "coordinates": [ 131.451885800000014, 31.9312107 ] } },
{ "type": "Feature", "properties": { "内容": "グループホームクローバー【認知症対応型共同生活介護】宮崎県宮崎市新別府町前浜1401番地259", "url": "https://www.kaigokensaku.mhlw.go.jp/45/index.php?action_kouhyou_detail_004_kani=true&JigyosyoCd=4590101335-00&ServiceCd=320&Type=search", "url2": "http://www.seibikai-group.or.jp/clover/group_home/index.html" }, "geometry": { "type": "Point", "coordinates": [ 131.4593523, 31.9216702 ] } },
{ "type": "Feature", "properties": { "内容": "グループホームクローバー2番館【認知症対応型共同生活介護】宮崎県宮崎市新別府町前浜1401番地288", "url": "https://www.kaigokensaku.mhlw.go.jp/45/index.php?action_kouhyou_detail_004_kani=true&JigyosyoCd=4590101343-00&ServiceCd=320&Type=search", "url2": "http://www.seibikai-group.or.jp/group/index.html" }, "geometry": { "type": "Point", "coordinates": [ 131.4598173, 31.9216897 ] } },
{ "type": "Feature", "properties": { "内容": "グループホームたちばな【認知症対応型共同生活介護】宮崎県宮崎市高岡町内山2407番地3", "url": "https://www.kaigokensaku.mhlw.go.jp/45/index.php?action_kouhyou_detail_004_kani=true&JigyosyoCd=4571900218-00&ServiceCd=320&Type=search", "url2": "http://www.sin-ai-kai.jp" }, "geometry": { "type": "Point", "coordinates": [ 131.2952745, 31.968258 ] } },
{ "type": "Feature", "properties": { "内容": "社会福祉法人　信和会　　グループホーム　スマイル【認知症対応型共同生活介護】宮崎県宮崎市大字島之内2752番地", "url": "https://www.kaigokensaku.mhlw.go.jp/45/index.php?action_kouhyou_detail_004_kani=true&JigyosyoCd=4590100774-00&ServiceCd=320&Type=search", "url2": "http://m-shinwakai.jp" }, "geometry": { "type": "Point", "coordinates": [ 131.4502304, 31.9937937 ] } },
{ "type": "Feature", "properties": { "内容": "グループホーム　ミューズの空　青島【認知症対応型共同生活介護】宮崎県宮崎市青島２丁目７番８", "url": "https://www.kaigokensaku.mhlw.go.jp/45/index.php?action_kouhyou_detail_004_kani=true&JigyosyoCd=4590100121-00&ServiceCd=320&Type=search", "url2": "http://hoshakai.com/hikari/index.html" }, "geometry": { "type": "Point", "coordinates": [ 131.468123399999968, 31.8014394 ] } },
{ "type": "Feature", "properties": { "内容": "グループホームサンめいと【認知症対応型共同生活介護】宮崎県宮崎市大字大瀬町３１９０", "url": "https://www.kaigokensaku.mhlw.go.jp/45/index.php?action_kouhyou_detail_004_kani=true&JigyosyoCd=4590100162-00&ServiceCd=320&Type=search", "url2": "http://www.houseien.jp/" }, "geometry": { "type": "Point", "coordinates": [ 131.3789508538284, 31.98392474360584 ] } },
{ "type": "Feature", "properties": { "内容": "グループホームゆたかの郷【認知症対応型共同生活介護】宮崎県宮崎市高岡町小山田65-4", "url": "https://www.kaigokensaku.mhlw.go.jp/45/index.php?action_kouhyou_detail_004_kani=true&JigyosyoCd=4590100204-00&ServiceCd=320&Type=search", "url2": "http://www.yutakasumirekai.jp" }, "geometry": { "type": "Point", "coordinates": [ 131.330255, 31.933665 ] } },
{ "type": "Feature", "properties": { "内容": "グループホームくるみ【認知症対応型共同生活介護】宮崎県宮崎市佐土原町下那珂2962番6", "url": "https://www.kaigokensaku.mhlw.go.jp/45/index.php?action_kouhyou_detail_004_kani=true&JigyosyoCd=4590100261-00&ServiceCd=320&Type=search", "url2": "https://sakai-gr.co.jp" }, "geometry": { "type": "Point", "coordinates": [ 131.469442451832975, 31.999286994721398 ] } },
{ "type": "Feature", "properties": { "内容": "グループホーム大河【認知症対応型共同生活介護】宮崎県宮崎市古城町長田5911", "url": "https://www.kaigokensaku.mhlw.go.jp/45/index.php?action_kouhyou_detail_004_kani=true&JigyosyoCd=4590100212-00&ServiceCd=320&Type=search", "url2": null }, "geometry": { "type": "Point", "coordinates": [ 131.391412599613886, 31.893127743377075 ] } },
{ "type": "Feature", "properties": { "内容": "グループホーム自由ヶ丘【認知症対応型共同生活介護】宮崎県宮崎市吉村町井出ノ中甲793-1", "url": "https://www.kaigokensaku.mhlw.go.jp/45/index.php?action_kouhyou_detail_004_kani=true&JigyosyoCd=4590100279-00&ServiceCd=320&Type=search", "url2": null }, "geometry": { "type": "Point", "coordinates": [ 131.441327900000033, 31.9231749 ] } },
{ "type": "Feature", "properties": { "内容": "グループホームあけぼの苑【認知症対応型共同生活介護】宮崎県宮崎市田野町あけぼの2丁目32番地1", "url": "https://www.kaigokensaku.mhlw.go.jp/45/index.php?action_kouhyou_detail_004_kani=true&JigyosyoCd=4571500471-00&ServiceCd=320&Type=search", "url2": "https://hamayuu.com/" }, "geometry": { "type": "Point", "coordinates": [ 131.292791359293574, 31.830984919086745 ] } },
{ "type": "Feature", "properties": { "内容": "グループホーム田野あやか園【認知症対応型共同生活介護】宮崎県宮崎市田野町乙10125番地9", "url": "https://www.kaigokensaku.mhlw.go.jp/45/index.php?action_kouhyou_detail_004_kani=true&JigyosyoCd=4590100311-00&ServiceCd=320&Type=search", "url2": "http://www.kyu-care.co.jp/" }, "geometry": { "type": "Point", "coordinates": [ 131.321611100000041, 31.8545339 ] } },
{ "type": "Feature", "properties": { "内容": "グループホームきみの田荘【認知症対応型共同生活介護】宮崎県宮崎市大字小松字口ノ坪２８５３番地", "url": "https://www.kaigokensaku.mhlw.go.jp/45/index.php?action_kouhyou_detail_004_kani=true&JigyosyoCd=4590100345-00&ServiceCd=320&Type=search", "url2": "http://www.umigikukai,jp/" }, "geometry": { "type": "Point", "coordinates": [ 131.382062536882017, 31.926495052139423 ] } },
{ "type": "Feature", "properties": { "内容": "グループホーム　共生【認知症対応型共同生活介護】宮崎県宮崎市清武町加納甲1317番地", "url": "https://www.kaigokensaku.mhlw.go.jp/45/index.php?action_kouhyou_detail_004_kani=true&JigyosyoCd=4590100790-00&ServiceCd=320&Type=search", "url2": "ｔｏｋｕｅｉｋａｉ＠ｃｌｏｃｋ．ｏｃｎ．ｎｅ．ｊｐ" }, "geometry": { "type": "Point", "coordinates": [ 131.390559100000019, 31.8656313 ] } },
{ "type": "Feature", "properties": { "内容": "グループホーム　福寿草【認知症対応型共同生活介護】宮崎県宮崎市大字広原312番地1", "url": "https://www.kaigokensaku.mhlw.go.jp/45/index.php?action_kouhyou_detail_004_kani=true&JigyosyoCd=4590100170-00&ServiceCd=320&Type=search", "url2": "https://www.fukujusou-miyazaki.com/" }, "geometry": { "type": "Point", "coordinates": [ 131.441241699999978, 31.99908180000001 ] } },
{ "type": "Feature", "properties": { "内容": "認知症高齢者グループホームかざぐるま【認知症対応型共同生活介護】宮崎県宮崎市大字島之内7310番地1", "url": "https://www.kaigokensaku.mhlw.go.jp/45/index.php?action_kouhyou_detail_004_kani=true&JigyosyoCd=4570102550-00&ServiceCd=320&Type=search", "url2": "http://www.miyabi-kai.or.jp/" }, "geometry": { "type": "Point", "coordinates": [ 131.4509084, 31.9855158 ] } },
{ "type": "Feature", "properties": { "内容": "グループホームこころ音【認知症対応型共同生活介護】宮崎県宮崎市大島町野田２０７４－１", "url": "https://www.kaigokensaku.mhlw.go.jp/45/index.php?action_kouhyou_detail_004_kani=true&JigyosyoCd=4570102899-00&ServiceCd=320&Type=search", "url2": null }, "geometry": { "type": "Point", "coordinates": [ 131.43740077064092, 31.939549621522847 ] } },
{ "type": "Feature", "properties": { "内容": "グループホームあおき園【認知症対応型共同生活介護】宮崎県宮崎市大島町南窪807", "url": "https://www.kaigokensaku.mhlw.go.jp/45/index.php?action_kouhyou_detail_004_kani=true&JigyosyoCd=4570102840-00&ServiceCd=320&Type=search", "url2": "http://aokien.ever-life.com/" }, "geometry": { "type": "Point", "coordinates": [ 131.445713599999976, 31.9340873 ] } },
{ "type": "Feature", "properties": { "内容": "グループホーム福寿園【認知症対応型共同生活介護】宮崎県宮崎市山崎町佐牟田１４０９－２", "url": "https://www.kaigokensaku.mhlw.go.jp/45/index.php?action_kouhyou_detail_004_kani=true&JigyosyoCd=4590100246-00&ServiceCd=320&Type=search", "url2": "http://.aokien.ever-life.com/" }, "geometry": { "type": "Point", "coordinates": [ 131.452818500000035, 31.9432059 ] } },
{ "type": "Feature", "properties": { "内容": "グループホーム太陽の丘【認知症対応型共同生活介護】宮崎県宮崎市清武町木原5886番地４", "url": "https://www.kaigokensaku.mhlw.go.jp/45/index.php?action_kouhyou_detail_004_kani=true&JigyosyoCd=4571500406-00&ServiceCd=320&Type=search", "url2": "htt://www.suntaiyo.jp" }, "geometry": { "type": "Point", "coordinates": [ 131.394456352778633, 31.837903788904462 ] } },
{ "type": "Feature", "properties": { "内容": "グループホーム　たんぽぽ２号館【認知症対応型共同生活介護】宮崎県宮崎市大塚町権現前920-1", "url": "https://www.kaigokensaku.mhlw.go.jp/45/index.php?action_kouhyou_detail_004_kani=true&JigyosyoCd=4590101350-00&ServiceCd=320&Type=search", "url2": null }, "geometry": { "type": "Point", "coordinates": [ 131.3938195, 31.9266092 ] } },
{ "type": "Feature", "properties": { "内容": "グループホーム１０１【認知症対応型共同生活介護】宮崎県宮崎市清水１丁目１６９", "url": "https://www.kaigokensaku.mhlw.go.jp/45/index.php?action_kouhyou_detail_004_kani=true&JigyosyoCd=4590100519-00&ServiceCd=320&Type=search", "url2": null }, "geometry": { "type": "Point", "coordinates": [ 131.422232200000053, 31.9201639 ] } },
{ "type": "Feature", "properties": { "内容": "グループホーム１０２【認知症対応型共同生活介護】宮崎市船塚3丁目101", "url": "https://www.kaigokensaku.mhlw.go.jp/45/index.php?action_kouhyou_detail_004_kani=true&JigyosyoCd=4590100527-00&ServiceCd=320&Type=search", "url2": null }, "geometry": { "type": "Point", "coordinates": [ 131.418007200000034, 31.9316707 ] } },
{ "type": "Feature", "properties": { "内容": "グループホーム野の花【認知症対応型共同生活介護】宮崎県宮崎市大塚台西３丁目２３番地２グループホーム野の花", "url": "https://www.kaigokensaku.mhlw.go.jp/45/index.php?action_kouhyou_detail_004_kani=true&JigyosyoCd=4590100097-00&ServiceCd=320&Type=search", "url2": null }, "geometry": { "type": "Point", "coordinates": [ 131.382235900000069, 31.910813 ] } },
{ "type": "Feature", "properties": { "内容": "グループホーム　さくら【認知症対応型共同生活介護】宮崎県宮崎市大塚町池ノ内１１９９番地おおつかの杜リハビリテーションふれあいセンター", "url": "https://www.kaigokensaku.mhlw.go.jp/45/index.php?action_kouhyou_detail_004_kani=true&JigyosyoCd=4590100451-00&ServiceCd=320&Type=search", "url2": "http://www.okada-seikeigeka.com" }, "geometry": { "type": "Point", "coordinates": [ 131.390879300000051, 31.9243732 ] } },
{ "type": "Feature", "properties": { "内容": "グループホーム大塚台【認知症対応型共同生活介護】宮崎県宮崎市大塚台東１丁目１番地４", "url": "https://www.kaigokensaku.mhlw.go.jp/45/index.php?action_kouhyou_detail_004_kani=true&JigyosyoCd=4590100493-00&ServiceCd=320&Type=search", "url2": null }, "geometry": { "type": "Point", "coordinates": [ 131.388774, 31.9222872 ] } },
{ "type": "Feature", "properties": { "内容": "グループホーム　ほのぼの青葉【認知症対応型共同生活介護】宮崎県宮崎市宮崎駅東３丁目９番１０", "url": "https://www.kaigokensaku.mhlw.go.jp/45/index.php?action_kouhyou_detail_004_kani=true&JigyosyoCd=4590100618-00&ServiceCd=320&Type=search", "url2": "https://www.kowakai-f.jp" }, "geometry": { "type": "Point", "coordinates": [ 131.432344863229332, 31.919575268314009 ] } },
{ "type": "Feature", "properties": { "内容": "グループホーム思い出つむぎ【認知症対応型共同生活介護】宮崎県宮崎市東大宮4丁目20-3", "url": "https://www.kaigokensaku.mhlw.go.jp/45/index.php?action_kouhyou_detail_004_kani=true&JigyosyoCd=4590100659-00&ServiceCd=320&Type=search", "url2": "https://www.syunkoukai.com/omoide/" }, "geometry": { "type": "Point", "coordinates": [ 131.438749899999948, 31.9454696 ] } },
{ "type": "Feature", "properties": { "内容": "真ごころグループホーム【認知症対応型共同生活介護】宮崎県宮崎市大字郡司分乙８０２", "url": "https://www.kaigokensaku.mhlw.go.jp/45/index.php?action_kouhyou_detail_004_kani=true&JigyosyoCd=4590100758-00&ServiceCd=320&Type=search", "url2": null }, "geometry": { "type": "Point", "coordinates": [ 131.41013469703671, 31.854952125651085 ] } },
{ "type": "Feature", "properties": { "内容": "グループホームひだまり【認知症対応型共同生活介護】宮崎県宮崎市鶴島３丁目５０番地", "url": "https://www.kaigokensaku.mhlw.go.jp/45/index.php?action_kouhyou_detail_004_kani=true&JigyosyoCd=4570101925-00&ServiceCd=320&Type=search", "url2": "https://takagi-life.site" }, "geometry": { "type": "Point", "coordinates": [ 131.41033630000004, 31.9128502 ] } },
{ "type": "Feature", "properties": { "内容": "けあビジョンホーム宮崎田野【認知症対応型共同生活介護】宮崎県宮崎市田野町乙7241-2", "url": "https://www.kaigokensaku.mhlw.go.jp/45/index.php?action_kouhyou_detail_004_kani=true&JigyosyoCd=4590101624-00&ServiceCd=320&Type=search", "url2": null }, "geometry": { "type": "Point", "coordinates": [ 131.292462, 31.8371427 ] } },
{ "type": "Feature", "properties": { "内容": "けあビジョンホーム宮崎【認知症対応型共同生活介護】宮崎県宮崎市清武町今泉甲3712-10けあビジョンホーム宮崎", "url": "https://www.kaigokensaku.mhlw.go.jp/45/index.php?action_kouhyou_detail_004_kani=true&JigyosyoCd=4590101145-00&ServiceCd=320&Type=search", "url2": null }, "geometry": { "type": "Point", "coordinates": [ 131.34922610000001, 31.8484519 ] } },
{ "type": "Feature", "properties": { "内容": "グループホームやすらぎ【認知症対応型共同生活介護】宮崎県都城市東町１０－１８", "url": "https://www.kaigokensaku.mhlw.go.jp/45/index.php?action_kouhyou_detail_004_kani=true&JigyosyoCd=4570201196-00&ServiceCd=320&Type=search", "url2": null }, "geometry": { "type": "Point", "coordinates": [ 131.0712929, 31.7226125 ] } },
{ "type": "Feature", "properties": { "内容": "グループホーム海ちゃんの家たかざき【認知症対応型共同生活介護】宮崎県都城市高崎町前田２５０５番地", "url": "https://www.kaigokensaku.mhlw.go.jp/45/index.php?action_kouhyou_detail_004_kani=true&JigyosyoCd=4571700667-00&ServiceCd=320&Type=search", "url2": "https://umityannoie.wixsite.com/mysite" }, "geometry": { "type": "Point", "coordinates": [ 131.039133399999969, 31.9041692 ] } },
{ "type": "Feature", "properties": { "内容": "グループホーム小松原【認知症対応型共同生活介護】宮崎県都城市小松原町1161番地3", "url": "https://www.kaigokensaku.mhlw.go.jp/45/index.php?action_kouhyou_detail_004_kani=true&JigyosyoCd=4590200368-00&ServiceCd=320&Type=search", "url2": "https://npo-komatubarakai-2.jimdosite.com" }, "geometry": { "type": "Point", "coordinates": [ 131.0695232, 31.7331737 ] } },
{ "type": "Feature", "properties": { "内容": "グループホームふるる【認知症対応型共同生活介護】宮崎県都城市安久町５５９６番地１", "url": "https://www.kaigokensaku.mhlw.go.jp/45/index.php?action_kouhyou_detail_004_kani=true&JigyosyoCd=4570200867-00&ServiceCd=320&Type=search", "url2": null }, "geometry": { "type": "Point", "coordinates": [ 131.07986070000004, 31.6882493 ] } },
{ "type": "Feature", "properties": { "内容": "グループホーム朝霧2号館【認知症対応型共同生活介護】宮崎県都城市高城町大井手1049番地", "url": "https://www.kaigokensaku.mhlw.go.jp/45/index.php?action_kouhyou_detail_004_kani=true&JigyosyoCd=4571700717-00&ServiceCd=320&Type=search", "url2": "http://asagirien.jp/publics/index/34/" }, "geometry": { "type": "Point", "coordinates": [ 131.142183100000011, 31.7984634 ] } },
{ "type": "Feature", "properties": { "内容": "グループホームオリーブ【認知症対応型共同生活介護】宮崎県都城市山之口町花木２１５２－３", "url": "https://www.kaigokensaku.mhlw.go.jp/45/index.php?action_kouhyou_detail_004_kani=true&JigyosyoCd=4571700444-00&ServiceCd=320&Type=search", "url2": null }, "geometry": { "type": "Point", "coordinates": [ 131.143825200000038, 31.778393 ] } },
{ "type": "Feature", "properties": { "内容": "グループホーム　オルゴール【認知症対応型共同生活介護】宮崎県都城市吉尾町111-1", "url": "https://www.kaigokensaku.mhlw.go.jp/45/index.php?action_kouhyou_detail_004_kani=true&JigyosyoCd=4570201170-00&ServiceCd=320&Type=search", "url2": "http://m-miraikikaku.sakura.ne.jp/grouphome-orgel/index.html" }, "geometry": { "type": "Point", "coordinates": [ 131.083147, 31.752799 ] } },
{ "type": "Feature", "properties": { "内容": "グループホームぬくもりの里【認知症対応型共同生活介護】宮崎県都城市五十町2394-5", "url": "https://www.kaigokensaku.mhlw.go.jp/45/index.php?action_kouhyou_detail_004_kani=true&JigyosyoCd=4570201063-00&ServiceCd=320&Type=search", "url2": null }, "geometry": { "type": "Point", "coordinates": [ 131.035974300000021, 31.7141709 ] } },
{ "type": "Feature", "properties": { "内容": "グループホームまりあ【認知症対応型共同生活介護】宮崎県都城市志比田町９５４１番地", "url": "https://www.kaigokensaku.mhlw.go.jp/45/index.php?action_kouhyou_detail_004_kani=true&JigyosyoCd=4570200768-00&ServiceCd=320&Type=search", "url2": "http://www.maria-f.jp" }, "geometry": { "type": "Point", "coordinates": [ 131.0484887, 31.7523064 ] } },
{ "type": "Feature", "properties": { "内容": "グループホーム　めぐみ【認知症対応型共同生活介護】宮崎県都城市太郎坊町563-2", "url": "https://www.kaigokensaku.mhlw.go.jp/45/index.php?action_kouhyou_detail_004_kani=true&JigyosyoCd=4570200818-00&ServiceCd=320&Type=search", "url2": "http://www.keijuen.net/" }, "geometry": { "type": "Point", "coordinates": [ 131.093520200000057, 31.78856 ] } },
{ "type": "Feature", "properties": { "内容": "グループホームミューズの空庄内【認知症対応型共同生活介護】宮崎県都城市庄内町８１２２－１", "url": "https://www.kaigokensaku.mhlw.go.jp/45/index.php?action_kouhyou_detail_004_kani=true&JigyosyoCd=4570201048-00&ServiceCd=320&Type=search", "url2": "http://hoshakai.com/" }, "geometry": { "type": "Point", "coordinates": [ 131.017647, 31.7679345 ] } },
{ "type": "Feature", "properties": { "内容": "グループホーム２ユニットひまわり【認知症対応型共同生活介護】宮崎県都城市蓑原町1839番地9", "url": "https://www.kaigokensaku.mhlw.go.jp/45/index.php?action_kouhyou_detail_004_kani=true&JigyosyoCd=4570200529-00&ServiceCd=320&Type=search", "url2": "http://www.houei-group.or.jp/" }, "geometry": { "type": "Point", "coordinates": [ 131.019495099999972, 31.7346822 ] } },
{ "type": "Feature", "properties": { "内容": "グループホーム2ユニットしらゆり【認知症対応型共同生活介護】宮崎県都城市安久町4966番地２", "url": "https://www.kaigokensaku.mhlw.go.jp/45/index.php?action_kouhyou_detail_004_kani=true&JigyosyoCd=4570200669-00&ServiceCd=320&Type=search", "url2": "http://www.houei-group.or.jp/index.htm" }, "geometry": { "type": "Point", "coordinates": [ 131.072951900000021, 31.7012062 ] } },
{ "type": "Feature", "properties": { "内容": "グループホーム朝霧【認知症対応型共同生活介護】宮崎県都城市山田町中霧島2531番地7", "url": "https://www.kaigokensaku.mhlw.go.jp/45/index.php?action_kouhyou_detail_004_kani=true&JigyosyoCd=4571700493-00&ServiceCd=320&Type=search", "url2": "http://asagirien.jp/" }, "geometry": { "type": "Point", "coordinates": [ 131.046162200000026, 31.7967412 ] } },
{ "type": "Feature", "properties": { "内容": "グループホーム　スマイリング・パーク【認知症対応型共同生活介護】宮崎県都城市丸谷町359-1", "url": "https://www.kaigokensaku.mhlw.go.jp/45/index.php?action_kouhyou_detail_004_kani=true&JigyosyoCd=4590200145-00&ServiceCd=320&Type=search", "url2": "https://smilehohoemi.com/" }, "geometry": { "type": "Point", "coordinates": [ 131.057843899999966, 31.809907 ] } },
{ "type": "Feature", "properties": { "内容": "グループホームまごころ【認知症対応型共同生活介護】宮崎県都城市高城町穂満坊3213-2", "url": "https://www.kaigokensaku.mhlw.go.jp/45/index.php?action_kouhyou_detail_004_kani=true&JigyosyoCd=4590200095-00&ServiceCd=320&Type=search", "url2": null }, "geometry": { "type": "Point", "coordinates": [ 131.124395099999987, 31.8120949 ] } },
{ "type": "Feature", "properties": { "内容": "グループホームミューズの空高崎【認知症対応型共同生活介護】宮崎県都城市高崎町大牟田6454番地", "url": "https://www.kaigokensaku.mhlw.go.jp/45/index.php?action_kouhyou_detail_004_kani=true&JigyosyoCd=4571700550-00&ServiceCd=320&Type=search", "url2": "http://hoshakai.com/" }, "geometry": { "type": "Point", "coordinates": [ 131.074355712455827, 31.873281794410879 ] } },
{ "type": "Feature", "properties": { "内容": "グループホーム城山苑【認知症対応型共同生活介護】宮崎県都城市山之口町山之口3940", "url": "https://www.kaigokensaku.mhlw.go.jp/45/index.php?action_kouhyou_detail_004_kani=true&JigyosyoCd=4571700626-00&ServiceCd=320&Type=search", "url2": "http://www.btvm.ne.jp/~jyagaimo/" }, "geometry": { "type": "Point", "coordinates": [ 131.16151190000005, 31.8015718 ] } },
{ "type": "Feature", "properties": { "内容": "星空の都グループホームふるさと【認知症対応型共同生活介護】宮崎県都城市豊満町2642番地1", "url": "https://www.kaigokensaku.mhlw.go.jp/45/index.php?action_kouhyou_detail_004_kani=true&JigyosyoCd=4570200784-00&ServiceCd=320&Type=search", "url2": "https://nakago.fujimoto.com/" }, "geometry": { "type": "Point", "coordinates": [ 131.094909, 31.6997403 ] } },
{ "type": "Feature", "properties": { "内容": "グループホーム菜の花【認知症対応型共同生活介護】宮崎県都城市高城町穂満坊496-3", "url": "https://www.kaigokensaku.mhlw.go.jp/45/index.php?action_kouhyou_detail_004_kani=true&JigyosyoCd=4571700527-00&ServiceCd=320&Type=search", "url2": "https://t-yoshimi.sakura.ne.jp/yoshimihp/" }, "geometry": { "type": "Point", "coordinates": [ 131.1251039, 31.801257 ] } },
{ "type": "Feature", "properties": { "内容": "グループホームふれあい園【認知症対応型共同生活介護】宮崎県都城市高崎町東霧島752番地3", "url": "https://www.kaigokensaku.mhlw.go.jp/45/index.php?action_kouhyou_detail_004_kani=true&JigyosyoCd=4590200079-00&ServiceCd=320&Type=search", "url2": "https://kawaidaclinic.com/" }, "geometry": { "type": "Point", "coordinates": [ 131.074652499999956, 31.8521479 ] } },
{ "type": "Feature", "properties": { "内容": "グループホーム　スローシティピアノ【認知症対応型共同生活介護】宮崎県延岡市平原町1丁目８５４－１", "url": "https://www.kaigokensaku.mhlw.go.jp/45/index.php?action_kouhyou_detail_004_kani=true&JigyosyoCd=4590300051-00&ServiceCd=320&Type=search", "url2": null }, "geometry": { "type": "Point", "coordinates": [ 131.6738825, 32.5548141 ] } },
{ "type": "Feature", "properties": { "内容": "グループホーム愛宕荘【認知症対応型共同生活介護】宮崎県延岡市古城町４丁目６３４－３", "url": "https://www.kaigokensaku.mhlw.go.jp/45/index.php?action_kouhyou_detail_004_kani=true&JigyosyoCd=4570300709-00&ServiceCd=320&Type=search", "url2": null }, "geometry": { "type": "Point", "coordinates": [ 131.658924699999943, 32.5646289 ] } },
{ "type": "Feature", "properties": { "内容": "グループホームみのり園【認知症対応型共同生活介護】宮崎県延岡市岡元町789番地3", "url": "https://www.kaigokensaku.mhlw.go.jp/45/index.php?action_kouhyou_detail_004_kani=true&JigyosyoCd=4570300451-00&ServiceCd=320&Type=search", "url2": "https://www.minori-en.jp/" }, "geometry": { "type": "Point", "coordinates": [ 131.5692755, 32.5656836 ] } },
{ "type": "Feature", "properties": { "内容": "グループホーム「さくらの杜」【認知症対応型共同生活介護】宮崎県延岡市夏田町３４５－１", "url": "https://www.kaigokensaku.mhlw.go.jp/45/index.php?action_kouhyou_detail_004_kani=true&JigyosyoCd=4570300667-00&ServiceCd=320&Type=search", "url2": "http:/www.yu-ryu.co.jp/" }, "geometry": { "type": "Point", "coordinates": [ 131.669799399999988, 32.6063375 ] } },
{ "type": "Feature", "properties": { "内容": "グループホーム「牧水苑」【認知症対応型共同生活介護】宮崎県延岡市北小路８－１０", "url": "https://www.kaigokensaku.mhlw.go.jp/45/index.php?action_kouhyou_detail_004_kani=true&JigyosyoCd=4570300550-00&ServiceCd=320&Type=search", "url2": null }, "geometry": { "type": "Point", "coordinates": [ 131.665784199999962, 32.5844416 ] } },
{ "type": "Feature", "properties": { "内容": "けあビジョンホーム延岡行縢【認知症対応型共同生活介護】行縢町821-25けあビジョンホーム延岡行縢", "url": "https://www.kaigokensaku.mhlw.go.jp/45/index.php?action_kouhyou_detail_004_kani=true&JigyosyoCd=4590300481-00&ServiceCd=320&Type=search", "url2": "http://www.visualvision.co.jp/" }, "geometry": { "type": "Point", "coordinates": [ 131.5821613, 32.60481990000001 ] } },
{ "type": "Feature", "properties": { "内容": "大瀬別荘G.H.【認知症対応型共同生活介護】宮崎県延岡市古城町3丁目11番地12", "url": "https://www.kaigokensaku.mhlw.go.jp/45/index.php?action_kouhyou_detail_004_kani=true&JigyosyoCd=4590300192-00&ServiceCd=320&Type=search", "url2": null }, "geometry": { "type": "Point", "coordinates": [ 131.655185601188691, 32.567568433397199 ] } },
{ "type": "Feature", "properties": { "内容": "楓荘グループホーム牧の家【認知症対応型共同生活介護】宮崎県延岡市牧町４６５１番地", "url": "https://www.kaigokensaku.mhlw.go.jp/45/index.php?action_kouhyou_detail_004_kani=true&JigyosyoCd=4590300200-00&ServiceCd=320&Type=search", "url2": null }, "geometry": { "type": "Point", "coordinates": [ 131.692603365745526, 32.600146762322645 ] } },
{ "type": "Feature", "properties": { "内容": "グループホームひまわり【認知症対応型共同生活介護】宮崎県延岡市北川町川内名8307", "url": "https://www.kaigokensaku.mhlw.go.jp/45/index.php?action_kouhyou_detail_004_kani=true&JigyosyoCd=4572100578-00&ServiceCd=320&Type=search", "url2": "http://himawari-nobeoka.com/" }, "geometry": { "type": "Point", "coordinates": [ 131.660227099999929, 32.7171183 ] } },
{ "type": "Feature", "properties": { "内容": "グループホームみのり園のた【認知症対応型共同生活介護】宮崎県延岡市野田１－１５－１４", "url": "https://www.kaigokensaku.mhlw.go.jp/45/index.php?action_kouhyou_detail_004_kani=true&JigyosyoCd=4590300093-00&ServiceCd=320&Type=search", "url2": null }, "geometry": { "type": "Point", "coordinates": [ 131.634259199999974, 32.5798269 ] } },
{ "type": "Feature", "properties": { "内容": "けあビジョンホーム延岡【認知症対応型共同生活介護】宮崎県延岡市櫛津町3320-1", "url": "https://www.kaigokensaku.mhlw.go.jp/45/index.php?action_kouhyou_detail_004_kani=true&JigyosyoCd=4590300291-00&ServiceCd=320&Type=search", "url2": null }, "geometry": { "type": "Point", "coordinates": [ 131.678792, 32.505524 ] } },
{ "type": "Feature", "properties": { "内容": "グループホーム　せんじゅ【認知症対応型共同生活介護】宮崎県延岡市北浦町古江2687-1", "url": "https://www.kaigokensaku.mhlw.go.jp/45/index.php?action_kouhyou_detail_004_kani=true&JigyosyoCd=4590300119-00&ServiceCd=320&Type=search", "url2": "https://www.senjuen.jp" }, "geometry": { "type": "Point", "coordinates": [ 131.815858899999967, 32.7088131 ] } },
{ "type": "Feature", "properties": { "内容": "グループホーム「ととろの杜」【認知症対応型共同生活介護】宮崎県延岡市土々呂町５丁目２５６５番地１", "url": "https://www.kaigokensaku.mhlw.go.jp/45/index.php?action_kouhyou_detail_004_kani=true&JigyosyoCd=4570300634-00&ServiceCd=320&Type=search", "url2": "http://www.yu-ryu.co.jp/totoro_gr/index.html" }, "geometry": { "type": "Point", "coordinates": [ 131.669239599999969, 32.5062458 ] } },
{ "type": "Feature", "properties": { "内容": "グループホームきたがわ荘【認知症対応型共同生活介護】宮崎県延岡市北川町長井５５６５－８", "url": "https://www.kaigokensaku.mhlw.go.jp/45/index.php?action_kouhyou_detail_004_kani=true&JigyosyoCd=4572100529-00&ServiceCd=320&Type=search", "url2": "https://www.kitagawa-houjukai.com" }, "geometry": { "type": "Point", "coordinates": [ 131.7046775, 32.6652781 ] } },
{ "type": "Feature", "properties": { "内容": "グループホームひえいの郷【認知症対応型共同生活介護】宮崎県延岡市北方町川水流卯１８１０－２４", "url": "https://www.kaigokensaku.mhlw.go.jp/45/index.php?action_kouhyou_detail_004_kani=true&JigyosyoCd=4572100677-00&ServiceCd=320&Type=search", "url2": "http://www.kawazurufukushikai.jp/" }, "geometry": { "type": "Point", "coordinates": [ 131.5158851, 32.5726662 ] } },
{ "type": "Feature", "properties": { "内容": "グループホーム「東海の里」【認知症対応型共同生活介護】宮崎県延岡市水尻町２２５番地１", "url": "https://www.kaigokensaku.mhlw.go.jp/45/index.php?action_kouhyou_detail_004_kani=true&JigyosyoCd=4590300028-00&ServiceCd=320&Type=search", "url2": null }, "geometry": { "type": "Point", "coordinates": [ 131.708225650926238, 32.608430149275044 ] } },
{ "type": "Feature", "properties": { "内容": "けあビジョンホーム延岡北浦【認知症対応型共同生活介護】延岡市北浦町古江５６５けあビジョンホーム延岡北浦", "url": "https://www.kaigokensaku.mhlw.go.jp/45/index.php?action_kouhyou_detail_004_kani=true&JigyosyoCd=4590300432-00&ServiceCd=320&Type=search", "url2": "http://www.visualvision.co.jp/" }, "geometry": { "type": "Point", "coordinates": [ 131.821454961806069, 32.719614351652659 ] } },
{ "type": "Feature", "properties": { "内容": "グループホーム四季の音【認知症対応型共同生活介護】宮崎県延岡市別府町3088-1", "url": "https://www.kaigokensaku.mhlw.go.jp/45/index.php?action_kouhyou_detail_004_kani=true&JigyosyoCd=4570300618-00&ServiceCd=320&Type=search", "url2": "tsuda-well.jp" }, "geometry": { "type": "Point", "coordinates": [ 131.681984100000022, 32.5701963 ] } },
{ "type": "Feature", "properties": { "内容": "グループホームスマイリング・パークのべおか【認知症対応型共同生活介護】宮崎県延岡市水尻町２２５番地１", "url": "https://www.kaigokensaku.mhlw.go.jp/45/index.php?action_kouhyou_detail_004_kani=true&JigyosyoCd=4590300549-00&ServiceCd=320&Type=search", "url2": null }, "geometry": { "type": "Point", "coordinates": [ 131.7082443, 32.6084966 ] } },
{ "type": "Feature", "properties": { "内容": "グループホームひかり苑日南【認知症対応型共同生活介護】宮崎県日南市星倉１丁目11-18", "url": "https://www.kaigokensaku.mhlw.go.jp/45/index.php?action_kouhyou_detail_004_kani=true&JigyosyoCd=4570400236-00&ServiceCd=320&Type=search", "url2": null }, "geometry": { "type": "Point", "coordinates": [ 131.363937845106165, 31.629492490748081 ] } },
{ "type": "Feature", "properties": { "内容": "認知症対応型共同生活介護　グループホームさくら坂【認知症対応型共同生活介護】宮崎県日南市大字楠原1797番地1", "url": "https://www.kaigokensaku.mhlw.go.jp/45/index.php?action_kouhyou_detail_004_kani=true&JigyosyoCd=4590400075-00&ServiceCd=320&Type=search", "url2": "tokueikai.lar.jp/" }, "geometry": { "type": "Point", "coordinates": [ 131.347876300000053, 31.6233575 ] } },
{ "type": "Feature", "properties": { "内容": "グループホームわかば【認知症対応型共同生活介護】宮崎県日南市上平野町二丁目8番地20", "url": "https://www.kaigokensaku.mhlw.go.jp/45/index.php?action_kouhyou_detail_004_kani=true&JigyosyoCd=4570400335-00&ServiceCd=320&Type=search", "url2": "http://care-net.biz/45/wajinkai/" }, "geometry": { "type": "Point", "coordinates": [ 131.384969400000045, 31.5946159 ] } },
{ "type": "Feature", "properties": { "内容": "株式会社インテント【認知症対応型共同生活介護】宮崎県小林市細野2283-3グループホームいろは", "url": "https://www.kaigokensaku.mhlw.go.jp/45/index.php?action_kouhyou_detail_004_kani=true&JigyosyoCd=4590500064-00&ServiceCd=320&Type=search", "url2": "http://grouphomeiroha.blog.fc2.com/" }, "geometry": { "type": "Point", "coordinates": [ 130.985811900000044, 31.986363 ] } },
{ "type": "Feature", "properties": { "内容": "グループホームふくじゅ【認知症対応型共同生活介護】宮崎県小林市堤2413番地5", "url": "https://www.kaigokensaku.mhlw.go.jp/45/index.php?action_kouhyou_detail_004_kani=true&JigyosyoCd=4590500080-00&ServiceCd=320&Type=search", "url2": null }, "geometry": { "type": "Point", "coordinates": [ 130.9951175, 31.9729367 ] } },
{ "type": "Feature", "properties": { "内容": "グループホームゆうゆう【認知症対応型共同生活介護】宮崎県小林市北西方66-3", "url": "https://www.kaigokensaku.mhlw.go.jp/45/index.php?action_kouhyou_detail_004_kani=true&JigyosyoCd=4570500183-00&ServiceCd=320&Type=search", "url2": "http://www.all-souai.or.jp/gouphome/" }, "geometry": { "type": "Point", "coordinates": [ 130.963499399999989, 32.0082961 ] } },
{ "type": "Feature", "properties": { "内容": "グループホームひなもり【認知症対応型共同生活介護】宮崎県小林市堤4380番地", "url": "https://www.kaigokensaku.mhlw.go.jp/45/index.php?action_kouhyou_detail_004_kani=true&JigyosyoCd=4570500233-00&ServiceCd=320&Type=search", "url2": "hｔｔp：//www．tokiwa-kai．or．jp" }, "geometry": { "type": "Point", "coordinates": [ 131.010824800000023, 31.9622381 ] } },
{ "type": "Feature", "properties": { "内容": "グループホーム和楽【認知症対応型共同生活介護】宮崎県小林市大字堤２９３９番地", "url": "https://www.kaigokensaku.mhlw.go.jp/45/index.php?action_kouhyou_detail_004_kani=true&JigyosyoCd=4570500258-00&ServiceCd=320&Type=search", "url2": "https://kobayashihoyoin.or.jp" }, "geometry": { "type": "Point", "coordinates": [ 130.990284142466749, 31.985367799912552 ] } },
{ "type": "Feature", "properties": { "内容": "グループホームひだまり【認知症対応型共同生活介護】宮崎県小林市真方5038番地1", "url": "https://www.kaigokensaku.mhlw.go.jp/45/index.php?action_kouhyou_detail_004_kani=true&JigyosyoCd=4570500274-00&ServiceCd=320&Type=search", "url2": null }, "geometry": { "type": "Point", "coordinates": [ 130.995654800000011, 32.0013395 ] } },
{ "type": "Feature", "properties": { "内容": "グループホームさくらの園3号館【認知症対応型共同生活介護】細野4173番地1", "url": "https://www.kaigokensaku.mhlw.go.jp/45/index.php?action_kouhyou_detail_004_kani=true&JigyosyoCd=4590500031-00&ServiceCd=320&Type=search", "url2": null }, "geometry": { "type": "Point", "coordinates": [ 130.9597162, 31.9761801 ] } },
{ "type": "Feature", "properties": { "内容": "グループホーム　さくらの園２号館【認知症対応型共同生活介護】宮崎県小林市細野4173番地2", "url": "https://www.kaigokensaku.mhlw.go.jp/45/index.php?action_kouhyou_detail_004_kani=true&JigyosyoCd=4590500155-00&ServiceCd=320&Type=search", "url2": null }, "geometry": { "type": "Point", "coordinates": [ 130.959117399999968, 31.9761345 ] } },
{ "type": "Feature", "properties": { "内容": "グループホームなごみ【認知症対応型共同生活介護】小林市南西方６２５７番地６５", "url": "https://www.kaigokensaku.mhlw.go.jp/45/index.php?action_kouhyou_detail_004_kani=true&JigyosyoCd=4590500049-00&ServiceCd=320&Type=search", "url2": null }, "geometry": { "type": "Point", "coordinates": [ 130.906136400000037, 32.0110084 ] } },
{ "type": "Feature", "properties": { "内容": "グループホームへいわ【認知症対応型共同生活介護】宮崎県小林市野尻町東麓2566－3", "url": "https://www.kaigokensaku.mhlw.go.jp/45/index.php?action_kouhyou_detail_004_kani=true&JigyosyoCd=4590500023-00&ServiceCd=320&Type=search", "url2": null }, "geometry": { "type": "Point", "coordinates": [ 131.084608099999969, 31.9632755 ] } },
{ "type": "Feature", "properties": { "内容": "グループホーム幸ちゃんの家　１号館【認知症対応型共同生活介護】宮崎県小林市堤2961-60", "url": "https://www.kaigokensaku.mhlw.go.jp/45/index.php?action_kouhyou_detail_004_kani=true&JigyosyoCd=4571800228-00&ServiceCd=320&Type=search", "url2": "http://yukichannoie.info" }, "geometry": { "type": "Point", "coordinates": [ 130.991006046390368, 31.987409849909152 ] } },
{ "type": "Feature", "properties": { "内容": "押川病院グループホーム和【認知症対応型共同生活介護】宮崎県小林市野尻町東麓1132番地9グループホーム和", "url": "https://www.kaigokensaku.mhlw.go.jp/45/index.php?action_kouhyou_detail_004_kani=true&JigyosyoCd=4571800301-00&ServiceCd=320&Type=search", "url2": "oshikawahp.com" }, "geometry": { "type": "Point", "coordinates": [ 131.095968200000016, 31.9622817 ] } },
{ "type": "Feature", "properties": { "内容": "グループホーム　ライフ【認知症対応型共同生活介護】宮崎県　小林市　野尻町　東麓1089番地1", "url": "https://www.kaigokensaku.mhlw.go.jp/45/index.php?action_kouhyou_detail_004_kani=true&JigyosyoCd=4590500148-00&ServiceCd=320&Type=search", "url2": null }, "geometry": { "type": "Point", "coordinates": [ 131.099118, 31.9595683 ] } },
{ "type": "Feature", "properties": { "内容": "グループホーム　さくらの園【認知症対応型共同生活介護】細野4174番地8", "url": "https://www.kaigokensaku.mhlw.go.jp/45/index.php?action_kouhyou_detail_004_kani=true&JigyosyoCd=4590500098-00&ServiceCd=320&Type=search", "url2": null }, "geometry": { "type": "Point", "coordinates": [ 130.959289300000023, 31.9759166 ] } },
{ "type": "Feature", "properties": { "内容": "グループホームひなた【認知症対応型共同生活介護】宮崎県小林市南西方6286番地1", "url": "https://www.kaigokensaku.mhlw.go.jp/45/index.php?action_kouhyou_detail_004_kani=true&JigyosyoCd=4590500106-00&ServiceCd=320&Type=search", "url2": null }, "geometry": { "type": "Point", "coordinates": [ 130.905742, 32.011 ] } },
{ "type": "Feature", "properties": { "内容": "グループホームあったか村【認知症対応型共同生活介護】宮崎県小林市大字北西方３２５１番２", "url": "https://www.kaigokensaku.mhlw.go.jp/45/index.php?action_kouhyou_detail_004_kani=true&JigyosyoCd=4570500225-00&ServiceCd=320&Type=search", "url2": "http://www.all-souai.or.jp/gouphome/index.htm" }, "geometry": { "type": "Point", "coordinates": [ 130.924325590304562, 32.019844189480338 ] } },
{ "type": "Feature", "properties": { "内容": "グループホームむつみ【認知症対応型共同生活介護】宮崎県小林市野尻町三ヶ野山４３３６番地１５", "url": "https://www.kaigokensaku.mhlw.go.jp/45/index.php?action_kouhyou_detail_004_kani=true&JigyosyoCd=4571800277-00&ServiceCd=320&Type=search", "url2": "http://www.kirishimanosono.com/" }, "geometry": { "type": "Point", "coordinates": [ 131.078236400000037, 31.9654528 ] } },
{ "type": "Feature", "properties": { "内容": "グループホーム幸ちゃんの家２号館【認知症対応型共同生活介護】宮崎県小林市野尻町大字東麓2658-86", "url": "https://www.kaigokensaku.mhlw.go.jp/45/index.php?action_kouhyou_detail_004_kani=true&JigyosyoCd=4571800269-00&ServiceCd=320&Type=search", "url2": "http://yukichannoie.info/group.html" }, "geometry": { "type": "Point", "coordinates": [ 131.083139331097584, 31.957342016700856 ] } },
{ "type": "Feature", "properties": { "内容": "グループホーム　風の丘【認知症対応型共同生活介護】南西方1992番地14", "url": "https://www.kaigokensaku.mhlw.go.jp/45/index.php?action_kouhyou_detail_004_kani=true&JigyosyoCd=4590500072-00&ServiceCd=320&Type=search", "url2": null }, "geometry": { "type": "Point", "coordinates": [ 130.952349899999945, 32.0053935 ] } },
{ "type": "Feature", "properties": { "内容": "グループホーム　まごころ【認知症対応型共同生活介護】宮崎県小林市南西方1992番地14", "url": "https://www.kaigokensaku.mhlw.go.jp/45/index.php?action_kouhyou_detail_004_kani=true&JigyosyoCd=4590500171-00&ServiceCd=320&Type=search", "url2": null }, "geometry": { "type": "Point", "coordinates": [ 130.9524184, 32.0053585 ] } },
{ "type": "Feature", "properties": { "内容": "グループホーム茶のん村おんわ【認知症対応型共同生活介護】宮崎県小林市南西方1906番地1", "url": "https://www.kaigokensaku.mhlw.go.jp/45/index.php?action_kouhyou_detail_004_kani=true&JigyosyoCd=4590500189-00&ServiceCd=320&Type=search", "url2": null }, "geometry": { "type": "Point", "coordinates": [ 130.9546468, 32.0046145 ] } },
{ "type": "Feature", "properties": { "内容": "グループホームみみつ【認知症対応型共同生活介護】宮崎県日向市美々津町３８７０", "url": "https://www.kaigokensaku.mhlw.go.jp/45/index.php?action_kouhyou_detail_004_kani=true&JigyosyoCd=4570600355-00&ServiceCd=320&Type=search", "url2": null }, "geometry": { "type": "Point", "coordinates": [ 131.604817300000036, 32.3312139 ] } },
{ "type": "Feature", "properties": { "内容": "グループホームあけぼの【認知症対応型共同生活介護】宮崎県日向市大字財光寺１１３１－２４", "url": "https://www.kaigokensaku.mhlw.go.jp/45/index.php?action_kouhyou_detail_004_kani=true&JigyosyoCd=4570600306-00&ServiceCd=320&Type=search", "url2": "www.kyowahospital.jp/" }, "geometry": { "type": "Point", "coordinates": [ 131.638142499999958, 32.4079404 ] } },
{ "type": "Feature", "properties": { "内容": "グループホーム仰星台1号館【認知症対応型共同生活介護】宮崎県日向市大字塩見10946-1", "url": "https://www.kaigokensaku.mhlw.go.jp/45/index.php?action_kouhyou_detail_004_kani=true&JigyosyoCd=4570600298-00&ServiceCd=320&Type=search", "url2": null }, "geometry": { "type": "Point", "coordinates": [ 131.593621, 32.4109138 ] } },
{ "type": "Feature", "properties": { "内容": "グループホームよりあい【認知症対応型共同生活介護】宮崎県日向市大字平岩８６２４番地１", "url": "https://www.kaigokensaku.mhlw.go.jp/45/index.php?action_kouhyou_detail_004_kani=true&JigyosyoCd=4570600421-00&ServiceCd=320&Type=search", "url2": null }, "geometry": { "type": "Point", "coordinates": [ 131.626121900000044, 32.3907419 ] } },
{ "type": "Feature", "properties": { "内容": "グループホームみみつ2号館【認知症対応型共同生活介護】宮崎県日向市美々津町２９７５番地", "url": "https://www.kaigokensaku.mhlw.go.jp/45/index.php?action_kouhyou_detail_004_kani=true&JigyosyoCd=4590600179-00&ServiceCd=320&Type=search", "url2": "mimata34＠mb.wainet.ne.jp" }, "geometry": { "type": "Point", "coordinates": [ 131.610205900000011, 32.3339325 ] } },
{ "type": "Feature", "properties": { "内容": "グループホーム仰星台東郷【認知症対応型共同生活介護】宮崎県日向市東郷町山陰丙1507番地2", "url": "https://www.kaigokensaku.mhlw.go.jp/45/index.php?action_kouhyou_detail_004_kani=true&JigyosyoCd=4572100586-00&ServiceCd=320&Type=search", "url2": null }, "geometry": { "type": "Point", "coordinates": [ 131.530457899999988, 32.3893143 ] } },
{ "type": "Feature", "properties": { "内容": "グループホーム仰星台入綾【認知症対応型共同生活介護】宮崎県日向市東郷町山陰丙1494-1", "url": "https://www.kaigokensaku.mhlw.go.jp/45/index.php?action_kouhyou_detail_004_kani=true&JigyosyoCd=4572100842-00&ServiceCd=320&Type=search", "url2": null }, "geometry": { "type": "Point", "coordinates": [ 131.530919, 32.3903641 ] } },
{ "type": "Feature", "properties": { "内容": "永寿園グループホームひむかてらす【認知症対応型共同生活介護】大字富高6957番地1", "url": "https://www.kaigokensaku.mhlw.go.jp/45/index.php?action_kouhyou_detail_004_kani=true&JigyosyoCd=4590600070-00&ServiceCd=320&Type=search", "url2": "www.himawarikai.or.jp/" }, "geometry": { "type": "Point", "coordinates": [ 131.622279099999986, 32.4266271 ] } },
{ "type": "Feature", "properties": { "内容": "グループホームほほえみの里【認知症対応型共同生活介護】宮崎県日向市東郷町山陰697番地5", "url": "https://www.kaigokensaku.mhlw.go.jp/45/index.php?action_kouhyou_detail_004_kani=true&JigyosyoCd=4572100859-00&ServiceCd=320&Type=search", "url2": null }, "geometry": { "type": "Point", "coordinates": [ 131.563026700000023, 32.315700200000016 ] } },
{ "type": "Feature", "properties": { "内容": "グループホーム静妙庵【認知症対応型共同生活介護】宮崎県日向市美々津町４０８３番地", "url": "https://www.kaigokensaku.mhlw.go.jp/45/index.php?action_kouhyou_detail_004_kani=true&JigyosyoCd=4590600088-00&ServiceCd=320&Type=search", "url2": "tachinuikai.or.jp" }, "geometry": { "type": "Point", "coordinates": [ 131.611908399999948, 32.336497 ] } },
{ "type": "Feature", "properties": { "内容": "グループホームのぞみ【認知症対応型共同生活介護】宮崎県串間市大字南方字金谷城4210", "url": "https://www.kaigokensaku.mhlw.go.jp/45/index.php?action_kouhyou_detail_004_kani=true&JigyosyoCd=4570700247-00&ServiceCd=320&Type=search", "url2": "http://kuroshiokai.com/nozomi/gaiyo.html" }, "geometry": { "type": "Point", "coordinates": [ 131.214999443286189, 31.444074347870632 ] } },
{ "type": "Feature", "properties": { "内容": "グループホームなごみ【認知症対応型共同生活介護】宮崎県串間市大字西方4196-5", "url": "https://www.kaigokensaku.mhlw.go.jp/45/index.php?action_kouhyou_detail_004_kani=true&JigyosyoCd=4570700197-00&ServiceCd=320&Type=search", "url2": "https://kuroshiokai.com/guide/nagomi/" }, "geometry": { "type": "Point", "coordinates": [ 131.230590825994938, 31.470280477132167 ] } },
{ "type": "Feature", "properties": { "内容": "医療法人社団とめのファミリークリニック　グループホームみずなら【認知症対応型共同生活介護】宮崎県串間市大字都井字田中3030番地1", "url": "https://www.kaigokensaku.mhlw.go.jp/45/index.php?action_kouhyou_detail_004_kani=true&JigyosyoCd=4590700029-00&ServiceCd=320&Type=search", "url2": null }, "geometry": { "type": "Point", "coordinates": [ 131.306544475007627, 31.401148544702121 ] } },
{ "type": "Feature", "properties": { "内容": "グループホーム長寿【認知症対応型共同生活介護】宮崎県串間市大字奈留5333番地", "url": "https://www.kaigokensaku.mhlw.go.jp/45/index.php?action_kouhyou_detail_004_kani=true&JigyosyoCd=4590700011-00&ServiceCd=320&Type=search", "url2": "http://www.shueikai.or.jp/" }, "geometry": { "type": "Point", "coordinates": [ 131.260091099999954, 31.5263026 ] } },
{ "type": "Feature", "properties": { "内容": "グループホームほたる【認知症対応型共同生活介護】宮崎県串間市大字本城7612グループホームほたる", "url": "https://www.kaigokensaku.mhlw.go.jp/45/index.php?action_kouhyou_detail_004_kani=true&JigyosyoCd=4590700037-00&ServiceCd=320&Type=search", "url2": null }, "geometry": { "type": "Point", "coordinates": [ 131.262971599999986, 31.4300144 ] } },
{ "type": "Feature", "properties": { "内容": "グループホームあじさい【認知症対応型共同生活介護】宮崎県西都市聖陵町１丁目１５番地", "url": "https://www.kaigokensaku.mhlw.go.jp/45/index.php?action_kouhyou_detail_004_kani=true&JigyosyoCd=4570800195-00&ServiceCd=320&Type=search", "url2": "ajisai@ryutoku.or.jp" }, "geometry": { "type": "Point", "coordinates": [ 131.401169100000061, 32.1094926 ] } },
{ "type": "Feature", "properties": { "内容": "医療法人暁星会グループホーム並木【認知症対応型共同生活介護】宮崎県西都市大字下三財8124番地8", "url": "https://www.kaigokensaku.mhlw.go.jp/45/index.php?action_kouhyou_detail_004_kani=true&JigyosyoCd=4570800203-00&ServiceCd=320&Type=search", "url2": "http://www.gyoseikai.jp" }, "geometry": { "type": "Point", "coordinates": [ 131.344877600000018, 32.0693458 ] } },
{ "type": "Feature", "properties": { "内容": "グループホームあさひ【認知症対応型共同生活介護】宮崎県西都市旭1丁目50番地", "url": "https://www.kaigokensaku.mhlw.go.jp/45/index.php?action_kouhyou_detail_004_kani=true&JigyosyoCd=4590800019-00&ServiceCd=320&Type=search", "url2": "asahi@ryutoku.or.jp" }, "geometry": { "type": "Point", "coordinates": [ 131.409438, 32.1114396 ] } },
{ "type": "Feature", "properties": { "内容": "グループホーム稲穂【認知症対応型共同生活介護】西都市大字南方３３７２番地７", "url": "https://www.kaigokensaku.mhlw.go.jp/45/index.php?action_kouhyou_detail_004_kani=true&JigyosyoCd=4590800035-00&ServiceCd=320&Type=search", "url2": "https://www.ookisang.com/" }, "geometry": { "type": "Point", "coordinates": [ 131.395640755017098, 32.128666768956506 ] } },
{ "type": "Feature", "properties": { "内容": "グループホーム菜花園【認知症対応型共同生活介護】宮崎県西都市大字穂北5253番地105", "url": "https://www.kaigokensaku.mhlw.go.jp/45/index.php?action_kouhyou_detail_004_kani=true&JigyosyoCd=4570800237-00&ServiceCd=320&Type=search", "url2": "http://www.ryutoku.or.jp/gh-saikaen/" }, "geometry": { "type": "Point", "coordinates": [ 131.441689563090478, 32.134824807775168 ] } },
{ "type": "Feature", "properties": { "内容": "グループホーム顔なじみ【認知症対応型共同生活介護】宮崎県えびの市大字榎田579番地36", "url": "https://www.kaigokensaku.mhlw.go.jp/45/index.php?action_kouhyou_detail_004_kani=true&JigyosyoCd=4570900185-00&ServiceCd=320&Type=search", "url2": "http://ebino-meiyukai.or.jp" }, "geometry": { "type": "Point", "coordinates": [ 130.812620199999969, 32.0663669 ] } },
{ "type": "Feature", "properties": { "内容": "グループホームあおい（葵）【認知症対応型共同生活介護】宮崎県えびの市大字原田2153番地6", "url": "https://www.kaigokensaku.mhlw.go.jp/45/index.php?action_kouhyou_detail_004_kani=true&JigyosyoCd=4590900017-00&ServiceCd=320&Type=search", "url2": "https://care-net.biz/45/ebinodaiichi/" }, "geometry": { "type": "Point", "coordinates": [ 130.8737582, 32.0306279 ] } },
{ "type": "Feature", "properties": { "内容": "グループホームもみの木【認知症対応型共同生活介護】宮崎県えびの市大字原田2199番地1", "url": "https://www.kaigokensaku.mhlw.go.jp/45/index.php?action_kouhyou_detail_004_kani=true&JigyosyoCd=4590900025-00&ServiceCd=320&Type=search", "url2": "https:/care-net.biz/45/ebinodaiichi/" }, "geometry": { "type": "Point", "coordinates": [ 130.86970569999994, 32.0325526 ] } },
{ "type": "Feature", "properties": { "内容": "グループホーム正寿の光【認知症対応型共同生活介護】大字蓼池4607番地1", "url": "https://www.kaigokensaku.mhlw.go.jp/45/index.php?action_kouhyou_detail_004_kani=true&JigyosyoCd=4591700010-00&ServiceCd=320&Type=search", "url2": "http://www.yoshihara-c.co.jp/business_09.html" }, "geometry": { "type": "Point", "coordinates": [ 131.11132269999996, 31.7624296 ] } },
{ "type": "Feature", "properties": { "内容": "グループホームはればれ【認知症対応型共同生活介護】宮崎県北諸県郡三股町稗田46-13", "url": "https://www.kaigokensaku.mhlw.go.jp/45/index.php?action_kouhyou_detail_004_kani=true&JigyosyoCd=4571700733-00&ServiceCd=320&Type=search", "url2": null }, "geometry": { "type": "Point", "coordinates": [ 131.10479620000001, 31.7330792 ] } },
{ "type": "Feature", "properties": { "内容": "グループホーム2ユニットさつき【認知症対応型共同生活介護】宮崎県北諸県郡三股町樺山4845番地8", "url": "https://www.kaigokensaku.mhlw.go.jp/45/index.php?action_kouhyou_detail_004_kani=true&JigyosyoCd=4571700543-00&ServiceCd=320&Type=search", "url2": "http://www.houei-group.or.jp/index.htm" }, "geometry": { "type": "Point", "coordinates": [ 131.10153779999996, 31.7423478 ] } },
{ "type": "Feature", "properties": { "内容": "グループホーム　ミューズの空　高原【認知症対応型共同生活介護】宮崎県高原町大字蒲牟田7351－2", "url": "https://www.kaigokensaku.mhlw.go.jp/45/index.php?action_kouhyou_detail_004_kani=true&JigyosyoCd=4571800186-00&ServiceCd=320&Type=search", "url2": "http://hoshakai.com/" }, "geometry": { "type": "Point", "coordinates": [ 130.988717500933035, 31.894680096492795 ] } },
{ "type": "Feature", "properties": { "内容": "医療法人豊寿会川井田医院グループホーム皇子原【認知症対応型共同生活介護】宮崎県西諸県郡高原町大字西麓１７３番地３", "url": "https://www.kaigokensaku.mhlw.go.jp/45/index.php?action_kouhyou_detail_004_kani=true&JigyosyoCd=4571800194-00&ServiceCd=320&Type=search", "url2": "https://kawaidaclinic.com/" }, "geometry": { "type": "Point", "coordinates": [ 131.001325394581613, 31.923528195595416 ] } },
{ "type": "Feature", "properties": { "内容": "夢の村グループホーム【認知症対応型共同生活介護】宮崎県西諸県郡高原町大字広原3821番地1", "url": "https://www.kaigokensaku.mhlw.go.jp/45/index.php?action_kouhyou_detail_004_kani=true&JigyosyoCd=4571800400-00&ServiceCd=320&Type=search", "url2": "http://www4.ocn.ne.jp/~ricskiri/mypage9.htm" }, "geometry": { "type": "Point", "coordinates": [ 130.9857852, 31.9356454 ] } },
{ "type": "Feature", "properties": { "内容": "グループホームマザーハウス【認知症対応型共同生活介護】宮崎県東諸県郡国富町本庄４３６１-１", "url": "https://www.kaigokensaku.mhlw.go.jp/45/index.php?action_kouhyou_detail_004_kani=true&JigyosyoCd=4571900440-00&ServiceCd=320&Type=search", "url2": "http://www.junyoukai.or.jp/" }, "geometry": { "type": "Point", "coordinates": [ 131.331546300000014, 31.9877522 ] } },
{ "type": "Feature", "properties": { "内容": "グループホームサンメリー【認知症対応型共同生活介護】宮崎県東諸県郡国富町大字岩知野３５５－１", "url": "https://www.kaigokensaku.mhlw.go.jp/45/index.php?action_kouhyou_detail_004_kani=true&JigyosyoCd=4571900242-00&ServiceCd=320&Type=search", "url2": "www.keimeisw.or.jp/sunmeri/sunmeri.html" }, "geometry": { "type": "Point", "coordinates": [ 131.3692115, 31.973432 ] } },
{ "type": "Feature", "properties": { "内容": "認知症高齢者グループホームこすもす【認知症対応型共同生活介護】宮崎県国富町本庄１２１４６－３", "url": "https://www.kaigokensaku.mhlw.go.jp/45/index.php?action_kouhyou_detail_004_kani=true&JigyosyoCd=4571900416-00&ServiceCd=320&Type=search", "url2": "https://www.ichigoichie-kunitomi.com/" }, "geometry": { "type": "Point", "coordinates": [ 131.341623300000037, 31.9964489 ] } },
{ "type": "Feature", "properties": { "内容": "グループホーム吉祥【認知症対応型共同生活介護】宮崎県東諸県郡国富町大字竹田1613-1ケアマンション吉祥", "url": "https://www.kaigokensaku.mhlw.go.jp/45/index.php?action_kouhyou_detail_004_kani=true&JigyosyoCd=4571900275-00&ServiceCd=320&Type=search", "url2": "ｈｔｔｐ：//ｗｗｗ.ichigoichie-kunitomi.com/" }, "geometry": { "type": "Point", "coordinates": [ 131.290578399999958, 32.0007142 ] } },
{ "type": "Feature", "properties": { "内容": "グループホームさくらの里【認知症対応型共同生活介護】宮崎県東諸県郡国富町大字三名字初田2621番6", "url": "https://www.kaigokensaku.mhlw.go.jp/45/index.php?action_kouhyou_detail_004_kani=true&JigyosyoCd=4591900081-00&ServiceCd=320&Type=search", "url2": "https：//www.keimeisw.or.jp" }, "geometry": { "type": "Point", "coordinates": [ 131.349872701582626, 32.007680173246804 ] } },
{ "type": "Feature", "properties": { "内容": "グループホームコスモス苑【認知症対応型共同生活介護】宮崎県東諸県郡綾町大字南俣１１１６グループホームコスモス苑", "url": "https://www.kaigokensaku.mhlw.go.jp/45/index.php?action_kouhyou_detail_004_kani=true&JigyosyoCd=4571900309-00&ServiceCd=320&Type=search", "url2": null }, "geometry": { "type": "Point", "coordinates": [ 131.247163, 31.996441 ] } },
{ "type": "Feature", "properties": { "内容": "グループホーム遊友【認知症対応型共同生活介護】宮崎県児湯郡高鍋町大字上江1831-2", "url": "https://www.kaigokensaku.mhlw.go.jp/45/index.php?action_kouhyou_detail_004_kani=true&JigyosyoCd=4572000638-00&ServiceCd=320&Type=search", "url2": null }, "geometry": { "type": "Point", "coordinates": [ 131.501555477246058, 32.134282745278739 ] } },
{ "type": "Feature", "properties": { "内容": "グループホームなごやか【認知症対応型共同生活介護】宮崎県児湯郡高鍋町大字上江1940番地２", "url": "https://www.kaigokensaku.mhlw.go.jp/45/index.php?action_kouhyou_detail_004_kani=true&JigyosyoCd=4572000687-00&ServiceCd=320&Type=search", "url2": null }, "geometry": { "type": "Point", "coordinates": [ 131.503820899999937, 32.1372171 ] } },
{ "type": "Feature", "properties": { "内容": "グループホームすいせん高鍋【認知症対応型共同生活介護】宮崎県児湯郡高鍋町大字上江6649-145", "url": "https://www.kaigokensaku.mhlw.go.jp/45/index.php?action_kouhyou_detail_004_kani=true&JigyosyoCd=4572000679-00&ServiceCd=320&Type=search", "url2": null }, "geometry": { "type": "Point", "coordinates": [ 131.47015250000004, 32.1148296 ] } },
{ "type": "Feature", "properties": { "内容": "グループホーム　メゾン・こもれび【認知症対応型共同生活介護】宮崎県児湯郡高鍋町大字北高鍋4775番地", "url": "https://www.kaigokensaku.mhlw.go.jp/45/index.php?action_kouhyou_detail_004_kani=true&JigyosyoCd=4592000048-00&ServiceCd=320&Type=search", "url2": "http://www.sanjinkai.jp" }, "geometry": { "type": "Point", "coordinates": [ 131.521869599999945, 32.1263156 ] } },
{ "type": "Feature", "properties": { "内容": "グループホーム陽【認知症対応型共同生活介護】宮崎県児湯郡新富町大字上富田２９３４－１", "url": "https://www.kaigokensaku.mhlw.go.jp/45/index.php?action_kouhyou_detail_004_kani=true&JigyosyoCd=4572000703-00&ServiceCd=320&Type=search", "url2": null }, "geometry": { "type": "Point", "coordinates": [ 131.478841147659836, 32.05599840811432 ] } },
{ "type": "Feature", "properties": { "内容": "グループホームしんとみ希望の里【認知症対応型共同生活介護】宮崎県児湯郡新富町大字下富田字小島江629番地5", "url": "https://www.kaigokensaku.mhlw.go.jp/45/index.php?action_kouhyou_detail_004_kani=true&JigyosyoCd=4572000505-00&ServiceCd=320&Type=search", "url2": "http://www.kouseikai.biz/" }, "geometry": { "type": "Point", "coordinates": [ 131.499420148931648, 32.055243242993598 ] } },
{ "type": "Feature", "properties": { "内容": "グループホームこすもす２号館【認知症対応型共同生活介護】宮崎県児湯郡新富町大字上富田５３３２", "url": "https://www.kaigokensaku.mhlw.go.jp/45/index.php?action_kouhyou_detail_004_kani=true&JigyosyoCd=4592000014-00&ServiceCd=320&Type=search", "url2": "http://www.npo-kosumosu.com" }, "geometry": { "type": "Point", "coordinates": [ 131.475627139286871, 32.064855312080809 ] } },
{ "type": "Feature", "properties": { "内容": "グループホームのぞみ【認知症対応型共同生活介護】宮崎県児湯郡木城町大字川原８８１－１", "url": "https://www.kaigokensaku.mhlw.go.jp/45/index.php?action_kouhyou_detail_004_kani=true&JigyosyoCd=4572000786-00&ServiceCd=320&Type=search", "url2": null }, "geometry": { "type": "Point", "coordinates": [ 131.426773200000071, 32.1723731 ] } },
{ "type": "Feature", "properties": { "内容": "グループホームこすもす【認知症対応型共同生活介護】宮崎県児湯郡木城町大字椎木４００７－２", "url": "https://www.kaigokensaku.mhlw.go.jp/45/index.php?action_kouhyou_detail_004_kani=true&JigyosyoCd=4572000521-00&ServiceCd=320&Type=search", "url2": "npo-kosumosu.com" }, "geometry": { "type": "Point", "coordinates": [ 131.463731899999971, 32.1572282 ] } },
{ "type": "Feature", "properties": { "内容": "グループホーム木の瀬【認知症対応型共同生活介護】宮崎県児湯郡木城町大字椎木6023-1", "url": "https://www.kaigokensaku.mhlw.go.jp/45/index.php?action_kouhyou_detail_004_kani=true&JigyosyoCd=4592000121-00&ServiceCd=320&Type=search", "url2": "group@kinose0220.com" }, "geometry": { "type": "Point", "coordinates": [ 131.4674344, 32.1585837 ] } },
{ "type": "Feature", "properties": { "内容": "グループホームこすもす３号館【認知症対応型共同生活介護】宮崎県児湯郡川南町大字川南23167-19", "url": "https://www.kaigokensaku.mhlw.go.jp/45/index.php?action_kouhyou_detail_004_kani=true&JigyosyoCd=4592000113-00&ServiceCd=320&Type=search", "url2": "http://www.npo-kosumosu.com/" }, "geometry": { "type": "Point", "coordinates": [ 131.514300899999967, 32.1830987 ] } },
{ "type": "Feature", "properties": { "内容": "グループホームすいせん川南【認知症対応型共同生活介護】宮崎県児湯郡川南町大字川南19415-1", "url": "https://www.kaigokensaku.mhlw.go.jp/45/index.php?action_kouhyou_detail_004_kani=true&JigyosyoCd=4572000562-00&ServiceCd=320&Type=search", "url2": null }, "geometry": { "type": "Point", "coordinates": [ 131.5284785, 32.206086 ] } },
{ "type": "Feature", "properties": { "内容": "グループホームあかつき【認知症対応型共同生活介護】宮崎県児湯郡川南町大字川南18073-1", "url": "https://www.kaigokensaku.mhlw.go.jp/45/index.php?action_kouhyou_detail_004_kani=true&JigyosyoCd=4572000661-00&ServiceCd=320&Type=search", "url2": null }, "geometry": { "type": "Point", "coordinates": [ 131.518648399999961, 32.222037 ] } },
{ "type": "Feature", "properties": { "内容": "グループホーム　こころみ【認知症対応型共同生活介護】16975-3", "url": "https://www.kaigokensaku.mhlw.go.jp/45/index.php?action_kouhyou_detail_004_kani=true&JigyosyoCd=4592000089-00&ServiceCd=320&Type=search", "url2": null }, "geometry": { "type": "Point", "coordinates": [ 106.9618527, -6.3204396 ] } },
{ "type": "Feature", "properties": { "内容": "グループホームおすず【認知症対応型共同生活介護】宮崎県児湯郡都農町大字川北5484－1", "url": "https://www.kaigokensaku.mhlw.go.jp/45/index.php?action_kouhyou_detail_004_kani=true&JigyosyoCd=4572000489-00&ServiceCd=320&Type=search", "url2": null }, "geometry": { "type": "Point", "coordinates": [ 131.555827069311562, 32.255168775868029 ] } },
{ "type": "Feature", "properties": { "内容": "グループホームあおぞら【認知症対応型共同生活介護】宮崎県児湯郡都農町大字川北15245‐2", "url": "https://www.kaigokensaku.mhlw.go.jp/45/index.php?action_kouhyou_detail_004_kani=true&JigyosyoCd=4572000513-00&ServiceCd=320&Type=search", "url2": null }, "geometry": { "type": "Point", "coordinates": [ 131.564196053967294, 32.269431545462879 ] } },
{ "type": "Feature", "properties": { "内容": "グループホームたいよう【認知症対応型共同生活介護】宮崎県児湯郡都農町大字川北6219番地42", "url": "https://www.kaigokensaku.mhlw.go.jp/45/index.php?action_kouhyou_detail_004_kani=true&JigyosyoCd=4572000752-00&ServiceCd=320&Type=search", "url2": "mail.nishukai.jp" }, "geometry": { "type": "Point", "coordinates": [ 131.543769800000064, 32.2506848 ] } },
{ "type": "Feature", "properties": { "内容": "グループホームゆりかもめ【認知症対応型共同生活介護】宮崎県東臼杵郡門川町東栄町４－５－１４", "url": "https://www.kaigokensaku.mhlw.go.jp/45/index.php?action_kouhyou_detail_004_kani=true&JigyosyoCd=4572100610-00&ServiceCd=320&Type=search", "url2": null }, "geometry": { "type": "Point", "coordinates": [ 131.654405099999963, 32.4808139 ] } },
{ "type": "Feature", "properties": { "内容": "グループホームなごみ【認知症対応型共同生活介護】宮崎県東臼杵郡門川町須賀崎４丁目４８番地", "url": "https://www.kaigokensaku.mhlw.go.jp/45/index.php?action_kouhyou_detail_004_kani=true&JigyosyoCd=4572100602-00&ServiceCd=320&Type=search", "url2": "https://www.npo-ikiikikai.com" }, "geometry": { "type": "Point", "coordinates": [ 131.667359499999947, 32.489936 ] } },
{ "type": "Feature", "properties": { "内容": "グループホーム　みさと【認知症対応型共同生活介護】宮崎県東臼杵郡美郷町西郷田代2208番地", "url": "https://www.kaigokensaku.mhlw.go.jp/45/index.php?action_kouhyou_detail_004_kani=true&JigyosyoCd=4592100020-00&ServiceCd=320&Type=search", "url2": null }, "geometry": { "type": "Point", "coordinates": [ 131.424090200000023, 32.434251 ] } },
{ "type": "Feature", "properties": { "内容": "グループホームあじさい苑【認知症対応型共同生活介護】宮崎県東臼杵郡美郷町北郷宇納間170", "url": "https://www.kaigokensaku.mhlw.go.jp/45/index.php?action_kouhyou_detail_004_kani=true&JigyosyoCd=4572100644-00&ServiceCd=320&Type=search", "url2": "https://www.unamanosato.jp" }, "geometry": { "type": "Point", "coordinates": [ 131.443688100000031, 32.5049572 ] } },
{ "type": "Feature", "properties": { "内容": "ＪＡみやざきグループホームうなま【認知症対応型共同生活介護】宮崎県東臼杵郡美郷町北郷入下８００番地", "url": "https://www.kaigokensaku.mhlw.go.jp/45/index.php?action_kouhyou_detail_004_kani=true&JigyosyoCd=4592100053-00&ServiceCd=320&Type=search", "url2": null }, "geometry": { "type": "Point", "coordinates": [ 131.489028655819737, 32.494207942758194 ] } },
{ "type": "Feature", "properties": { "内容": "グループホームサクラ高千穂【認知症対応型共同生活介護】宮崎県西臼杵郡高千穂町三田井3258番地2", "url": "https://www.kaigokensaku.mhlw.go.jp/45/index.php?action_kouhyou_detail_004_kani=true&JigyosyoCd=4572200170-00&ServiceCd=320&Type=search", "url2": "https://care-line.jp/group" }, "geometry": { "type": "Point", "coordinates": [ 131.315369, 32.7202089 ] } },
{ "type": "Feature", "properties": { "内容": "グループホーム鶺鴒【認知症対応型共同生活介護】宮崎県西臼杵郡高千穂町大字押方1303番地4", "url": "https://www.kaigokensaku.mhlw.go.jp/45/index.php?action_kouhyou_detail_004_kani=true&JigyosyoCd=4572200154-00&ServiceCd=320&Type=search", "url2": "sekirei＠cotton.ocn.ne.jp" }, "geometry": { "type": "Point", "coordinates": [ 131.29284640000003, 32.7083954 ] } },
{ "type": "Feature", "properties": { "内容": "グループホーム寿久の里【認知症対応型共同生活介護】宮崎県西臼杵郡日之影町大字七折1850-1", "url": "https://www.kaigokensaku.mhlw.go.jp/45/index.php?action_kouhyou_detail_004_kani=true&JigyosyoCd=4592200028-00&ServiceCd=320&Type=search", "url2": null }, "geometry": { "type": "Point", "coordinates": [ 131.429941099999951, 32.6224962 ] } },
{ "type": "Feature", "properties": { "内容": "グループホーム逍遥亭【認知症対応型共同生活介護】宮崎県西臼杵郡五ヶ瀬町大字桑野内5364-14", "url": "https://www.kaigokensaku.mhlw.go.jp/45/index.php?action_kouhyou_detail_004_kani=true&JigyosyoCd=4592200010-00&ServiceCd=320&Type=search", "url2": null }, "geometry": { "type": "Point", "coordinates": [ 131.2114159, 32.6839531 ] } }
]
}
