{
"type": "FeatureCollection",
"name": "geo_45_短期入所生活介護",
"crs": { "type": "name", "properties": { "name": "urn:ogc:def:crs:OGC:1.3:CRS84" } },
"features": [
{ "type": "Feature", "properties": { "内容": "特別養護老人ホーム栄光園【短期入所生活介護】宮崎県宮崎市古城町柳町5157-1", "url": "https://www.kaigokensaku.mhlw.go.jp/45/index.php?action_kouhyou_detail_004_kani=true&JigyosyoCd=4570100950-00&ServiceCd=210&Type=search", "url2": "http://www.miyazaki-chojukai.info" }, "geometry": { "type": "Point", "coordinates": [ 131.381765702363623, 31.894504106588982 ] } },
{ "type": "Feature", "properties": { "内容": "特別養護老人ホーム三愛園【短期入所生活介護】宮崎県宮崎市新別府町前浜１４０１番地２７１", "url": "https://www.kaigokensaku.mhlw.go.jp/45/index.php?action_kouhyou_detail_004_kani=true&JigyosyoCd=4570100935-00&ServiceCd=210&Type=search", "url2": "http://www.shin-wa-kai.jp/" }, "geometry": { "type": "Point", "coordinates": [ 131.458190699999932, 31.9134542 ] } },
{ "type": "Feature", "properties": { "内容": "特別養護老人ホームしらふじ【短期入所生活介護】宮崎県宮崎市大字糸原400番地", "url": "https://www.kaigokensaku.mhlw.go.jp/45/index.php?action_kouhyou_detail_004_kani=true&JigyosyoCd=4570103830-00&ServiceCd=210&Type=search", "url2": "http://www.ryoundo.or.jp/" }, "geometry": { "type": "Point", "coordinates": [ 131.36863459999995, 31.95795 ] } },
{ "type": "Feature", "properties": { "内容": "特別養護老人ホームゴールデンレイク【短期入所生活介護】宮崎県宮崎市大字加江田４５１４－２", "url": "https://www.kaigokensaku.mhlw.go.jp/45/index.php?action_kouhyou_detail_004_kani=true&JigyosyoCd=4570100943-00&ServiceCd=210&Type=search", "url2": null }, "geometry": { "type": "Point", "coordinates": [ 131.444922799999972, 31.8116625 ] } },
{ "type": "Feature", "properties": { "内容": "星空の都みやざき【短期入所生活介護】宮崎県宮崎市吉村町平塚甲1820番地", "url": "https://www.kaigokensaku.mhlw.go.jp/45/index.php?action_kouhyou_detail_004_kani=true&JigyosyoCd=4570101438-00&ServiceCd=210&Type=search", "url2": "http://www.fujimoto.or.jp" }, "geometry": { "type": "Point", "coordinates": [ 131.4383748, 31.9199204 ] } },
{ "type": "Feature", "properties": { "内容": "短期入所生活介護事業所かなえ【短期入所生活介護】宮崎県宮崎市大字恒久5311番地1", "url": "https://www.kaigokensaku.mhlw.go.jp/45/index.php?action_kouhyou_detail_004_kani=true&JigyosyoCd=4570107658-00&ServiceCd=210&Type=search", "url2": "http://www.kanae-kai.com" }, "geometry": { "type": "Point", "coordinates": [ 131.412773099999981, 31.8906748 ] } },
{ "type": "Feature", "properties": { "内容": "特別養護老人ホーム　城ケ崎小戸の家【短期入所生活介護】宮崎県宮崎市城ケ崎3丁目3番地3", "url": "https://www.kaigokensaku.mhlw.go.jp/45/index.php?action_kouhyou_detail_004_kani=true&JigyosyoCd=4570106635-00&ServiceCd=210&Type=search", "url2": null }, "geometry": { "type": "Point", "coordinates": [ 131.432569699999931, 31.8979026 ] } },
{ "type": "Feature", "properties": { "内容": "特別養護老人ホームヴィラ・サザン【短期入所生活介護】宮崎県宮崎市本郷北方2717番地15", "url": "https://www.kaigokensaku.mhlw.go.jp/45/index.php?action_kouhyou_detail_004_kani=true&JigyosyoCd=4570102881-00&ServiceCd=210&Type=search", "url2": "http://www.villa-southern.net/" }, "geometry": { "type": "Point", "coordinates": [ 131.409435199999962, 31.8747732 ] } },
{ "type": "Feature", "properties": { "内容": "特別養護老人ホームみやざき荘【短期入所生活介護】宮崎県宮崎市大字田吉４９７７－３７４", "url": "https://www.kaigokensaku.mhlw.go.jp/45/index.php?action_kouhyou_detail_004_kani=true&JigyosyoCd=4570100927-00&ServiceCd=210&Type=search", "url2": "http://www.m-sj.or.jp/miyazaki/" }, "geometry": { "type": "Point", "coordinates": [ 131.446992899999941, 31.8699745 ] } },
{ "type": "Feature", "properties": { "内容": "ふじ野園　短期入所生活介護【短期入所生活介護】宮崎駅東三丁目９番１０", "url": "https://www.kaigokensaku.mhlw.go.jp/45/index.php?action_kouhyou_detail_004_kani=true&JigyosyoCd=4570105900-00&ServiceCd=210&Type=search", "url2": "https://www.kouwakai-f.jp/" }, "geometry": { "type": "Point", "coordinates": [ 131.432511160188255, 31.919534288872573 ] } },
{ "type": "Feature", "properties": { "内容": "老人短期入所施設ミューズの星新別府町【短期入所生活介護】宮崎県宮崎市新別府町薦藁1955番地１", "url": "https://www.kaigokensaku.mhlw.go.jp/45/index.php?action_kouhyou_detail_004_kani=true&JigyosyoCd=4570104325-00&ServiceCd=210&Type=search", "url2": "http://hoshakai.com" }, "geometry": { "type": "Point", "coordinates": [ 131.458712900000023, 31.9257108 ] } },
{ "type": "Feature", "properties": { "内容": "特別養護老人ホーム芳生苑【短期入所生活介護】宮崎県宮崎市大字大瀬町３１９０番地", "url": "https://www.kaigokensaku.mhlw.go.jp/45/index.php?action_kouhyou_detail_004_kani=true&JigyosyoCd=4570100968-00&ServiceCd=210&Type=search", "url2": "http:www.houseien.jp/" }, "geometry": { "type": "Point", "coordinates": [ 131.379485599999953, 31.9842369 ] } },
{ "type": "Feature", "properties": { "内容": "養護盲老人ホーム生目幸明荘【短期入所生活介護】宮崎県宮崎市大字跡江２３６６番地", "url": "https://www.kaigokensaku.mhlw.go.jp/45/index.php?action_kouhyou_detail_004_kani=true&JigyosyoCd=4570101396-00&ServiceCd=210&Type=search", "url2": "http://www.ryoundo.or.jp/" }, "geometry": { "type": "Point", "coordinates": [ 131.390806699999985, 31.9379969 ] } },
{ "type": "Feature", "properties": { "内容": "特別養護老人ホームリバーサイド学園木花【短期入所生活介護】宮崎県宮崎市大字鏡洲560番地", "url": "https://www.kaigokensaku.mhlw.go.jp/45/index.php?action_kouhyou_detail_004_kani=true&JigyosyoCd=4570100984-00&ServiceCd=210&Type=search", "url2": "http://www.riverside-gk.jp/" }, "geometry": { "type": "Point", "coordinates": [ 131.399279699999965, 31.8263961 ] } },
{ "type": "Feature", "properties": { "内容": "特別養護老人ホーム皇寿園【短期入所生活介護】宮崎県宮崎市阿波岐原町前浜4276番地650", "url": "https://www.kaigokensaku.mhlw.go.jp/45/index.php?action_kouhyou_detail_004_kani=true&JigyosyoCd=4570101008-00&ServiceCd=210&Type=search", "url2": "http://www.hyugakosei.jp/" }, "geometry": { "type": "Point", "coordinates": [ 131.462565300000051, 31.9398452 ] } },
{ "type": "Feature", "properties": { "内容": "特別養護老人ホームわにつか荘【短期入所生活介護】宮崎県宮崎市田野町乙１７４２番地３０", "url": "https://www.kaigokensaku.mhlw.go.jp/45/index.php?action_kouhyou_detail_004_kani=true&JigyosyoCd=4571500547-00&ServiceCd=210&Type=search", "url2": "http://www.fukushi-zenjinkai.jp/wanitsuka/" }, "geometry": { "type": "Point", "coordinates": [ 131.276612399999976, 31.8379007 ] } },
{ "type": "Feature", "properties": { "内容": "特別養護老人ホームめぐみの里【短期入所生活介護】宮崎市佐土原町東上那珂12809-1", "url": "https://www.kaigokensaku.mhlw.go.jp/45/index.php?action_kouhyou_detail_004_kani=true&JigyosyoCd=4571500273-00&ServiceCd=210&Type=search", "url2": "https://www.megumi-village.jp" }, "geometry": { "type": "Point", "coordinates": [ 131.43382109999996, 32.0195968 ] } },
{ "type": "Feature", "properties": { "内容": "特別養護老人ホーム寿幸園【短期入所生活介護】宮崎県宮崎市清武町木原5232番地2", "url": "https://www.kaigokensaku.mhlw.go.jp/45/index.php?action_kouhyou_detail_004_kani=true&JigyosyoCd=4571500257-00&ServiceCd=210&Type=search", "url2": "http://www.koujikai.com" }, "geometry": { "type": "Point", "coordinates": [ 131.3995625, 31.8421003 ] } },
{ "type": "Feature", "properties": { "内容": "特別養護老人ホーム裕生園【短期入所生活介護】宮崎県宮崎市高岡町内山2407番地3", "url": "https://www.kaigokensaku.mhlw.go.jp/45/index.php?action_kouhyou_detail_004_kani=true&JigyosyoCd=4571900036-00&ServiceCd=210&Type=search", "url2": "http://www.sin-ai-kai.jp" }, "geometry": { "type": "Point", "coordinates": [ 131.2952745, 31.968258 ] } },
{ "type": "Feature", "properties": { "内容": "多機能リハビリステーションケアふる【短期入所生活介護】宮崎県宮崎市吉村町南田甲1051番地12", "url": "https://www.kaigokensaku.mhlw.go.jp/45/index.php?action_kouhyou_detail_004_kani=true&JigyosyoCd=4570104192-00&ServiceCd=210&Type=search", "url2": "https://care-project.co.jp" }, "geometry": { "type": "Point", "coordinates": [ 131.453253550388695, 31.917342250402648 ] } },
{ "type": "Feature", "properties": { "内容": "特別養護老人ホーム悠楽園【短期入所生活介護】宮崎県宮崎市大字跡江２３６６番地", "url": "https://www.kaigokensaku.mhlw.go.jp/45/index.php?action_kouhyou_detail_004_kani=true&JigyosyoCd=4570100919-00&ServiceCd=210&Type=search", "url2": "http://www.ryoundo.or.jp/" }, "geometry": { "type": "Point", "coordinates": [ 131.390806699999985, 31.9379969 ] } },
{ "type": "Feature", "properties": { "内容": "特別養護老人ホ－ム住之江【短期入所生活介護】宮崎県宮崎市大字島之内２７５２番地", "url": "https://www.kaigokensaku.mhlw.go.jp/45/index.php?action_kouhyou_detail_004_kani=true&JigyosyoCd=4570100976-00&ServiceCd=210&Type=search", "url2": "http://www.m-shinwakai.jp" }, "geometry": { "type": "Point", "coordinates": [ 131.450316499999985, 31.9937381 ] } },
{ "type": "Feature", "properties": { "内容": "星空の都さどわら【短期入所生活介護】宮崎県宮崎市佐土原町下那珂３１６５番地１", "url": "https://www.kaigokensaku.mhlw.go.jp/45/index.php?action_kouhyou_detail_004_kani=true&JigyosyoCd=4571500265-00&ServiceCd=210&Type=search", "url2": "sadowara.info@fujimoto.or.jp" }, "geometry": { "type": "Point", "coordinates": [ 131.466331399999945, 32.0018854 ] } },
{ "type": "Feature", "properties": { "内容": "アリビオさくらショートステイ【短期入所生活介護】宮崎県宮崎市清武町大字加納甲1318-1", "url": "https://www.kaigokensaku.mhlw.go.jp/45/index.php?action_kouhyou_detail_004_kani=true&JigyosyoCd=4571500661-00&ServiceCd=210&Type=search", "url2": "http://tokueikai.lar.jp/alivio/index.htm/" }, "geometry": { "type": "Point", "coordinates": [ 131.389886599999954, 31.8721445 ] } },
{ "type": "Feature", "properties": { "内容": "六角堂短期入所生活介護事業所【短期入所生活介護】宮崎市大字島之内7391番地", "url": "https://www.kaigokensaku.mhlw.go.jp/45/index.php?action_kouhyou_detail_004_kani=true&JigyosyoCd=4570108771-00&ServiceCd=210&Type=search", "url2": "http://www.dojunkai.com" }, "geometry": { "type": "Point", "coordinates": [ 131.448700499999973, 31.9837779 ] } },
{ "type": "Feature", "properties": { "内容": "特別養護老人ホーム江南よしみ園【短期入所生活介護】宮崎県宮崎市古城町南川内６７６", "url": "https://www.kaigokensaku.mhlw.go.jp/45/index.php?action_kouhyou_detail_004_kani=true&JigyosyoCd=4570102071-00&ServiceCd=210&Type=search", "url2": "http://www.kounanyoshimi.com/" }, "geometry": { "type": "Point", "coordinates": [ 131.400454800000034, 31.8859772 ] } },
{ "type": "Feature", "properties": { "内容": "短期入所生活介護　庄内の里【短期入所生活介護】宮崎県都城市庄内町8673番地", "url": "https://www.kaigokensaku.mhlw.go.jp/45/index.php?action_kouhyou_detail_004_kani=true&JigyosyoCd=4570202897-00&ServiceCd=210&Type=search", "url2": "http://mjfj.net/jouyou/hakujuen/" }, "geometry": { "type": "Point", "coordinates": [ 131.021518799999967, 31.7700623 ] } },
{ "type": "Feature", "properties": { "内容": "ショートステイまりあ【短期入所生活介護】宮崎県都城市志比田町9573番地1ショートステイまりあ", "url": "https://www.kaigokensaku.mhlw.go.jp/45/index.php?action_kouhyou_detail_004_kani=true&JigyosyoCd=4570203374-00&ServiceCd=210&Type=search", "url2": "http://www.maria-f.jp" }, "geometry": { "type": "Point", "coordinates": [ 131.04715772261514, 31.752194538663481 ] } },
{ "type": "Feature", "properties": { "内容": "ショートステイわかば【短期入所生活介護】宮崎県都城市上長飯町2664番地地域密着型特別養護老人ホームわかば内", "url": "https://www.kaigokensaku.mhlw.go.jp/45/index.php?action_kouhyou_detail_004_kani=true&JigyosyoCd=4570204166-00&ServiceCd=210&Type=search", "url2": "http://www.oyd-welfare.jp" }, "geometry": { "type": "Point", "coordinates": [ 131.087272900000016, 31.7106948 ] } },
{ "type": "Feature", "properties": { "内容": "老人短期入所施設ミューズの星五十町【短期入所生活介護】宮崎県都城市五十町２３６８番地１", "url": "https://www.kaigokensaku.mhlw.go.jp/45/index.php?action_kouhyou_detail_004_kani=true&JigyosyoCd=4570201808-00&ServiceCd=210&Type=search", "url2": "http://hoshakai.com/" }, "geometry": { "type": "Point", "coordinates": [ 131.032477400000062, 31.7164346 ] } },
{ "type": "Feature", "properties": { "内容": "老人短期入所施設あやめ苑【短期入所生活介護】宮崎県都城市早水町3389番地2", "url": "https://www.kaigokensaku.mhlw.go.jp/45/index.php?action_kouhyou_detail_004_kani=true&JigyosyoCd=4570200552-00&ServiceCd=210&Type=search", "url2": "http://www.houei-group.or.jp/" }, "geometry": { "type": "Point", "coordinates": [ 131.09462439999993, 31.7399561 ] } },
{ "type": "Feature", "properties": { "内容": "特別養護老人ホームほほえみの園【短期入所生活介護】宮崎県都城市丸谷町4670番地", "url": "https://www.kaigokensaku.mhlw.go.jp/45/index.php?action_kouhyou_detail_004_kani=true&JigyosyoCd=4570200792-00&ServiceCd=210&Type=search", "url2": "https://smilehohoemi.com/" }, "geometry": { "type": "Point", "coordinates": [ 131.056232899999941, 31.8114513 ] } },
{ "type": "Feature", "properties": { "内容": "特別養護老人ホーム　恵寿苑【短期入所生活介護】宮崎県都城市太郎坊５６３－１", "url": "https://www.kaigokensaku.mhlw.go.jp/45/index.php?action_kouhyou_detail_004_kani=true&JigyosyoCd=4570200446-00&ServiceCd=210&Type=search", "url2": "https://www.keijuen.net" }, "geometry": { "type": "Point", "coordinates": [ 131.093595199999982, 31.7891627 ] } },
{ "type": "Feature", "properties": { "内容": "特別養護老人ホーム白寿園【短期入所生活介護】宮崎県都城市庄内町8673番地", "url": "https://www.kaigokensaku.mhlw.go.jp/45/index.php?action_kouhyou_detail_004_kani=true&JigyosyoCd=4570200453-00&ServiceCd=210&Type=search", "url2": "http://mjfj.net/jouyou/hakujuen" }, "geometry": { "type": "Point", "coordinates": [ 131.021518799999967, 31.7700623 ] } },
{ "type": "Feature", "properties": { "内容": "特別養護老人ホームミューズの虹平塚【短期入所生活介護】宮崎県都城市平塚町3033-1", "url": "https://www.kaigokensaku.mhlw.go.jp/45/index.php?action_kouhyou_detail_004_kani=true&JigyosyoCd=4570201881-00&ServiceCd=210&Type=search", "url2": "http://hoshakai.com/papas/" }, "geometry": { "type": "Point", "coordinates": [ 131.026400299999978, 31.7188814 ] } },
{ "type": "Feature", "properties": { "内容": "特別養護老人ホーム豊望園【短期入所生活介護】宮崎県都城市安久町４９９５番地１", "url": "https://www.kaigokensaku.mhlw.go.jp/45/index.php?action_kouhyou_detail_004_kani=true&JigyosyoCd=4570200438-00&ServiceCd=210&Type=search", "url2": "http://www.houei-group.or.jp/" }, "geometry": { "type": "Point", "coordinates": [ 131.071952099999976, 31.700259 ] } },
{ "type": "Feature", "properties": { "内容": "地域密着型介護老人福祉施設　豊明苑【短期入所生活介護】宮崎県都城市蓑原町1846番地1", "url": "https://www.kaigokensaku.mhlw.go.jp/45/index.php?action_kouhyou_detail_004_kani=true&JigyosyoCd=4570201899-00&ServiceCd=210&Type=search", "url2": "https://www.houei-group.or.jp/" }, "geometry": { "type": "Point", "coordinates": [ 131.018756599999989, 31.7351097 ] } },
{ "type": "Feature", "properties": { "内容": "特別養護老人ホーム高崎苑【短期入所生活介護】宮崎県都城市高崎町縄瀬1622番地17", "url": "https://www.kaigokensaku.mhlw.go.jp/45/index.php?action_kouhyou_detail_004_kani=true&JigyosyoCd=4571700378-00&ServiceCd=210&Type=search", "url2": "https://www.kenseikai-takasakien.com" }, "geometry": { "type": "Point", "coordinates": [ 131.086332099999936, 31.8526842 ] } },
{ "type": "Feature", "properties": { "内容": "特別養護老人ホームあさぎり園【短期入所生活介護】宮崎県都城市山田町中霧島2546-6", "url": "https://www.kaigokensaku.mhlw.go.jp/45/index.php?action_kouhyou_detail_004_kani=true&JigyosyoCd=4571700360-00&ServiceCd=210&Type=search", "url2": "http://asagirien.jp" }, "geometry": { "type": "Point", "coordinates": [ 131.04584, 31.7971356 ] } },
{ "type": "Feature", "properties": { "内容": "特別養護老人ホーム高城園【短期入所生活介護】宮崎県都城市高城町穂満坊3416番地", "url": "https://www.kaigokensaku.mhlw.go.jp/45/index.php?action_kouhyou_detail_004_kani=true&JigyosyoCd=4571700352-00&ServiceCd=210&Type=search", "url2": "https://www.takajyouen.jp/" }, "geometry": { "type": "Point", "coordinates": [ 131.127208399999972, 31.8192249 ] } },
{ "type": "Feature", "properties": { "内容": "特別養護老人ホーム霧島荘【短期入所生活介護】宮崎県都城市山之口町花木2302-1", "url": "https://www.kaigokensaku.mhlw.go.jp/45/index.php?action_kouhyou_detail_004_kani=true&JigyosyoCd=4571700345-00&ServiceCd=210&Type=search", "url2": "http://www.m-sj.or.jp/kirishima/" }, "geometry": { "type": "Point", "coordinates": [ 131.155573900000036, 31.7861788 ] } },
{ "type": "Feature", "properties": { "内容": "星空の都（介護予防）ショートステイセンターなかごう【短期入所生活介護】宮崎県都城市豊満町2647", "url": "https://www.kaigokensaku.mhlw.go.jp/45/index.php?action_kouhyou_detail_004_kani=true&JigyosyoCd=4570200420-00&ServiceCd=210&Type=search", "url2": "http://www.joryokukai.com" }, "geometry": { "type": "Point", "coordinates": [ 131.094853400000034, 31.7009318 ] } },
{ "type": "Feature", "properties": { "内容": "特別養護老人ホーム長遊園２号館【短期入所生活介護】都城市高野町2900番地", "url": "https://www.kaigokensaku.mhlw.go.jp/45/index.php?action_kouhyou_detail_004_kani=true&JigyosyoCd=4570203564-00&ServiceCd=210&Type=search", "url2": "hhtp://www.kanjikai.or.jp/" }, "geometry": { "type": "Point", "coordinates": [ 130.95674889999998, 31.8112817 ] } },
{ "type": "Feature", "properties": { "内容": "特別養護老人ホーム長遊園【短期入所生活介護】宮崎県都城市高野町2900番地", "url": "https://www.kaigokensaku.mhlw.go.jp/45/index.php?action_kouhyou_detail_004_kani=true&JigyosyoCd=4570203572-00&ServiceCd=210&Type=search", "url2": "http://www.kanjikai.or.jp/" }, "geometry": { "type": "Point", "coordinates": [ 130.9572123, 31.8110923 ] } },
{ "type": "Feature", "properties": { "内容": "ウエルライフ１号館　短期入所生活介護【短期入所生活介護】宮崎県都城市南鷹尾町23街区23号", "url": "https://www.kaigokensaku.mhlw.go.jp/45/index.php?action_kouhyou_detail_004_kani=true&JigyosyoCd=4570204513-00&ServiceCd=210&Type=search", "url2": "http://www.mwg.or.jp/" }, "geometry": { "type": "Point", "coordinates": [ 131.040518, 31.720112 ] } },
{ "type": "Feature", "properties": { "内容": "特別養護老人ホームユニット楓荘【短期入所生活介護】宮崎県延岡市無鹿町１丁目２０３１番地５", "url": "https://www.kaigokensaku.mhlw.go.jp/45/index.php?action_kouhyou_detail_004_kani=true&JigyosyoCd=4570302226-00&ServiceCd=210&Type=search", "url2": "http://www.mitubakai.jp/kaedesou" }, "geometry": { "type": "Point", "coordinates": [ 131.683300899999949, 32.6144374 ] } },
{ "type": "Feature", "properties": { "内容": "特別養護老人ホーム水明荘【短期入所生活介護】宮崎県延岡市鯛名町908-1", "url": "https://www.kaigokensaku.mhlw.go.jp/45/index.php?action_kouhyou_detail_004_kani=true&JigyosyoCd=4570300139-00&ServiceCd=210&Type=search", "url2": "http://kousei-kai.jp/" }, "geometry": { "type": "Point", "coordinates": [ 131.6955461, 32.5064888 ] } },
{ "type": "Feature", "properties": { "内容": "特別養護老人ホーム　ふれあいの里【短期入所生活介護】宮崎県延岡市沖田町2240番地1", "url": "https://www.kaigokensaku.mhlw.go.jp/45/index.php?action_kouhyou_detail_004_kani=true&JigyosyoCd=4570300337-00&ServiceCd=210&Type=search", "url2": "http://www.heart-fureai.jp" }, "geometry": { "type": "Point", "coordinates": [ 131.668562241664176, 32.541527588796157 ] } },
{ "type": "Feature", "properties": { "内容": "特別養護老人ホーム敬寿園【短期入所生活介護】宮崎県延岡市昭和町３丁目９番地３", "url": "https://www.kaigokensaku.mhlw.go.jp/45/index.php?action_kouhyou_detail_004_kani=true&JigyosyoCd=4570300352-00&ServiceCd=210&Type=search", "url2": "//kousei-kai.jp/" }, "geometry": { "type": "Point", "coordinates": [ 131.683716199999907, 32.5891448 ] } },
{ "type": "Feature", "properties": { "内容": "特別養護老人ホーム千寿園【短期入所生活介護】宮崎県延岡市北浦町古江２６９３", "url": "https://www.kaigokensaku.mhlw.go.jp/45/index.php?action_kouhyou_detail_004_kani=true&JigyosyoCd=4572100412-00&ServiceCd=210&Type=search", "url2": "https://www.senjuen.jp/" }, "geometry": { "type": "Point", "coordinates": [ 131.816592200000059, 32.7092214 ] } },
{ "type": "Feature", "properties": { "内容": "特別養護老人ホームみのり園【短期入所生活介護】宮崎県延岡市岡元町789番地3", "url": "https://www.kaigokensaku.mhlw.go.jp/45/index.php?action_kouhyou_detail_004_kani=true&JigyosyoCd=4570300311-00&ServiceCd=210&Type=search", "url2": null }, "geometry": { "type": "Point", "coordinates": [ 131.559763188468906, 32.567809482975754 ] } },
{ "type": "Feature", "properties": { "内容": "特別養護老人ホーム楓荘【短期入所生活介護】宮崎県延岡市無鹿町１丁目２０３１番地５", "url": "https://www.kaigokensaku.mhlw.go.jp/45/index.php?action_kouhyou_detail_004_kani=true&JigyosyoCd=4570300329-00&ServiceCd=210&Type=search", "url2": "http://www.mitubakai.jp/kaedesou" }, "geometry": { "type": "Point", "coordinates": [ 131.683300899999949, 32.6144374 ] } },
{ "type": "Feature", "properties": { "内容": "特別朝護老人ホームみのり園ユニット館【短期入所生活介護】宮崎県延岡市岡元町789番地3", "url": "https://www.kaigokensaku.mhlw.go.jp/45/index.php?action_kouhyou_detail_004_kani=true&JigyosyoCd=4570301962-00&ServiceCd=210&Type=search", "url2": "https://www.minori-en.jp/" }, "geometry": { "type": "Point", "coordinates": [ 131.559688086616489, 32.567651251689263 ] } },
{ "type": "Feature", "properties": { "内容": "特別養護老人ホームひえいの郷【短期入所生活介護】宮崎県延岡市北方町川水流卯1810番地86", "url": "https://www.kaigokensaku.mhlw.go.jp/45/index.php?action_kouhyou_detail_004_kani=true&JigyosyoCd=4572100396-00&ServiceCd=210&Type=search", "url2": "http://www.kawazurufukushikai.jp/" }, "geometry": { "type": "Point", "coordinates": [ 131.5158851, 32.5726662 ] } },
{ "type": "Feature", "properties": { "内容": "特別養護老人ホームきたがわ荘【短期入所生活介護】宮崎県延岡市北川町長井5565番地8", "url": "https://www.kaigokensaku.mhlw.go.jp/45/index.php?action_kouhyou_detail_004_kani=true&JigyosyoCd=4572100404-00&ServiceCd=210&Type=search", "url2": "https://www.kitagawa-houjukai.com" }, "geometry": { "type": "Point", "coordinates": [ 131.7046775, 32.6652781 ] } },
{ "type": "Feature", "properties": { "内容": "地域密着型特別養護老人ホーム心の里さかたに【短期入所生活介護】宮崎県日南市大字酒谷乙10439番地1", "url": "https://www.kaigokensaku.mhlw.go.jp/45/index.php?action_kouhyou_detail_004_kani=true&JigyosyoCd=4570401614-00&ServiceCd=210&Type=search", "url2": "https://s-seseragi.or.jp/" }, "geometry": { "type": "Point", "coordinates": [ 131.2889297175347, 31.626351497765494 ] } },
{ "type": "Feature", "properties": { "内容": "特別養護老人ホームはまゆうの里【短期入所生活介護】宮崎県日南市大字楠原１８４０番地", "url": "https://www.kaigokensaku.mhlw.go.jp/45/index.php?action_kouhyou_detail_004_kani=true&JigyosyoCd=4570400145-00&ServiceCd=210&Type=search", "url2": "http://tokueikai.lar.jp" }, "geometry": { "type": "Point", "coordinates": [ 131.342676799999907, 31.6179051 ] } },
{ "type": "Feature", "properties": { "内容": "特別養護老人ホーム河鹿の里【短期入所生活介護】宮崎県日南市北郷町大藤甲３１８６番地１", "url": "https://www.kaigokensaku.mhlw.go.jp/45/index.php?action_kouhyou_detail_004_kani=true&JigyosyoCd=4571600073-00&ServiceCd=210&Type=search", "url2": "http://www.aisenkai.jp/" }, "geometry": { "type": "Point", "coordinates": [ 131.381403800000044, 31.6577249 ] } },
{ "type": "Feature", "properties": { "内容": "特別養護老人ホームくろしおの里【短期入所生活介護】宮崎県日南市南郷町中村乙7051番地111", "url": "https://www.kaigokensaku.mhlw.go.jp/45/index.php?action_kouhyou_detail_004_kani=true&JigyosyoCd=4571600032-00&ServiceCd=210&Type=search", "url2": null }, "geometry": { "type": "Point", "coordinates": [ 131.3776322, 31.5216095 ] } },
{ "type": "Feature", "properties": { "内容": "特別養護老人ホーム昭寿園サンヒルズ【短期入所生活介護】宮崎県日南市大字風田3224番地", "url": "https://www.kaigokensaku.mhlw.go.jp/45/index.php?action_kouhyou_detail_004_kani=true&JigyosyoCd=4570401242-00&ServiceCd=210&Type=search", "url2": "http://shojuen.jp/" }, "geometry": { "type": "Point", "coordinates": [ 131.415441963643843, 31.612428556120975 ] } },
{ "type": "Feature", "properties": { "内容": "ショートステイ幸ちゃんの家【短期入所生活介護】宮崎県小林市野尻町大字東麓2658-86", "url": "https://www.kaigokensaku.mhlw.go.jp/45/index.php?action_kouhyou_detail_004_kani=true&JigyosyoCd=4571800434-00&ServiceCd=210&Type=search", "url2": null }, "geometry": { "type": "Point", "coordinates": [ 131.0837444, 31.9585288 ] } },
{ "type": "Feature", "properties": { "内容": "緑町ショートステイセンター【短期入所生活介護】細野　２４６－１", "url": "https://www.kaigokensaku.mhlw.go.jp/45/index.php?action_kouhyou_detail_004_kani=true&JigyosyoCd=4570500688-00&ServiceCd=210&Type=search", "url2": null }, "geometry": { "type": "Point", "coordinates": [ 130.974606799999947, 31.9956702 ] } },
{ "type": "Feature", "properties": { "内容": "特別養護老人ホーム陽光の里【短期入所生活介護】宮崎県小林市真方5038-1", "url": "https://www.kaigokensaku.mhlw.go.jp/45/index.php?action_kouhyou_detail_004_kani=true&JigyosyoCd=4570500142-00&ServiceCd=210&Type=search", "url2": null }, "geometry": { "type": "Point", "coordinates": [ 130.995654800000011, 32.0013395 ] } },
{ "type": "Feature", "properties": { "内容": "小林市養護老人ホーム慈敬園【短期入所生活介護】宮崎県小林市駅南296番地", "url": "https://www.kaigokensaku.mhlw.go.jp/45/index.php?action_kouhyou_detail_004_kani=true&JigyosyoCd=4570500381-00&ServiceCd=210&Type=search", "url2": "http://kosumosukai.or.jp" }, "geometry": { "type": "Point", "coordinates": [ 130.976107608598369, 31.990099853391072 ] } },
{ "type": "Feature", "properties": { "内容": "特別養護老人ホーム美穂の里【短期入所生活介護】宮崎県小林市北西方937-8", "url": "https://www.kaigokensaku.mhlw.go.jp/45/index.php?action_kouhyou_detail_004_kani=true&JigyosyoCd=4571800020-00&ServiceCd=210&Type=search", "url2": "http://www.souai-kobayashi.or.jp" }, "geometry": { "type": "Point", "coordinates": [ 130.938704619616743, 32.009883026584923 ] } },
{ "type": "Feature", "properties": { "内容": "特別養護老人ホーム　陽光の里　こもれび【短期入所生活介護】宮崎県小林市真方5038番地1", "url": "https://www.kaigokensaku.mhlw.go.jp/45/index.php?action_kouhyou_detail_004_kani=true&JigyosyoCd=4570500910-00&ServiceCd=210&Type=search", "url2": null }, "geometry": { "type": "Point", "coordinates": [ 130.995654800000011, 32.0013395 ] } },
{ "type": "Feature", "properties": { "内容": "特別養護老人ホームひなもり園【短期入所生活介護】宮崎県小林市堤4380番地", "url": "https://www.kaigokensaku.mhlw.go.jp/45/index.php?action_kouhyou_detail_004_kani=true&JigyosyoCd=4570500126-00&ServiceCd=210&Type=search", "url2": "http://www.tokiwa-kai.or.jp/hinamori/" }, "geometry": { "type": "Point", "coordinates": [ 131.010824800000023, 31.962238100000011 ] } },
{ "type": "Feature", "properties": { "内容": "特別養護老人ホームきりしまの園【短期入所生活介護】野尻町三ヶ野山4336-74", "url": "https://www.kaigokensaku.mhlw.go.jp/45/index.php?action_kouhyou_detail_004_kani=true&JigyosyoCd=4571800053-00&ServiceCd=210&Type=search", "url2": "kirishimanosono_since1986@btvm.ne.jp" }, "geometry": { "type": "Point", "coordinates": [ 131.0775983, 31.9638383 ] } },
{ "type": "Feature", "properties": { "内容": "地域密着型特別養護老人ホーム　ソレイユの丘【短期入所生活介護】宮崎県小林市堤3702-2", "url": "https://www.kaigokensaku.mhlw.go.jp/45/index.php?action_kouhyou_detail_004_kani=true&JigyosyoCd=4570501082-00&ServiceCd=210&Type=search", "url2": "https://www.tokiwa-kai.or.jp/" }, "geometry": { "type": "Point", "coordinates": [ 131.008650799999941, 31.961847 ] } },
{ "type": "Feature", "properties": { "内容": "ユニット型特別養護老人ホーム【短期入所生活介護】野尻町三ヶ野山4336-74", "url": "https://www.kaigokensaku.mhlw.go.jp/45/index.php?action_kouhyou_detail_004_kani=true&JigyosyoCd=4570500894-00&ServiceCd=210&Type=search", "url2": "www.kirisimanosono.com" }, "geometry": { "type": "Point", "coordinates": [ 131.077678099999957, 31.963678 ] } },
{ "type": "Feature", "properties": { "内容": "特別養護老人ホーム伊勢の郷【短期入所生活介護】宮崎県日向市大字日知屋字深溝622番地116", "url": "https://www.kaigokensaku.mhlw.go.jp/45/index.php?action_kouhyou_detail_004_kani=true&JigyosyoCd=4570600363-00&ServiceCd=210&Type=search", "url2": "https://hakuyou.or.jp/" }, "geometry": { "type": "Point", "coordinates": [ 131.656144395523057, 32.415467300462275 ] } },
{ "type": "Feature", "properties": { "内容": "特別養護老人ホーム永寿園【短期入所生活介護】宮崎県日向市大字富高字岩崎５４６番地１", "url": "https://www.kaigokensaku.mhlw.go.jp/45/index.php?action_kouhyou_detail_004_kani=true&JigyosyoCd=4570600181-00&ServiceCd=210&Type=search", "url2": "www.himawarikai.or.jp/" }, "geometry": { "type": "Point", "coordinates": [ 131.617715800000042, 32.4206359 ] } },
{ "type": "Feature", "properties": { "内容": "特別養護老人ホーム立縫の里【短期入所生活介護】宮崎県日向市美々津町4074番地", "url": "https://www.kaigokensaku.mhlw.go.jp/45/index.php?action_kouhyou_detail_004_kani=true&JigyosyoCd=4570600199-00&ServiceCd=210&Type=search", "url2": "http://www.tachinuikai.or.jp" }, "geometry": { "type": "Point", "coordinates": [ 131.597317699999962, 32.3327275 ] } },
{ "type": "Feature", "properties": { "内容": "特別養護老人ホーム牧水園【短期入所生活介護】宮崎県日向市東郷町山陰丙１４２２－２", "url": "https://www.kaigokensaku.mhlw.go.jp/45/index.php?action_kouhyou_detail_004_kani=true&JigyosyoCd=4572100388-00&ServiceCd=210&Type=search", "url2": "https://gyokuhou-kai.or.jp" }, "geometry": { "type": "Point", "coordinates": [ 131.5319882, 32.3941693 ] } },
{ "type": "Feature", "properties": { "内容": "特別養護老人ホーム望洋の郷【短期入所生活介護】宮崎県串間市大字南方字金谷城4201-1", "url": "https://www.kaigokensaku.mhlw.go.jp/45/index.php?action_kouhyou_detail_004_kani=true&JigyosyoCd=4570700254-00&ServiceCd=210&Type=search", "url2": "http://www.kuroshiokai.com" }, "geometry": { "type": "Point", "coordinates": [ 131.228303200000028, 31.4645389 ] } },
{ "type": "Feature", "properties": { "内容": "社会福祉法人幸寿会幸寿園【短期入所生活介護】宮崎県串間市大字串間１０９４番地", "url": "https://www.kaigokensaku.mhlw.go.jp/45/index.php?action_kouhyou_detail_004_kani=true&JigyosyoCd=4570700015-00&ServiceCd=210&Type=search", "url2": "http://www.y-mori.com" }, "geometry": { "type": "Point", "coordinates": [ 131.25090380000006, 31.496258 ] } },
{ "type": "Feature", "properties": { "内容": "特別養護老人ホーム寿楽園【短期入所生活介護】宮崎県串間市大字西方4341-1", "url": "https://www.kaigokensaku.mhlw.go.jp/45/index.php?action_kouhyou_detail_004_kani=true&JigyosyoCd=4570700106-00&ServiceCd=210&Type=search", "url2": "https://kuroshiokai.com" }, "geometry": { "type": "Point", "coordinates": [ 131.229342233326747, 31.47018894430952 ] } },
{ "type": "Feature", "properties": { "内容": "地域密着型特別養護老人ホーム妻の杜SS【短期入所生活介護】宮崎県西都市妻1680-1", "url": "https://www.kaigokensaku.mhlw.go.jp/45/index.php?action_kouhyou_detail_004_kani=true&JigyosyoCd=4570800849-00&ServiceCd=210&Type=search", "url2": "https://www.tsubasa-f.or.jp/tsumanomori/" }, "geometry": { "type": "Point", "coordinates": [ 131.4003352, 32.104887699999985 ] } },
{ "type": "Feature", "properties": { "内容": "特別養護老人ホーム幸楽荘花はな館【短期入所生活介護】宮崎県西都市大字茶臼原字轟941番地1", "url": "https://www.kaigokensaku.mhlw.go.jp/45/index.php?action_kouhyou_detail_004_kani=true&JigyosyoCd=4570800609-00&ServiceCd=210&Type=search", "url2": "http://www.m-shinwakai.jp/" }, "geometry": { "type": "Point", "coordinates": [ 131.417370460266056, 32.140203318314391 ] } },
{ "type": "Feature", "properties": { "内容": "養護老人ホーム静和園【短期入所生活介護】宮崎県西都市大字清水７９２番地１", "url": "https://www.kaigokensaku.mhlw.go.jp/45/index.php?action_kouhyou_detail_004_kani=true&JigyosyoCd=4570800757-00&ServiceCd=210&Type=search", "url2": "https://nissho-fukushi.jp/fukushi/hoiku/" }, "geometry": { "type": "Point", "coordinates": [ 131.381421100000011, 32.1005074 ] } },
{ "type": "Feature", "properties": { "内容": "短期入所生活介護事業所三納の里【短期入所生活介護】西都市平郡598番地1", "url": "https://www.kaigokensaku.mhlw.go.jp/45/index.php?action_kouhyou_detail_004_kani=true&JigyosyoCd=4570800369-00&ServiceCd=210&Type=search", "url2": "https://sanseikai-sw.jp" }, "geometry": { "type": "Point", "coordinates": [ 131.374949499999957, 32.0900693 ] } },
{ "type": "Feature", "properties": { "内容": "特別養護老人ホームとのこおり荘【短期入所生活介護】宮崎県西都市大字岩爪１６４５", "url": "https://www.kaigokensaku.mhlw.go.jp/45/index.php?action_kouhyou_detail_004_kani=true&JigyosyoCd=4570800138-00&ServiceCd=210&Type=search", "url2": null }, "geometry": { "type": "Point", "coordinates": [ 131.384021, 32.0451788 ] } },
{ "type": "Feature", "properties": { "内容": "特別養護老人ホームあけぼの園【短期入所生活介護】宮崎県えびの市大字榎田５７９番地１０", "url": "https://www.kaigokensaku.mhlw.go.jp/45/index.php?action_kouhyou_detail_004_kani=true&JigyosyoCd=4570900011-00&ServiceCd=210&Type=search", "url2": "http://ebino-meiyukai.or.jp" }, "geometry": { "type": "Point", "coordinates": [ 130.8126896, 32.0656475 ] } },
{ "type": "Feature", "properties": { "内容": "えびの涼風園指定短期入所生活介護事業所【短期入所生活介護】宮崎県えびの市大字岡松１番地", "url": "https://www.kaigokensaku.mhlw.go.jp/45/index.php?action_kouhyou_detail_004_kani=true&JigyosyoCd=4570900102-00&ServiceCd=210&Type=search", "url2": null }, "geometry": { "type": "Point", "coordinates": [ 130.753815967054834, 32.042062903328087 ] } },
{ "type": "Feature", "properties": { "内容": "さくら苑新館ショートステイ【短期入所生活介護】宮崎県えびの市大字大河平4633-10", "url": "https://www.kaigokensaku.mhlw.go.jp/45/index.php?action_kouhyou_detail_004_kani=true&JigyosyoCd=4570900318-00&ServiceCd=210&Type=search", "url2": "http://kyk.or.jp" }, "geometry": { "type": "Point", "coordinates": [ 130.91139069999997, 32.0408058 ] } },
{ "type": "Feature", "properties": { "内容": "シルバーケアステーションほうよう【短期入所生活介護】宮崎県えびの市大字原田2216-10", "url": "https://www.kaigokensaku.mhlw.go.jp/45/index.php?action_kouhyou_detail_004_kani=true&JigyosyoCd=4570900151-00&ServiceCd=210&Type=search", "url2": "https://www.keiwakai-hoyo.com" }, "geometry": { "type": "Point", "coordinates": [ 130.8700308, 32.0308362 ] } },
{ "type": "Feature", "properties": { "内容": "星空の都ショートステイセンターみまた【短期入所生活介護】宮崎県三股町大字長田1266番地1", "url": "https://www.kaigokensaku.mhlw.go.jp/45/index.php?action_kouhyou_detail_004_kani=true&JigyosyoCd=4571700337-00&ServiceCd=210&Type=search", "url2": "http://mimata.joryoku.com" }, "geometry": { "type": "Point", "coordinates": [ 131.132191599999942, 31.7438455 ] } },
{ "type": "Feature", "properties": { "内容": "特別養護老人ホームミューズの虹高原【短期入所生活介護】宮崎県西諸県郡高原町大字広原4961番地7", "url": "https://www.kaigokensaku.mhlw.go.jp/45/index.php?action_kouhyou_detail_004_kani=true&JigyosyoCd=4571800152-00&ServiceCd=210&Type=search", "url2": "http://hoshakai.com/" }, "geometry": { "type": "Point", "coordinates": [ 130.994679490136861, 31.927664342579323 ] } },
{ "type": "Feature", "properties": { "内容": "特別養護老人ホームさくら苑【短期入所生活介護】宮崎県東諸県郡国富町大字三名２６２１番地６", "url": "https://www.kaigokensaku.mhlw.go.jp/45/index.php?action_kouhyou_detail_004_kani=true&JigyosyoCd=4571900184-00&ServiceCd=210&Type=search", "url2": "http://www.keimeisw.or.jp" }, "geometry": { "type": "Point", "coordinates": [ 131.349644600000033, 32.0079701 ] } },
{ "type": "Feature", "properties": { "内容": "特別養護老人ホームやすらぎの里【短期入所生活介護】宮崎県東諸県郡綾町大字南俣561番地", "url": "https://www.kaigokensaku.mhlw.go.jp/45/index.php?action_kouhyou_detail_004_kani=true&JigyosyoCd=4571900192-00&ServiceCd=210&Type=search", "url2": "http://yasuragi-sato.main.jp" }, "geometry": { "type": "Point", "coordinates": [ 131.255304099999989, 31.9942969 ] } },
{ "type": "Feature", "properties": { "内容": "ショートステイ望み苑【短期入所生活介護】宮崎県児湯郡高鍋町大字南高鍋9118番地1", "url": "https://www.kaigokensaku.mhlw.go.jp/45/index.php?action_kouhyou_detail_004_kani=true&JigyosyoCd=4572001388-00&ServiceCd=210&Type=search", "url2": "https://www.care.or.jp/facility/nozomien/" }, "geometry": { "type": "Point", "coordinates": [ 131.510220833729534, 32.117759695979515 ] } },
{ "type": "Feature", "properties": { "内容": "特別養護老人ホーム鈴山荘【短期入所生活介護】宮崎県児湯郡高鍋町大字上江6956番地2", "url": "https://www.kaigokensaku.mhlw.go.jp/45/index.php?action_kouhyou_detail_004_kani=true&JigyosyoCd=4572000596-00&ServiceCd=210&Type=search", "url2": null }, "geometry": { "type": "Point", "coordinates": [ 131.477582100000063, 32.1227847 ] } },
{ "type": "Feature", "properties": { "内容": "特別養護老人ホームしんとみ希望の里【短期入所生活介護】宮崎県児湯郡新富町大字下富田字小島江629番5", "url": "https://www.kaigokensaku.mhlw.go.jp/45/index.php?action_kouhyou_detail_004_kani=true&JigyosyoCd=4572000273-00&ServiceCd=210&Type=search", "url2": "http://www.kouseikai.biz/" }, "geometry": { "type": "Point", "coordinates": [ 131.488017099999979, 32.0688677 ] } },
{ "type": "Feature", "properties": { "内容": "特別養護老人ホーム天包荘【短期入所生活介護】宮崎県児湯郡西米良村大字竹原４３２番地", "url": "https://www.kaigokensaku.mhlw.go.jp/45/index.php?action_kouhyou_detail_004_kani=true&JigyosyoCd=4572000364-00&ServiceCd=210&Type=search", "url2": "https://tenposo.net" }, "geometry": { "type": "Point", "coordinates": [ 131.152076, 32.240978 ] } },
{ "type": "Feature", "properties": { "内容": "特別養護老人ホーム新納荘【短期入所生活介護】宮崎県児湯郡木城町大字高城３０７８番地", "url": "https://www.kaigokensaku.mhlw.go.jp/45/index.php?action_kouhyou_detail_004_kani=true&JigyosyoCd=4572000281-00&ServiceCd=210&Type=search", "url2": null }, "geometry": { "type": "Point", "coordinates": [ 131.46434290000002, 32.1667023 ] } },
{ "type": "Feature", "properties": { "内容": "特別養護老人ホーム仁の里【短期入所生活介護】大字椎木浦畑3950番地1", "url": "https://www.kaigokensaku.mhlw.go.jp/45/index.php?action_kouhyou_detail_004_kani=true&JigyosyoCd=4572001958-00&ServiceCd=210&Type=search", "url2": "jinnosato@fukushi-zenjijkai.jp" }, "geometry": { "type": "Point", "coordinates": [ 131.4640038, 32.156522 ] } },
{ "type": "Feature", "properties": { "内容": "鈴南の里ショートステイセンター【短期入所生活介護】宮崎県児湯郡川南町大字川南12707番地", "url": "https://www.kaigokensaku.mhlw.go.jp/45/index.php?action_kouhyou_detail_004_kani=true&JigyosyoCd=4572000299-00&ServiceCd=210&Type=search", "url2": "http://www.suzunaminosato.com/" }, "geometry": { "type": "Point", "coordinates": [ 131.538358099999982, 32.2092444 ] } },
{ "type": "Feature", "properties": { "内容": "特別養護老人ホーム尾鈴荘【短期入所生活介護】宮崎県児湯郡都農町大字川北18912番地10", "url": "https://www.kaigokensaku.mhlw.go.jp/45/index.php?action_kouhyou_detail_004_kani=true&JigyosyoCd=4572000307-00&ServiceCd=210&Type=search", "url2": null }, "geometry": { "type": "Point", "coordinates": [ 131.557632099999978, 32.2564484 ] } },
{ "type": "Feature", "properties": { "内容": "特別養護老人ホーム大地【短期入所生活介護】宮崎県東臼杵郡門川町大字庵川2596番地2ふれあい地球館ビル", "url": "https://www.kaigokensaku.mhlw.go.jp/45/index.php?action_kouhyou_detail_004_kani=true&JigyosyoCd=4572100370-00&ServiceCd=210&Type=search", "url2": "himawarikai.or.jp" }, "geometry": { "type": "Point", "coordinates": [ 131.6752229, 32.4843314 ] } },
{ "type": "Feature", "properties": { "内容": "ショートステイ　海の館【短期入所生活介護】宮崎県東臼杵郡門川町中須1丁目3番7", "url": "https://www.kaigokensaku.mhlw.go.jp/45/index.php?action_kouhyou_detail_004_kani=true&JigyosyoCd=4572100743-00&ServiceCd=210&Type=search", "url2": null }, "geometry": { "type": "Point", "coordinates": [ 131.650480100000038, 32.46752930000001 ] } },
{ "type": "Feature", "properties": { "内容": "特別養護老人ホームもろつかせせらぎの里【短期入所生活介護】宮崎県東臼杵郡諸塚村大字七ツ山５４番地特別養護老人ホーム　もろつかせせらぎの里", "url": "https://www.kaigokensaku.mhlw.go.jp/45/index.php?action_kouhyou_detail_004_kani=true&JigyosyoCd=4572100511-00&ServiceCd=210&Type=search", "url2": "http://care-net.biz/45/seseragi/" }, "geometry": { "type": "Point", "coordinates": [ 131.326830800000039, 32.4935305 ] } },
{ "type": "Feature", "properties": { "内容": "特別養護老人ホーム平寿園【短期入所生活介護】宮崎県東臼杵郡椎葉村大字下福良５４－３３７", "url": "https://www.kaigokensaku.mhlw.go.jp/45/index.php?action_kouhyou_detail_004_kani=true&JigyosyoCd=4572100453-00&ServiceCd=210&Type=search", "url2": null }, "geometry": { "type": "Point", "coordinates": [ 131.147396317938274, 32.455031243321706 ] } },
{ "type": "Feature", "properties": { "内容": "特別養護老人ホーム若宮荘【短期入所生活介護】宮崎県東臼杵郡美郷町西郷田代2208番地", "url": "https://www.kaigokensaku.mhlw.go.jp/45/index.php?action_kouhyou_detail_004_kani=true&JigyosyoCd=4572100032-00&ServiceCd=210&Type=search", "url2": "http://www.wakamiyaso.jp/" }, "geometry": { "type": "Point", "coordinates": [ 131.422493, 32.4374035 ] } },
{ "type": "Feature", "properties": { "内容": "特別養護老人ホーム百済の園【短期入所生活介護】宮崎県東臼杵郡美郷町南郷神門９６０番地", "url": "https://www.kaigokensaku.mhlw.go.jp/45/index.php?action_kouhyou_detail_004_kani=true&JigyosyoCd=4572100446-00&ServiceCd=210&Type=search", "url2": "http://www.nangoukai.com/" }, "geometry": { "type": "Point", "coordinates": [ 131.422493, 32.4374035 ] } },
{ "type": "Feature", "properties": { "内容": "特別養護老人ホームシルバースターうなまの里短期入所生活介護事業所【短期入所生活介護】宮崎県東臼杵郡美郷町北郷宇納間170", "url": "https://www.kaigokensaku.mhlw.go.jp/45/index.php?action_kouhyou_detail_004_kani=true&JigyosyoCd=4572100016-00&ServiceCd=210&Type=search", "url2": "https://www.unamanosato.jp/" }, "geometry": { "type": "Point", "coordinates": [ 131.443688100000031, 32.5049572 ] } },
{ "type": "Feature", "properties": { "内容": "特別養護老人ホーム雲居都荘【短期入所生活介護】宮崎県西臼杵郡高千穂町大字上野１７番地", "url": "https://www.kaigokensaku.mhlw.go.jp/45/index.php?action_kouhyou_detail_004_kani=true&JigyosyoCd=4572200030-00&ServiceCd=210&Type=search", "url2": "http://www.takachiho-tenjyukai.jp/" }, "geometry": { "type": "Point", "coordinates": [ 131.299825899999973, 32.742048 ] } },
{ "type": "Feature", "properties": { "内容": "特別養護老人ホーム青雲荘【短期入所生活介護】宮崎県西臼杵郡日之影町大字七折8826", "url": "https://www.kaigokensaku.mhlw.go.jp/45/index.php?action_kouhyou_detail_004_kani=true&JigyosyoCd=4572200147-00&ServiceCd=210&Type=search", "url2": "http://www.takachiho-tenjyukai.jp/seiunsou/" }, "geometry": { "type": "Point", "coordinates": [ 131.382824, 32.660346 ] } },
{ "type": "Feature", "properties": { "内容": "特別養護老人ホームごかせ荘【短期入所生活介護】宮崎県西臼杵郡五ヶ瀬町大字三ヶ所10725番地1", "url": "https://www.kaigokensaku.mhlw.go.jp/45/index.php?action_kouhyou_detail_004_kani=true&JigyosyoCd=4572200139-00&ServiceCd=210&Type=search", "url2": null }, "geometry": { "type": "Point", "coordinates": [ 131.1989201, 32.685289 ] } }
]
}
