{
"type": "FeatureCollection",
"name": "geo_45_介護医療院",
"crs": { "type": "name", "properties": { "name": "urn:ogc:def:crs:OGC:1.3:CRS84" } },
"features": [
{ "type": "Feature", "properties": { "内容": "みやざき介護医療院【介護医療院】宮崎県宮崎市高岡町内山２４２０番１", "url": "https://www.kaigokensaku.mhlw.go.jp/45/index.php?action_kouhyou_detail_004_kani=true&JigyosyoCd=45B0100019-00&ServiceCd=550&Type=search", "url2": "tatsumoto-g.com" }, "geometry": { "type": "Point", "coordinates": [ 131.210540400000014, 31.8962991 ] } },
{ "type": "Feature", "properties": { "内容": "宮崎医療センター病院　介護医療院【介護医療院】宮崎県宮崎市高松町２番１６号", "url": "https://www.kaigokensaku.mhlw.go.jp/45/index.php?action_kouhyou_detail_004_kani=true&JigyosyoCd=45B0100043-00&ServiceCd=550&Type=search", "url2": "https://www.jojinkai.com/miyazaki/" }, "geometry": { "type": "Point", "coordinates": [ 131.418960700000014, 31.9138258 ] } },
{ "type": "Feature", "properties": { "内容": "佐土原病院介護医療院【介護医療院】宮崎県宮崎市佐土原町上田島3873番地", "url": "https://www.kaigokensaku.mhlw.go.jp/45/index.php?action_kouhyou_detail_004_kani=true&JigyosyoCd=45B0100068-00&ServiceCd=550&Type=search", "url2": "https://www.sadowara-hospital.com" }, "geometry": { "type": "Point", "coordinates": [ 131.431670200000013, 32.0509062 ] } },
{ "type": "Feature", "properties": { "内容": "介護医療院稲倉医院【介護医療院】宮崎県宮崎市大塚町馬場崎3554-2", "url": "https://www.kaigokensaku.mhlw.go.jp/45/index.php?action_kouhyou_detail_004_kani=true&JigyosyoCd=45B0100027-00&ServiceCd=550&Type=search", "url2": "http://www.inakura-clinic.com/" }, "geometry": { "type": "Point", "coordinates": [ 131.3938231, 31.9131412 ] } },
{ "type": "Feature", "properties": { "内容": "青島リゾートクリニック　介護医療院【介護医療院】宮崎県宮崎市大字加江田5646番地1", "url": "https://www.kaigokensaku.mhlw.go.jp/45/index.php?action_kouhyou_detail_004_kani=true&JigyosyoCd=45B0100050-00&ServiceCd=550&Type=search", "url2": "http://www.seibikai-group.or.jp" }, "geometry": { "type": "Point", "coordinates": [ 131.445752599999963, 31.8113105 ] } },
{ "type": "Feature", "properties": { "内容": "医療法人社団仮屋医院　介護医療院【介護医療院】宮崎県都城市上水流町２３４８番地", "url": "https://www.kaigokensaku.mhlw.go.jp/45/index.php?action_kouhyou_detail_004_kani=true&JigyosyoCd=45B0200017-00&ServiceCd=550&Type=search", "url2": null }, "geometry": { "type": "Point", "coordinates": [ 131.095194295106467, 31.811477665882983 ] } },
{ "type": "Feature", "properties": { "内容": "早田病院介護医療院【介護医療院】宮崎県延岡市高千穂通り3748番地1", "url": "https://www.kaigokensaku.mhlw.go.jp/45/index.php?action_kouhyou_detail_004_kani=true&JigyosyoCd=45B0300023-00&ServiceCd=550&Type=search", "url2": null }, "geometry": { "type": "Point", "coordinates": [ 131.6684, 32.58675 ] } },
{ "type": "Feature", "properties": { "内容": "杉本病院介護医療院【介護医療院】宮崎県延岡市三ツ瀬町1丁目11番地5", "url": "https://www.kaigokensaku.mhlw.go.jp/45/index.php?action_kouhyou_detail_004_kani=true&JigyosyoCd=45B0300031-00&ServiceCd=550&Type=search", "url2": "https://sugimoto-hp.jp" }, "geometry": { "type": "Point", "coordinates": [ 131.6658653, 32.5752749 ] } },
{ "type": "Feature", "properties": { "内容": "医療法人中心会野村病院介護医療院【介護医療院】宮崎県延岡市出北５丁目４番２６号", "url": "https://www.kaigokensaku.mhlw.go.jp/45/index.php?action_kouhyou_detail_004_kani=true&JigyosyoCd=45B0300015-00&ServiceCd=550&Type=search", "url2": "https://nomura-h.wixsite.com/chuushinkai" }, "geometry": { "type": "Point", "coordinates": [ 131.685451199999989, 32.5749832 ] } },
{ "type": "Feature", "properties": { "内容": "井上病院介護医療院【介護医療院】宮崎県延岡市平原町1丁目990番地1", "url": "https://www.kaigokensaku.mhlw.go.jp/45/index.php?action_kouhyou_detail_004_kani=true&JigyosyoCd=45B0300049-00&ServiceCd=550&Type=search", "url2": "http://www.inoue-hp.jp/" }, "geometry": { "type": "Point", "coordinates": [ 131.6751712, 32.5552762 ] } },
{ "type": "Feature", "properties": { "内容": "山元病院介護医療院【介護医療院】宮崎県日南市中央通１丁目１０番地１５", "url": "https://www.kaigokensaku.mhlw.go.jp/45/index.php?action_kouhyou_detail_004_kani=true&JigyosyoCd=45B0400013-00&ServiceCd=550&Type=search", "url2": "http://www.aisinkai.com/" }, "geometry": { "type": "Point", "coordinates": [ 131.3814317, 31.6007941 ] } },
{ "type": "Feature", "properties": { "内容": "介護医療院　白寿荘【介護医療院】宮崎県小林市堤2939", "url": "https://www.kaigokensaku.mhlw.go.jp/45/index.php?action_kouhyou_detail_004_kani=true&JigyosyoCd=45B0500010-00&ServiceCd=550&Type=search", "url2": null }, "geometry": { "type": "Point", "coordinates": [ 130.9905068, 31.985979 ] } },
{ "type": "Feature", "properties": { "内容": "医療法人社団慶城会瀧井病院　介護医療院【介護医療院】宮崎県日向市大字塩見11652番地瀧井病院介護医療院", "url": "https://www.kaigokensaku.mhlw.go.jp/45/index.php?action_kouhyou_detail_004_kani=true&JigyosyoCd=45B0600018-00&ServiceCd=550&Type=search", "url2": "takii-hospital.com" }, "geometry": { "type": "Point", "coordinates": [ 131.6014629, 32.4113593 ] } },
{ "type": "Feature", "properties": { "内容": "川井田医院介護医療院【介護医療院】宮崎県西諸県郡高原町西麓１７３番地３", "url": "https://www.kaigokensaku.mhlw.go.jp/45/index.php?action_kouhyou_detail_004_kani=true&JigyosyoCd=45B1800013-00&ServiceCd=550&Type=search", "url2": "https://kawaidaclinic.com/" }, "geometry": { "type": "Point", "coordinates": [ 131.000568311639398, 31.92341292172345 ] } },
{ "type": "Feature", "properties": { "内容": "社会医療法人慶明会　けいめい記念病院　介護医療院ひまわり【介護医療院】宮崎県東諸県郡国富町岩知野762番地", "url": "https://www.kaigokensaku.mhlw.go.jp/45/index.php?action_kouhyou_detail_004_kani=true&JigyosyoCd=45B1900011-00&ServiceCd=550&Type=search", "url2": "https://www.keimei-kinen.com/" }, "geometry": { "type": "Point", "coordinates": [ 131.371625508598328, 31.978477059587007 ] } },
{ "type": "Feature", "properties": { "内容": "白石病院介護医療院【介護医療院】宮崎県東臼杵郡門川町大字門川尾末8600-100", "url": "https://www.kaigokensaku.mhlw.go.jp/45/index.php?action_kouhyou_detail_004_kani=true&JigyosyoCd=45B2100025-00&ServiceCd=550&Type=search", "url2": null }, "geometry": { "type": "Point", "coordinates": [ 131.6525446, 32.4734553 ] } },
{ "type": "Feature", "properties": { "内容": "田中病院介護医療院【介護医療院】宮崎県東臼杵郡門川町宮ケ原4丁目80番地特定医療法人浩洋会田中病院", "url": "https://www.kaigokensaku.mhlw.go.jp/45/index.php?action_kouhyou_detail_004_kani=true&JigyosyoCd=45B2100017-00&ServiceCd=550&Type=search", "url2": null }, "geometry": { "type": "Point", "coordinates": [ 131.653674200000012, 32.4813644 ] } },
{ "type": "Feature", "properties": { "内容": "介護医療院　神楽苑【介護医療院】宮崎県西臼杵郡高千穂町押方1130番地", "url": "https://www.kaigokensaku.mhlw.go.jp/45/index.php?action_kouhyou_detail_004_kani=true&JigyosyoCd=45B2200015-00&ServiceCd=550&Type=search", "url2": "https://www.kunimigaoka.or.jp" }, "geometry": { "type": "Point", "coordinates": [ 131.2964431, 32.7120452 ] } },
{ "type": "Feature", "properties": { "内容": "五ヶ瀬町国民健康保険病院介護医療院【介護医療院】宮崎県西臼杵郡五ヶ瀬町大字三ヶ所2109番地1", "url": "https://www.kaigokensaku.mhlw.go.jp/45/index.php?action_kouhyou_detail_004_kani=true&JigyosyoCd=45B2200023-00&ServiceCd=550&Type=search", "url2": "https://www.nishiusuki-hp.jp/gokase/" }, "geometry": { "type": "Point", "coordinates": [ 131.1977661, 32.6844498 ] } }
]
}
