{
"type": "FeatureCollection",
"name": "geo_45_認知症対応型通所介護",
"crs": { "type": "name", "properties": { "name": "urn:ogc:def:crs:OGC:1.3:CRS84" } },
"features": [
{ "type": "Feature", "properties": { "内容": "認知症対応型デイサービス　さくら住吉【認知症対応型通所介護】宮崎市大字島之内字井手下7402番1", "url": "https://www.kaigokensaku.mhlw.go.jp/45/index.php?action_kouhyou_detail_004_kani=true&JigyosyoCd=4590100592-00&ServiceCd=720&Type=search", "url2": "http://www.keimeisw.or.jp" }, "geometry": { "type": "Point", "coordinates": [ 131.46173239999996, 31.9915666 ] } },
{ "type": "Feature", "properties": { "内容": "芳生めいとデイサービスセンター【認知症対応型通所介護】宮崎県宮崎市大字大瀬町3190番地", "url": "https://www.kaigokensaku.mhlw.go.jp/45/index.php?action_kouhyou_detail_004_kani=true&JigyosyoCd=4570102758-00&ServiceCd=720&Type=search", "url2": "http://www.houseien/jp/" }, "geometry": { "type": "Point", "coordinates": [ 131.379485599999953, 31.9842369 ] } },
{ "type": "Feature", "properties": { "内容": "寿幸園デイサービスセンター（認知デイ）【認知症対応型通所介護】宮崎県宮崎市清武町木原5254番地2", "url": "https://www.kaigokensaku.mhlw.go.jp/45/index.php?action_kouhyou_detail_004_kani=true&JigyosyoCd=4591500014-00&ServiceCd=720&Type=search", "url2": "http://www.koujikai.com/" }, "geometry": { "type": "Point", "coordinates": [ 131.401023399999985, 31.8424448 ] } },
{ "type": "Feature", "properties": { "内容": "認知症対応型明照ディサービスセンター【認知症対応型通所介護】宮崎県宮崎市佐土原町下田島4575番地1", "url": "https://www.kaigokensaku.mhlw.go.jp/45/index.php?action_kouhyou_detail_004_kani=true&JigyosyoCd=4590100329-00&ServiceCd=720&Type=search", "url2": "https://meisyo--wa.jp" }, "geometry": { "type": "Point", "coordinates": [ 131.4512603, 32.027296 ] } },
{ "type": "Feature", "properties": { "内容": "認知症対応型通所介護　さくら富吉【認知症対応型通所介護】宮崎県宮崎市大字富吉2139番地2", "url": "https://www.kaigokensaku.mhlw.go.jp/45/index.php?action_kouhyou_detail_004_kani=true&JigyosyoCd=4590100824-00&ServiceCd=720&Type=search", "url2": "http://www.keimeisw.or.jp" }, "geometry": { "type": "Point", "coordinates": [ 131.358097807409649, 31.941177486279123 ] } },
{ "type": "Feature", "properties": { "内容": "認知症対応型通所介護事業所　福寿草【認知症対応型通所介護】宮崎県宮崎市大字広原312番地1", "url": "https://www.kaigokensaku.mhlw.go.jp/45/index.php?action_kouhyou_detail_004_kani=true&JigyosyoCd=4590101319-00&ServiceCd=720&Type=search", "url2": "https://www.fukujusou-miyazaki.com/" }, "geometry": { "type": "Point", "coordinates": [ 131.441211900000013, 31.999064 ] } },
{ "type": "Feature", "properties": { "内容": "めぐみの里デイサービスセンター【認知症対応型通所介護】宮崎県宮崎市佐土原町東上那珂12898", "url": "https://www.kaigokensaku.mhlw.go.jp/45/index.php?action_kouhyou_detail_004_kani=true&JigyosyoCd=4590100428-00&ServiceCd=720&Type=search", "url2": "megumi-village.jp" }, "geometry": { "type": "Point", "coordinates": [ 131.433914609570365, 32.020441917149405 ] } },
{ "type": "Feature", "properties": { "内容": "有限会社ケアハウスぬくもりの里【認知症対応型通所介護】宮崎県都城市五十町２３９４－５", "url": "https://www.kaigokensaku.mhlw.go.jp/45/index.php?action_kouhyou_detail_004_kani=true&JigyosyoCd=4590200020-00&ServiceCd=720&Type=search", "url2": null }, "geometry": { "type": "Point", "coordinates": [ 131.035974300000021, 31.7141709 ] } },
{ "type": "Feature", "properties": { "内容": "デイサービスセンターかすたねっと【認知症対応型通所介護】宮崎県都城市下川東一丁目７号１番地", "url": "https://www.kaigokensaku.mhlw.go.jp/45/index.php?action_kouhyou_detail_004_kani=true&JigyosyoCd=4570201352-00&ServiceCd=720&Type=search", "url2": "http://miraikikaku.sakura.ne.jp/" }, "geometry": { "type": "Point", "coordinates": [ 131.067659400000053, 31.7399081 ] } },
{ "type": "Feature", "properties": { "内容": "デイサービスセンタークララ【認知症対応型通所介護】宮崎県都城市安久町5596番地3", "url": "https://www.kaigokensaku.mhlw.go.jp/45/index.php?action_kouhyou_detail_004_kani=true&JigyosyoCd=4570201345-00&ServiceCd=720&Type=search", "url2": null }, "geometry": { "type": "Point", "coordinates": [ 131.079702431877109, 31.68848436329494 ] } },
{ "type": "Feature", "properties": { "内容": "星空の都デイサービスセンターふるさと【認知症対応型通所介護】都城市豊満町2642-1", "url": "https://www.kaigokensaku.mhlw.go.jp/45/index.php?action_kouhyou_detail_004_kani=true&JigyosyoCd=4590200103-00&ServiceCd=720&Type=search", "url2": "http://www.joryokukai.com" }, "geometry": { "type": "Point", "coordinates": [ 131.094909, 31.6997403 ] } },
{ "type": "Feature", "properties": { "内容": "CordialCare　ほほえみの里【認知症対応型通所介護】宮崎県日南市大字萩之嶺1190番地CordialCareほほえみの里", "url": "https://www.kaigokensaku.mhlw.go.jp/45/index.php?action_kouhyou_detail_004_kani=true&JigyosyoCd=4590400067-00&ServiceCd=720&Type=search", "url2": "http://hohoemino-sato.blog.jp/" }, "geometry": { "type": "Point", "coordinates": [ 131.3404557, 31.5633632 ] } },
{ "type": "Feature", "properties": { "内容": "デイサービス　来見遊【認知症対応型通所介護】大字平野4195-3", "url": "https://www.kaigokensaku.mhlw.go.jp/45/index.php?action_kouhyou_detail_004_kani=true&JigyosyoCd=4590400042-00&ServiceCd=720&Type=search", "url2": null }, "geometry": { "type": "Point", "coordinates": [ 131.394750104893546, 31.5872500750481 ] } },
{ "type": "Feature", "properties": { "内容": "認知症対応型通所介護幸ちゃんの家れんげ【認知症対応型通所介護】宮崎県小林市堤2961-60", "url": "https://www.kaigokensaku.mhlw.go.jp/45/index.php?action_kouhyou_detail_004_kani=true&JigyosyoCd=4571800228-00&ServiceCd=720&Type=search", "url2": "http.//www.yukichannoie.info" }, "geometry": { "type": "Point", "coordinates": [ 130.9927874, 31.986458899999988 ] } },
{ "type": "Feature", "properties": { "内容": "グループホームみみつ2号館【認知症対応型通所介護】宮崎県日向市美々津町2975番地", "url": "https://www.kaigokensaku.mhlw.go.jp/45/index.php?action_kouhyou_detail_004_kani=true&JigyosyoCd=4590600179-00&ServiceCd=720&Type=search", "url2": null }, "geometry": { "type": "Point", "coordinates": [ 131.610205900000011, 32.3339325 ] } },
{ "type": "Feature", "properties": { "内容": "グループホームみみつ【認知症対応型通所介護】宮崎県日向市美々津町３８７０", "url": "https://www.kaigokensaku.mhlw.go.jp/45/index.php?action_kouhyou_detail_004_kani=true&JigyosyoCd=4570600355-00&ServiceCd=720&Type=search", "url2": null }, "geometry": { "type": "Point", "coordinates": [ 131.604865579762304, 32.331195768896642 ] } },
{ "type": "Feature", "properties": { "内容": "デイサービス正寿の光【認知症対応型通所介護】宮崎県北諸県郡三股町大字蓼池4607番地1", "url": "https://www.kaigokensaku.mhlw.go.jp/45/index.php?action_kouhyou_detail_004_kani=true&JigyosyoCd=4591700028-00&ServiceCd=720&Type=search", "url2": "http://www.yoshihara-c.co.jp/business-09.htmi" }, "geometry": { "type": "Point", "coordinates": [ 131.11132269999996, 31.7624296 ] } },
{ "type": "Feature", "properties": { "内容": "認知症デイサービスもてなす【認知症対応型通所介護】東諸県郡国富町大字本庄6545-1", "url": "https://www.kaigokensaku.mhlw.go.jp/45/index.php?action_kouhyou_detail_004_kani=true&JigyosyoCd=4591900057-00&ServiceCd=720&Type=search", "url2": "http:www.ichigoichie-kunitomi.com/" }, "geometry": { "type": "Point", "coordinates": [ 131.3095791, 31.9929481 ] } },
{ "type": "Feature", "properties": { "内容": "デイサービスたいよう【認知症対応型通所介護】宮崎県児湯郡都農町大字川北6219番地45", "url": "https://www.kaigokensaku.mhlw.go.jp/45/index.php?action_kouhyou_detail_004_kani=true&JigyosyoCd=4572000760-00&ServiceCd=720&Type=search", "url2": null }, "geometry": { "type": "Point", "coordinates": [ 131.543998785281246, 32.250445872685411 ] } }
]
}
